<?xml version="1.0" encoding="UTF-8"?>
<gpx version="1.1" creator="mil-rutas-un-destino" xmlns="http://www.topografix.com/GPX/1/1">
  <metadata>
    <name>Casa → Palestina (Caldas)</name>
    <desc>Desde el corazon del hogar (La Sultana, Dosquebradas) hasta Palestina, Caldas.</desc>
  </metadata>
  <wpt lat="4.8195984" lon="-75.6767607"><name>Salida</name></wpt>
  <wpt lat="5.0203683" lon="-75.6223394"><name>Palestina, Caldas</name></wpt>
  <trk><name>Casa a Palestina</name><type>carretera</type><trkseg>
      <trkpt lat="4.819454" lon="-75.676844"></trkpt>
      <trkpt lat="4.819515" lon="-75.676950"></trkpt>
      <trkpt lat="4.819463" lon="-75.677369"></trkpt>
      <trkpt lat="4.819399" lon="-75.677783"></trkpt>
      <trkpt lat="4.820005" lon="-75.678023"></trkpt>
      <trkpt lat="4.820151" lon="-75.678635"></trkpt>
      <trkpt lat="4.820690" lon="-75.678881"></trkpt>
      <trkpt lat="4.821374" lon="-75.679158"></trkpt>
      <trkpt lat="4.821731" lon="-75.679347"></trkpt>
      <trkpt lat="4.822465" lon="-75.679660"></trkpt>
      <trkpt lat="4.822604" lon="-75.679271"></trkpt>
      <trkpt lat="4.822835" lon="-75.678640"></trkpt>
      <trkpt lat="4.823102" lon="-75.678438"></trkpt>
      <trkpt lat="4.823961" lon="-75.677565"></trkpt>
      <trkpt lat="4.824511" lon="-75.677017"></trkpt>
      <trkpt lat="4.824910" lon="-75.676623"></trkpt>
      <trkpt lat="4.825393" lon="-75.677101"></trkpt>
      <trkpt lat="4.825770" lon="-75.677469"></trkpt>
      <trkpt lat="4.826778" lon="-75.678668"></trkpt>
      <trkpt lat="4.827536" lon="-75.679653"></trkpt>
      <trkpt lat="4.828297" lon="-75.680454"></trkpt>
      <trkpt lat="4.828599" lon="-75.680197"></trkpt>
      <trkpt lat="4.828718" lon="-75.680073"></trkpt>
      <trkpt lat="4.829055" lon="-75.679666"></trkpt>
      <trkpt lat="4.829416" lon="-75.679235"></trkpt>
      <trkpt lat="4.829568" lon="-75.679045"></trkpt>
      <trkpt lat="4.829752" lon="-75.678819"></trkpt>
      <trkpt lat="4.829939" lon="-75.678590"></trkpt>
      <trkpt lat="4.830044" lon="-75.678460"></trkpt>
      <trkpt lat="4.830333" lon="-75.678101"></trkpt>
      <trkpt lat="4.830459" lon="-75.677928"></trkpt>
      <trkpt lat="4.830653" lon="-75.677583"></trkpt>
      <trkpt lat="4.830828" lon="-75.677251"></trkpt>
      <trkpt lat="4.830942" lon="-75.677043"></trkpt>
      <trkpt lat="4.831028" lon="-75.676880"></trkpt>
      <trkpt lat="4.831385" lon="-75.676233"></trkpt>
      <trkpt lat="4.831981" lon="-75.675361"></trkpt>
      <trkpt lat="4.832403" lon="-75.674581"></trkpt>
      <trkpt lat="4.832923" lon="-75.673606"></trkpt>
      <trkpt lat="4.833089" lon="-75.673280"></trkpt>
      <trkpt lat="4.833213" lon="-75.673063"></trkpt>
      <trkpt lat="4.833517" lon="-75.672512"></trkpt>
      <trkpt lat="4.833629" lon="-75.672301"></trkpt>
      <trkpt lat="4.833743" lon="-75.672102"></trkpt>
      <trkpt lat="4.833912" lon="-75.671851"></trkpt>
      <trkpt lat="4.834569" lon="-75.671176"></trkpt>
      <trkpt lat="4.834997" lon="-75.670784"></trkpt>
      <trkpt lat="4.835561" lon="-75.670281"></trkpt>
      <trkpt lat="4.835853" lon="-75.670003"></trkpt>
      <trkpt lat="4.836534" lon="-75.669309"></trkpt>
      <trkpt lat="4.836977" lon="-75.668846"></trkpt>
      <trkpt lat="4.837188" lon="-75.668618"></trkpt>
      <trkpt lat="4.837710" lon="-75.668035"></trkpt>
      <trkpt lat="4.837962" lon="-75.667756"></trkpt>
      <trkpt lat="4.838395" lon="-75.667276"></trkpt>
      <trkpt lat="4.838684" lon="-75.666954"></trkpt>
      <trkpt lat="4.839063" lon="-75.666530"></trkpt>
      <trkpt lat="4.839286" lon="-75.666266"></trkpt>
      <trkpt lat="4.839752" lon="-75.665762"></trkpt>
      <trkpt lat="4.840604" lon="-75.664773"></trkpt>
      <trkpt lat="4.840730" lon="-75.664597"></trkpt>
      <trkpt lat="4.840930" lon="-75.664323"></trkpt>
      <trkpt lat="4.841126" lon="-75.664035"></trkpt>
      <trkpt lat="4.841331" lon="-75.663811"></trkpt>
      <trkpt lat="4.841676" lon="-75.663647"></trkpt>
      <trkpt lat="4.842584" lon="-75.663119"></trkpt>
      <trkpt lat="4.843147" lon="-75.662795"></trkpt>
      <trkpt lat="4.843798" lon="-75.662400"></trkpt>
      <trkpt lat="4.844357" lon="-75.662076"></trkpt>
      <trkpt lat="4.844808" lon="-75.661809"></trkpt>
      <trkpt lat="4.845259" lon="-75.661542"></trkpt>
      <trkpt lat="4.845624" lon="-75.661308"></trkpt>
      <trkpt lat="4.845876" lon="-75.661069"></trkpt>
      <trkpt lat="4.846117" lon="-75.660796"></trkpt>
      <trkpt lat="4.846383" lon="-75.660572"></trkpt>
      <trkpt lat="4.847156" lon="-75.660212"></trkpt>
      <trkpt lat="4.847917" lon="-75.659891"></trkpt>
      <trkpt lat="4.848872" lon="-75.659503"></trkpt>
      <trkpt lat="4.850110" lon="-75.658830"></trkpt>
      <trkpt lat="4.850897" lon="-75.658379"></trkpt>
      <trkpt lat="4.851723" lon="-75.657906"></trkpt>
      <trkpt lat="4.851947" lon="-75.657778"></trkpt>
      <trkpt lat="4.852378" lon="-75.657530"></trkpt>
      <trkpt lat="4.853128" lon="-75.657100"></trkpt>
      <trkpt lat="4.853832" lon="-75.656696"></trkpt>
      <trkpt lat="4.854116" lon="-75.656521"></trkpt>
      <trkpt lat="4.854643" lon="-75.656230"></trkpt>
      <trkpt lat="4.855084" lon="-75.656010"></trkpt>
      <trkpt lat="4.855385" lon="-75.655880"></trkpt>
      <trkpt lat="4.855537" lon="-75.655809"></trkpt>
      <trkpt lat="4.856155" lon="-75.655492"></trkpt>
      <trkpt lat="4.856770" lon="-75.655105"></trkpt>
      <trkpt lat="4.857207" lon="-75.654767"></trkpt>
      <trkpt lat="4.857472" lon="-75.654590"></trkpt>
      <trkpt lat="4.858001" lon="-75.654156"></trkpt>
      <trkpt lat="4.858163" lon="-75.654000"></trkpt>
      <trkpt lat="4.858289" lon="-75.653812"></trkpt>
      <trkpt lat="4.858372" lon="-75.653603"></trkpt>
      <trkpt lat="4.858413" lon="-75.653407"></trkpt>
      <trkpt lat="4.858402" lon="-75.653188"></trkpt>
      <trkpt lat="4.858380" lon="-75.653050"></trkpt>
      <trkpt lat="4.858334" lon="-75.652894"></trkpt>
      <trkpt lat="4.858162" lon="-75.652609"></trkpt>
      <trkpt lat="4.857856" lon="-75.652215"></trkpt>
      <trkpt lat="4.857622" lon="-75.651923"></trkpt>
      <trkpt lat="4.857443" lon="-75.651700"></trkpt>
      <trkpt lat="4.856819" lon="-75.650922"></trkpt>
      <trkpt lat="4.856703" lon="-75.650756"></trkpt>
      <trkpt lat="4.856629" lon="-75.650617"></trkpt>
      <trkpt lat="4.856481" lon="-75.650237"></trkpt>
      <trkpt lat="4.856423" lon="-75.649979"></trkpt>
      <trkpt lat="4.856390" lon="-75.649776"></trkpt>
      <trkpt lat="4.856382" lon="-75.649650"></trkpt>
      <trkpt lat="4.856383" lon="-75.649497"></trkpt>
      <trkpt lat="4.856390" lon="-75.649338"></trkpt>
      <trkpt lat="4.856419" lon="-75.649188"></trkpt>
      <trkpt lat="4.856457" lon="-75.649016"></trkpt>
      <trkpt lat="4.856558" lon="-75.648606"></trkpt>
      <trkpt lat="4.856673" lon="-75.648116"></trkpt>
      <trkpt lat="4.856845" lon="-75.647498"></trkpt>
      <trkpt lat="4.857048" lon="-75.646872"></trkpt>
      <trkpt lat="4.857123" lon="-75.646641"></trkpt>
      <trkpt lat="4.857409" lon="-75.645706"></trkpt>
      <trkpt lat="4.857357" lon="-75.645224"></trkpt>
      <trkpt lat="4.857194" lon="-75.644962"></trkpt>
      <trkpt lat="4.856783" lon="-75.644702"></trkpt>
      <trkpt lat="4.856291" lon="-75.644699"></trkpt>
      <trkpt lat="4.855970" lon="-75.644866"></trkpt>
      <trkpt lat="4.855616" lon="-75.645286"></trkpt>
      <trkpt lat="4.854803" lon="-75.646697"></trkpt>
      <trkpt lat="4.854114" lon="-75.647782"></trkpt>
      <trkpt lat="4.853949" lon="-75.648060"></trkpt>
      <trkpt lat="4.853791" lon="-75.648257"></trkpt>
      <trkpt lat="4.853615" lon="-75.648392"></trkpt>
      <trkpt lat="4.853428" lon="-75.648481"></trkpt>
      <trkpt lat="4.853218" lon="-75.648531"></trkpt>
      <trkpt lat="4.853003" lon="-75.648536"></trkpt>
      <trkpt lat="4.852721" lon="-75.648471"></trkpt>
      <trkpt lat="4.852543" lon="-75.648381"></trkpt>
      <trkpt lat="4.852410" lon="-75.648281"></trkpt>
      <trkpt lat="4.852263" lon="-75.648119"></trkpt>
      <trkpt lat="4.852153" lon="-75.647927"></trkpt>
      <trkpt lat="4.852085" lon="-75.647705"></trkpt>
      <trkpt lat="4.852069" lon="-75.647540"></trkpt>
      <trkpt lat="4.852181" lon="-75.647188"></trkpt>
      <trkpt lat="4.852294" lon="-75.647037"></trkpt>
      <trkpt lat="4.852619" lon="-75.646764"></trkpt>
      <trkpt lat="4.853192" lon="-75.646301"></trkpt>
      <trkpt lat="4.853252" lon="-75.646231"></trkpt>
      <trkpt lat="4.853349" lon="-75.646100"></trkpt>
      <trkpt lat="4.853414" lon="-75.645990"></trkpt>
      <trkpt lat="4.853505" lon="-75.645784"></trkpt>
      <trkpt lat="4.853677" lon="-75.645363"></trkpt>
      <trkpt lat="4.853911" lon="-75.644712"></trkpt>
      <trkpt lat="4.854064" lon="-75.644259"></trkpt>
      <trkpt lat="4.854132" lon="-75.643973"></trkpt>
      <trkpt lat="4.854181" lon="-75.643682"></trkpt>
      <trkpt lat="4.854210" lon="-75.643389"></trkpt>
      <trkpt lat="4.854219" lon="-75.643094"></trkpt>
      <trkpt lat="4.854222" lon="-75.642734"></trkpt>
      <trkpt lat="4.854206" lon="-75.642386"></trkpt>
      <trkpt lat="4.854197" lon="-75.642188"></trkpt>
      <trkpt lat="4.854164" lon="-75.641547"></trkpt>
      <trkpt lat="4.854137" lon="-75.641391"></trkpt>
      <trkpt lat="4.854091" lon="-75.641241"></trkpt>
      <trkpt lat="4.854050" lon="-75.641142"></trkpt>
      <trkpt lat="4.853942" lon="-75.641014"></trkpt>
      <trkpt lat="4.853833" lon="-75.640927"></trkpt>
      <trkpt lat="4.853713" lon="-75.640856"></trkpt>
      <trkpt lat="4.853584" lon="-75.640804"></trkpt>
      <trkpt lat="4.853449" lon="-75.640770"></trkpt>
      <trkpt lat="4.853310" lon="-75.640757"></trkpt>
      <trkpt lat="4.853171" lon="-75.640763"></trkpt>
      <trkpt lat="4.853035" lon="-75.640790"></trkpt>
      <trkpt lat="4.852903" lon="-75.640836"></trkpt>
      <trkpt lat="4.852780" lon="-75.640900"></trkpt>
      <trkpt lat="4.852545" lon="-75.641115"></trkpt>
      <trkpt lat="4.852479" lon="-75.641304"></trkpt>
      <trkpt lat="4.852465" lon="-75.641503"></trkpt>
      <trkpt lat="4.852505" lon="-75.641699"></trkpt>
      <trkpt lat="4.852596" lon="-75.641877"></trkpt>
      <trkpt lat="4.852732" lon="-75.642024"></trkpt>
      <trkpt lat="4.852901" lon="-75.642130"></trkpt>
      <trkpt lat="4.853093" lon="-75.642185"></trkpt>
      <trkpt lat="4.853292" lon="-75.642187"></trkpt>
      <trkpt lat="4.853485" lon="-75.642135"></trkpt>
      <trkpt lat="4.853657" lon="-75.642034"></trkpt>
      <trkpt lat="4.853795" lon="-75.641889"></trkpt>
      <trkpt lat="4.853890" lon="-75.641713"></trkpt>
      <trkpt lat="4.853934" lon="-75.641518"></trkpt>
      <trkpt lat="4.853924" lon="-75.641318"></trkpt>
      <trkpt lat="4.853861" lon="-75.641128"></trkpt>
      <trkpt lat="4.853750" lon="-75.640962"></trkpt>
      <trkpt lat="4.853598" lon="-75.640832"></trkpt>
      <trkpt lat="4.853366" lon="-75.640633"></trkpt>
      <trkpt lat="4.852759" lon="-75.639991"></trkpt>
      <trkpt lat="4.852688" lon="-75.639854"></trkpt>
      <trkpt lat="4.852655" lon="-75.639747"></trkpt>
      <trkpt lat="4.852644" lon="-75.639627"></trkpt>
      <trkpt lat="4.852660" lon="-75.639509"></trkpt>
      <trkpt lat="4.852693" lon="-75.639412"></trkpt>
      <trkpt lat="4.852869" lon="-75.638976"></trkpt>
      <trkpt lat="4.852933" lon="-75.638801"></trkpt>
      <trkpt lat="4.852960" lon="-75.638654"></trkpt>
      <trkpt lat="4.852982" lon="-75.638438"></trkpt>
      <trkpt lat="4.852996" lon="-75.638216"></trkpt>
      <trkpt lat="4.853026" lon="-75.638077"></trkpt>
      <trkpt lat="4.853084" lon="-75.637944"></trkpt>
      <trkpt lat="4.853144" lon="-75.637852"></trkpt>
      <trkpt lat="4.853240" lon="-75.637737"></trkpt>
      <trkpt lat="4.853361" lon="-75.637617"></trkpt>
      <trkpt lat="4.853950" lon="-75.637128"></trkpt>
      <trkpt lat="4.854348" lon="-75.636847"></trkpt>
      <trkpt lat="4.854458" lon="-75.636758"></trkpt>
      <trkpt lat="4.854517" lon="-75.636711"></trkpt>
      <trkpt lat="4.854683" lon="-75.636587"></trkpt>
      <trkpt lat="4.854788" lon="-75.636516"></trkpt>
      <trkpt lat="4.854996" lon="-75.636404"></trkpt>
      <trkpt lat="4.855470" lon="-75.636204"></trkpt>
      <trkpt lat="4.856355" lon="-75.635852"></trkpt>
      <trkpt lat="4.857349" lon="-75.635437"></trkpt>
      <trkpt lat="4.857639" lon="-75.635323"></trkpt>
      <trkpt lat="4.857808" lon="-75.635268"></trkpt>
      <trkpt lat="4.857971" lon="-75.635232"></trkpt>
      <trkpt lat="4.858273" lon="-75.635202"></trkpt>
      <trkpt lat="4.858749" lon="-75.635166"></trkpt>
      <trkpt lat="4.858943" lon="-75.635139"></trkpt>
      <trkpt lat="4.859103" lon="-75.635101"></trkpt>
      <trkpt lat="4.859286" lon="-75.635036"></trkpt>
      <trkpt lat="4.859589" lon="-75.634833"></trkpt>
      <trkpt lat="4.859724" lon="-75.634741"></trkpt>
      <trkpt lat="4.859855" lon="-75.634638"></trkpt>
      <trkpt lat="4.860131" lon="-75.634413"></trkpt>
      <trkpt lat="4.860664" lon="-75.633961"></trkpt>
      <trkpt lat="4.861173" lon="-75.633636"></trkpt>
      <trkpt lat="4.861385" lon="-75.633569"></trkpt>
      <trkpt lat="4.861584" lon="-75.633542"></trkpt>
      <trkpt lat="4.861917" lon="-75.633533"></trkpt>
      <trkpt lat="4.862591" lon="-75.633543"></trkpt>
      <trkpt lat="4.864306" lon="-75.633580"></trkpt>
      <trkpt lat="4.865489" lon="-75.633628"></trkpt>
      <trkpt lat="4.866075" lon="-75.633501"></trkpt>
      <trkpt lat="4.866652" lon="-75.633218"></trkpt>
      <trkpt lat="4.867145" lon="-75.632957"></trkpt>
      <trkpt lat="4.867578" lon="-75.632814"></trkpt>
      <trkpt lat="4.867951" lon="-75.632778"></trkpt>
      <trkpt lat="4.868870" lon="-75.632837"></trkpt>
      <trkpt lat="4.869577" lon="-75.632898"></trkpt>
      <trkpt lat="4.871029" lon="-75.633024"></trkpt>
      <trkpt lat="4.871780" lon="-75.633264"></trkpt>
      <trkpt lat="4.872937" lon="-75.633620"></trkpt>
      <trkpt lat="4.874039" lon="-75.633868"></trkpt>
      <trkpt lat="4.876094" lon="-75.634065"></trkpt>
      <trkpt lat="4.876454" lon="-75.634086"></trkpt>
      <trkpt lat="4.876678" lon="-75.634059"></trkpt>
      <trkpt lat="4.876862" lon="-75.634008"></trkpt>
      <trkpt lat="4.877240" lon="-75.633835"></trkpt>
      <trkpt lat="4.877643" lon="-75.633630"></trkpt>
      <trkpt lat="4.877932" lon="-75.633446"></trkpt>
      <trkpt lat="4.878338" lon="-75.633169"></trkpt>
      <trkpt lat="4.879076" lon="-75.632676"></trkpt>
      <trkpt lat="4.879441" lon="-75.632414"></trkpt>
      <trkpt lat="4.879943" lon="-75.632084"></trkpt>
      <trkpt lat="4.880299" lon="-75.631853"></trkpt>
      <trkpt lat="4.880619" lon="-75.631622"></trkpt>
      <trkpt lat="4.880873" lon="-75.631382"></trkpt>
      <trkpt lat="4.881555" lon="-75.630712"></trkpt>
      <trkpt lat="4.882310" lon="-75.629975"></trkpt>
      <trkpt lat="4.882956" lon="-75.629322"></trkpt>
      <trkpt lat="4.883398" lon="-75.628892"></trkpt>
      <trkpt lat="4.883699" lon="-75.628651"></trkpt>
      <trkpt lat="4.883998" lon="-75.628434"></trkpt>
      <trkpt lat="4.884353" lon="-75.628250"></trkpt>
      <trkpt lat="4.884833" lon="-75.628062"></trkpt>
      <trkpt lat="4.885468" lon="-75.627866"></trkpt>
      <trkpt lat="4.885963" lon="-75.627689"></trkpt>
      <trkpt lat="4.886282" lon="-75.627574"></trkpt>
      <trkpt lat="4.886478" lon="-75.627547"></trkpt>
      <trkpt lat="4.886713" lon="-75.627549"></trkpt>
      <trkpt lat="4.887081" lon="-75.627610"></trkpt>
      <trkpt lat="4.887632" lon="-75.627762"></trkpt>
      <trkpt lat="4.888011" lon="-75.627830"></trkpt>
      <trkpt lat="4.888429" lon="-75.627838"></trkpt>
      <trkpt lat="4.888679" lon="-75.627816"></trkpt>
      <trkpt lat="4.888949" lon="-75.627757"></trkpt>
      <trkpt lat="4.889516" lon="-75.627590"></trkpt>
      <trkpt lat="4.890325" lon="-75.627316"></trkpt>
      <trkpt lat="4.890735" lon="-75.627206"></trkpt>
      <trkpt lat="4.891136" lon="-75.627143"></trkpt>
      <trkpt lat="4.891480" lon="-75.627111"></trkpt>
      <trkpt lat="4.891938" lon="-75.627119"></trkpt>
      <trkpt lat="4.892311" lon="-75.627140"></trkpt>
      <trkpt lat="4.892952" lon="-75.627232"></trkpt>
      <trkpt lat="4.893167" lon="-75.627261"></trkpt>
      <trkpt lat="4.893692" lon="-75.627316"></trkpt>
      <trkpt lat="4.894346" lon="-75.627402"></trkpt>
      <trkpt lat="4.894951" lon="-75.627495"></trkpt>
      <trkpt lat="4.895496" lon="-75.627573"></trkpt>
      <trkpt lat="4.896031" lon="-75.627636"></trkpt>
      <trkpt lat="4.896316" lon="-75.627653"></trkpt>
      <trkpt lat="4.896513" lon="-75.627647"></trkpt>
      <trkpt lat="4.896760" lon="-75.627623"></trkpt>
      <trkpt lat="4.897242" lon="-75.627556"></trkpt>
      <trkpt lat="4.897547" lon="-75.627512"></trkpt>
      <trkpt lat="4.898163" lon="-75.627420"></trkpt>
      <trkpt lat="4.898385" lon="-75.627402"></trkpt>
      <trkpt lat="4.898557" lon="-75.627413"></trkpt>
      <trkpt lat="4.898872" lon="-75.627470"></trkpt>
      <trkpt lat="4.899257" lon="-75.627541"></trkpt>
      <trkpt lat="4.899525" lon="-75.627566"></trkpt>
      <trkpt lat="4.899924" lon="-75.627547"></trkpt>
      <trkpt lat="4.900429" lon="-75.627466"></trkpt>
      <trkpt lat="4.901046" lon="-75.627366"></trkpt>
      <trkpt lat="4.902310" lon="-75.627138"></trkpt>
      <trkpt lat="4.903247" lon="-75.627025"></trkpt>
      <trkpt lat="4.903729" lon="-75.626918"></trkpt>
      <trkpt lat="4.904046" lon="-75.626820"></trkpt>
      <trkpt lat="4.904441" lon="-75.626655"></trkpt>
      <trkpt lat="4.904755" lon="-75.626507"></trkpt>
      <trkpt lat="4.905241" lon="-75.626287"></trkpt>
      <trkpt lat="4.905732" lon="-75.626106"></trkpt>
      <trkpt lat="4.906080" lon="-75.626012"></trkpt>
      <trkpt lat="4.906358" lon="-75.625974"></trkpt>
      <trkpt lat="4.906694" lon="-75.625951"></trkpt>
      <trkpt lat="4.906869" lon="-75.625955"></trkpt>
      <trkpt lat="4.907197" lon="-75.626007"></trkpt>
      <trkpt lat="4.907476" lon="-75.626067"></trkpt>
      <trkpt lat="4.908220" lon="-75.626228"></trkpt>
      <trkpt lat="4.909186" lon="-75.626437"></trkpt>
      <trkpt lat="4.910095" lon="-75.626628"></trkpt>
      <trkpt lat="4.910519" lon="-75.626693"></trkpt>
      <trkpt lat="4.910742" lon="-75.626707"></trkpt>
      <trkpt lat="4.910936" lon="-75.626673"></trkpt>
      <trkpt lat="4.911097" lon="-75.626583"></trkpt>
      <trkpt lat="4.911243" lon="-75.626464"></trkpt>
      <trkpt lat="4.911405" lon="-75.626268"></trkpt>
      <trkpt lat="4.911501" lon="-75.626121"></trkpt>
      <trkpt lat="4.911692" lon="-75.625821"></trkpt>
      <trkpt lat="4.911907" lon="-75.625466"></trkpt>
      <trkpt lat="4.912027" lon="-75.625304"></trkpt>
      <trkpt lat="4.912185" lon="-75.625151"></trkpt>
      <trkpt lat="4.912396" lon="-75.625023"></trkpt>
      <trkpt lat="4.912653" lon="-75.624940"></trkpt>
      <trkpt lat="4.912923" lon="-75.624906"></trkpt>
      <trkpt lat="4.913412" lon="-75.624902"></trkpt>
      <trkpt lat="4.914465" lon="-75.624859"></trkpt>
      <trkpt lat="4.915307" lon="-75.624789"></trkpt>
      <trkpt lat="4.915494" lon="-75.624761"></trkpt>
      <trkpt lat="4.915664" lon="-75.624668"></trkpt>
      <trkpt lat="4.915804" lon="-75.624547"></trkpt>
      <trkpt lat="4.916044" lon="-75.624292"></trkpt>
      <trkpt lat="4.916200" lon="-75.624162"></trkpt>
      <trkpt lat="4.916384" lon="-75.624067"></trkpt>
      <trkpt lat="4.916768" lon="-75.623902"></trkpt>
      <trkpt lat="4.916994" lon="-75.623809"></trkpt>
      <trkpt lat="4.917101" lon="-75.623799"></trkpt>
      <trkpt lat="4.917322" lon="-75.623835"></trkpt>
      <trkpt lat="4.917459" lon="-75.623846"></trkpt>
      <trkpt lat="4.917558" lon="-75.623814"></trkpt>
      <trkpt lat="4.917762" lon="-75.623649"></trkpt>
      <trkpt lat="4.917910" lon="-75.623528"></trkpt>
      <trkpt lat="4.918037" lon="-75.623451"></trkpt>
      <trkpt lat="4.918226" lon="-75.623378"></trkpt>
      <trkpt lat="4.918510" lon="-75.623291"></trkpt>
      <trkpt lat="4.918621" lon="-75.623284"></trkpt>
      <trkpt lat="4.918782" lon="-75.623341"></trkpt>
      <trkpt lat="4.919086" lon="-75.623511"></trkpt>
      <trkpt lat="4.919267" lon="-75.623663"></trkpt>
      <trkpt lat="4.919426" lon="-75.623822"></trkpt>
      <trkpt lat="4.919543" lon="-75.623915"></trkpt>
      <trkpt lat="4.919657" lon="-75.623950"></trkpt>
      <trkpt lat="4.920017" lon="-75.623970"></trkpt>
      <trkpt lat="4.920375" lon="-75.623985"></trkpt>
      <trkpt lat="4.920503" lon="-75.624015"></trkpt>
      <trkpt lat="4.920677" lon="-75.624105"></trkpt>
      <trkpt lat="4.920798" lon="-75.624150"></trkpt>
      <trkpt lat="4.920907" lon="-75.624156"></trkpt>
      <trkpt lat="4.921015" lon="-75.624130"></trkpt>
      <trkpt lat="4.921262" lon="-75.624034"></trkpt>
      <trkpt lat="4.921526" lon="-75.623942"></trkpt>
      <trkpt lat="4.921660" lon="-75.623933"></trkpt>
      <trkpt lat="4.921969" lon="-75.624050"></trkpt>
      <trkpt lat="4.922145" lon="-75.624116"></trkpt>
      <trkpt lat="4.922263" lon="-75.624092"></trkpt>
      <trkpt lat="4.922395" lon="-75.624010"></trkpt>
      <trkpt lat="4.922559" lon="-75.623923"></trkpt>
      <trkpt lat="4.922707" lon="-75.623884"></trkpt>
      <trkpt lat="4.922967" lon="-75.623881"></trkpt>
      <trkpt lat="4.923125" lon="-75.623872"></trkpt>
      <trkpt lat="4.923220" lon="-75.623854"></trkpt>
      <trkpt lat="4.923422" lon="-75.623787"></trkpt>
      <trkpt lat="4.923553" lon="-75.623744"></trkpt>
      <trkpt lat="4.923670" lon="-75.623727"></trkpt>
      <trkpt lat="4.923850" lon="-75.623729"></trkpt>
      <trkpt lat="4.923985" lon="-75.623759"></trkpt>
      <trkpt lat="4.924082" lon="-75.623828"></trkpt>
      <trkpt lat="4.924162" lon="-75.623937"></trkpt>
      <trkpt lat="4.924265" lon="-75.624103"></trkpt>
      <trkpt lat="4.924347" lon="-75.624187"></trkpt>
      <trkpt lat="4.924561" lon="-75.624299"></trkpt>
      <trkpt lat="4.924692" lon="-75.624328"></trkpt>
      <trkpt lat="4.924814" lon="-75.624311"></trkpt>
      <trkpt lat="4.924928" lon="-75.624234"></trkpt>
      <trkpt lat="4.925040" lon="-75.624090"></trkpt>
      <trkpt lat="4.925144" lon="-75.623956"></trkpt>
      <trkpt lat="4.925261" lon="-75.623869"></trkpt>
      <trkpt lat="4.925443" lon="-75.623797"></trkpt>
      <trkpt lat="4.925886" lon="-75.623662"></trkpt>
      <trkpt lat="4.926072" lon="-75.623629"></trkpt>
      <trkpt lat="4.926277" lon="-75.623623"></trkpt>
      <trkpt lat="4.926431" lon="-75.623641"></trkpt>
      <trkpt lat="4.926603" lon="-75.623681"></trkpt>
      <trkpt lat="4.926769" lon="-75.623692"></trkpt>
      <trkpt lat="4.926922" lon="-75.623662"></trkpt>
      <trkpt lat="4.927331" lon="-75.623566"></trkpt>
      <trkpt lat="4.927922" lon="-75.623430"></trkpt>
      <trkpt lat="4.928190" lon="-75.623352"></trkpt>
      <trkpt lat="4.928408" lon="-75.623245"></trkpt>
      <trkpt lat="4.928610" lon="-75.623100"></trkpt>
      <trkpt lat="4.928792" lon="-75.622955"></trkpt>
      <trkpt lat="4.928984" lon="-75.622793"></trkpt>
      <trkpt lat="4.929152" lon="-75.622595"></trkpt>
      <trkpt lat="4.929444" lon="-75.622225"></trkpt>
      <trkpt lat="4.929705" lon="-75.621913"></trkpt>
      <trkpt lat="4.929867" lon="-75.621842"></trkpt>
      <trkpt lat="4.930021" lon="-75.621847"></trkpt>
      <trkpt lat="4.930238" lon="-75.621903"></trkpt>
      <trkpt lat="4.930403" lon="-75.621911"></trkpt>
      <trkpt lat="4.930541" lon="-75.621861"></trkpt>
      <trkpt lat="4.930678" lon="-75.621757"></trkpt>
      <trkpt lat="4.930804" lon="-75.621591"></trkpt>
      <trkpt lat="4.930892" lon="-75.621478"></trkpt>
      <trkpt lat="4.930998" lon="-75.621398"></trkpt>
      <trkpt lat="4.931160" lon="-75.621341"></trkpt>
      <trkpt lat="4.931367" lon="-75.621269"></trkpt>
      <trkpt lat="4.931478" lon="-75.621183"></trkpt>
      <trkpt lat="4.931555" lon="-75.621029"></trkpt>
      <trkpt lat="4.931628" lon="-75.620839"></trkpt>
      <trkpt lat="4.931711" lon="-75.620738"></trkpt>
      <trkpt lat="4.931831" lon="-75.620685"></trkpt>
      <trkpt lat="4.932030" lon="-75.620627"></trkpt>
      <trkpt lat="4.932195" lon="-75.620543"></trkpt>
      <trkpt lat="4.932362" lon="-75.620388"></trkpt>
      <trkpt lat="4.932884" lon="-75.619890"></trkpt>
      <trkpt lat="4.933314" lon="-75.619488"></trkpt>
      <trkpt lat="4.933472" lon="-75.619368"></trkpt>
      <trkpt lat="4.933691" lon="-75.619276"></trkpt>
      <trkpt lat="4.934560" lon="-75.618962"></trkpt>
      <trkpt lat="4.934837" lon="-75.618847"></trkpt>
      <trkpt lat="4.934987" lon="-75.618757"></trkpt>
      <trkpt lat="4.935168" lon="-75.618596"></trkpt>
      <trkpt lat="4.935356" lon="-75.618462"></trkpt>
      <trkpt lat="4.935797" lon="-75.618219"></trkpt>
      <trkpt lat="4.936439" lon="-75.617856"></trkpt>
      <trkpt lat="4.936650" lon="-75.617826"></trkpt>
      <trkpt lat="4.937377" lon="-75.617839"></trkpt>
      <trkpt lat="4.937903" lon="-75.617853"></trkpt>
      <trkpt lat="4.938542" lon="-75.617912"></trkpt>
      <trkpt lat="4.939418" lon="-75.617963"></trkpt>
      <trkpt lat="4.940001" lon="-75.617842"></trkpt>
      <trkpt lat="4.941337" lon="-75.617402"></trkpt>
      <trkpt lat="4.942144" lon="-75.617230"></trkpt>
      <trkpt lat="4.943015" lon="-75.617341"></trkpt>
      <trkpt lat="4.943734" lon="-75.617724"></trkpt>
      <trkpt lat="4.944394" lon="-75.618148"></trkpt>
      <trkpt lat="4.944896" lon="-75.618459"></trkpt>
      <trkpt lat="4.945446" lon="-75.618808"></trkpt>
      <trkpt lat="4.945806" lon="-75.618978"></trkpt>
      <trkpt lat="4.946242" lon="-75.619131"></trkpt>
      <trkpt lat="4.946526" lon="-75.619163"></trkpt>
      <trkpt lat="4.948649" lon="-75.618852"></trkpt>
      <trkpt lat="4.949175" lon="-75.618766"></trkpt>
      <trkpt lat="4.950016" lon="-75.618577"></trkpt>
      <trkpt lat="4.950141" lon="-75.618553"></trkpt>
      <trkpt lat="4.951641" lon="-75.618286"></trkpt>
      <trkpt lat="4.952336" lon="-75.618108"></trkpt>
      <trkpt lat="4.952679" lon="-75.617972"></trkpt>
      <trkpt lat="4.953080" lon="-75.617947"></trkpt>
      <trkpt lat="4.953830" lon="-75.618076"></trkpt>
      <trkpt lat="4.954229" lon="-75.618205"></trkpt>
      <trkpt lat="4.954573" lon="-75.618267"></trkpt>
      <trkpt lat="4.954872" lon="-75.618240"></trkpt>
      <trkpt lat="4.955211" lon="-75.618057"></trkpt>
      <trkpt lat="4.955643" lon="-75.617713"></trkpt>
      <trkpt lat="4.955961" lon="-75.617536"></trkpt>
      <trkpt lat="4.956449" lon="-75.617474"></trkpt>
      <trkpt lat="4.956932" lon="-75.617621"></trkpt>
      <trkpt lat="4.957392" lon="-75.617954"></trkpt>
      <trkpt lat="4.957747" lon="-75.618230"></trkpt>
      <trkpt lat="4.958226" lon="-75.618544"></trkpt>
      <trkpt lat="4.958471" lon="-75.618673"></trkpt>
      <trkpt lat="4.958840" lon="-75.618766"></trkpt>
      <trkpt lat="4.959453" lon="-75.618760"></trkpt>
      <trkpt lat="4.959727" lon="-75.618670"></trkpt>
      <trkpt lat="4.959997" lon="-75.618519"></trkpt>
      <trkpt lat="4.960856" lon="-75.617828"></trkpt>
      <trkpt lat="4.961233" lon="-75.617589"></trkpt>
      <trkpt lat="4.961501" lon="-75.617526"></trkpt>
      <trkpt lat="4.961789" lon="-75.617538"></trkpt>
      <trkpt lat="4.962009" lon="-75.617662"></trkpt>
      <trkpt lat="4.962360" lon="-75.617942"></trkpt>
      <trkpt lat="4.963159" lon="-75.618488"></trkpt>
      <trkpt lat="4.963425" lon="-75.618657"></trkpt>
      <trkpt lat="4.963555" lon="-75.618733"></trkpt>
      <trkpt lat="4.963780" lon="-75.618847"></trkpt>
      <trkpt lat="4.964022" lon="-75.618955"></trkpt>
      <trkpt lat="4.964269" lon="-75.619051"></trkpt>
      <trkpt lat="4.964608" lon="-75.619162"></trkpt>
      <trkpt lat="4.965481" lon="-75.619449"></trkpt>
      <trkpt lat="4.965961" lon="-75.619579"></trkpt>
      <trkpt lat="4.966439" lon="-75.619712"></trkpt>
      <trkpt lat="4.966601" lon="-75.619753"></trkpt>
      <trkpt lat="4.967040" lon="-75.619864"></trkpt>
      <trkpt lat="4.967577" lon="-75.619982"></trkpt>
      <trkpt lat="4.968176" lon="-75.620093"></trkpt>
      <trkpt lat="4.968621" lon="-75.620174"></trkpt>
      <trkpt lat="4.968808" lon="-75.620198"></trkpt>
      <trkpt lat="4.968999" lon="-75.620213"></trkpt>
      <trkpt lat="4.969265" lon="-75.620219"></trkpt>
      <trkpt lat="4.969571" lon="-75.620210"></trkpt>
      <trkpt lat="4.969801" lon="-75.620184"></trkpt>
      <trkpt lat="4.970428" lon="-75.620082"></trkpt>
      <trkpt lat="4.971199" lon="-75.619955"></trkpt>
      <trkpt lat="4.971854" lon="-75.619873"></trkpt>
      <trkpt lat="4.972647" lon="-75.619780"></trkpt>
      <trkpt lat="4.972725" lon="-75.619836"></trkpt>
      <trkpt lat="4.972810" lon="-75.619885"></trkpt>
      <trkpt lat="4.973045" lon="-75.619926"></trkpt>
      <trkpt lat="4.973275" lon="-75.619949"></trkpt>
      <trkpt lat="4.973414" lon="-75.619990"></trkpt>
      <trkpt lat="4.973558" lon="-75.620176"></trkpt>
      <trkpt lat="4.973714" lon="-75.620284"></trkpt>
      <trkpt lat="4.973854" lon="-75.620192"></trkpt>
      <trkpt lat="4.974034" lon="-75.620013"></trkpt>
      <trkpt lat="4.974237" lon="-75.620095"></trkpt>
      <trkpt lat="4.974602" lon="-75.620726"></trkpt>
      <trkpt lat="4.974848" lon="-75.621068"></trkpt>
      <trkpt lat="4.975581" lon="-75.621576"></trkpt>
      <trkpt lat="4.976371" lon="-75.622089"></trkpt>
      <trkpt lat="4.977516" lon="-75.622857"></trkpt>
      <trkpt lat="4.978983" lon="-75.623489"></trkpt>
      <trkpt lat="4.979566" lon="-75.623668"></trkpt>
      <trkpt lat="4.979927" lon="-75.623858"></trkpt>
      <trkpt lat="4.980442" lon="-75.624347"></trkpt>
      <trkpt lat="4.980699" lon="-75.624440"></trkpt>
      <trkpt lat="4.980856" lon="-75.624536"></trkpt>
      <trkpt lat="4.980986" lon="-75.624745"></trkpt>
      <trkpt lat="4.981200" lon="-75.625441"></trkpt>
      <trkpt lat="4.981355" lon="-75.626421"></trkpt>
      <trkpt lat="4.981356" lon="-75.626879"></trkpt>
      <trkpt lat="4.981554" lon="-75.627256"></trkpt>
      <trkpt lat="4.981468" lon="-75.627431"></trkpt>
      <trkpt lat="4.981499" lon="-75.627490"></trkpt>
      <trkpt lat="4.981639" lon="-75.627379"></trkpt>
      <trkpt lat="4.981729" lon="-75.627121"></trkpt>
      <trkpt lat="4.981836" lon="-75.627065"></trkpt>
      <trkpt lat="4.981969" lon="-75.627123"></trkpt>
      <trkpt lat="4.982049" lon="-75.627284"></trkpt>
      <trkpt lat="4.981687" lon="-75.627784"></trkpt>
      <trkpt lat="4.981517" lon="-75.627941"></trkpt>
      <trkpt lat="4.981567" lon="-75.628066"></trkpt>
      <trkpt lat="4.981760" lon="-75.628097"></trkpt>
      <trkpt lat="4.982122" lon="-75.628084"></trkpt>
      <trkpt lat="4.982646" lon="-75.627799"></trkpt>
      <trkpt lat="4.983176" lon="-75.627647"></trkpt>
      <trkpt lat="4.983742" lon="-75.627540"></trkpt>
      <trkpt lat="4.983897" lon="-75.627419"></trkpt>
      <trkpt lat="4.984106" lon="-75.627477"></trkpt>
      <trkpt lat="4.984434" lon="-75.627653"></trkpt>
      <trkpt lat="4.984694" lon="-75.627712"></trkpt>
      <trkpt lat="4.984931" lon="-75.628150"></trkpt>
      <trkpt lat="4.985159" lon="-75.628300"></trkpt>
      <trkpt lat="4.985677" lon="-75.628451"></trkpt>
      <trkpt lat="4.985904" lon="-75.628483"></trkpt>
      <trkpt lat="4.986503" lon="-75.628472"></trkpt>
      <trkpt lat="4.986902" lon="-75.628793"></trkpt>
      <trkpt lat="4.987430" lon="-75.629149"></trkpt>
      <trkpt lat="4.987741" lon="-75.629220"></trkpt>
      <trkpt lat="4.987819" lon="-75.629359"></trkpt>
      <trkpt lat="4.987809" lon="-75.629578"></trkpt>
      <trkpt lat="4.987931" lon="-75.629611"></trkpt>
      <trkpt lat="4.988037" lon="-75.629496"></trkpt>
      <trkpt lat="4.988144" lon="-75.629269"></trkpt>
      <trkpt lat="4.988221" lon="-75.629322"></trkpt>
      <trkpt lat="4.988212" lon="-75.629665"></trkpt>
      <trkpt lat="4.988142" lon="-75.629875"></trkpt>
      <trkpt lat="4.988172" lon="-75.630025"></trkpt>
      <trkpt lat="4.988410" lon="-75.630126"></trkpt>
      <trkpt lat="4.988819" lon="-75.630515"></trkpt>
      <trkpt lat="4.989109" lon="-75.630698"></trkpt>
      <trkpt lat="4.989885" lon="-75.630863"></trkpt>
      <trkpt lat="4.990172" lon="-75.630821"></trkpt>
      <trkpt lat="4.990315" lon="-75.630550"></trkpt>
      <trkpt lat="4.990556" lon="-75.630242"></trkpt>
      <trkpt lat="4.990721" lon="-75.630202"></trkpt>
      <trkpt lat="4.991025" lon="-75.630273"></trkpt>
      <trkpt lat="4.991429" lon="-75.630100"></trkpt>
      <trkpt lat="4.992398" lon="-75.629698"></trkpt>
      <trkpt lat="4.992595" lon="-75.629646"></trkpt>
      <trkpt lat="4.993311" lon="-75.629570"></trkpt>
      <trkpt lat="4.993658" lon="-75.629497"></trkpt>
      <trkpt lat="4.994026" lon="-75.629563"></trkpt>
      <trkpt lat="4.993957" lon="-75.629502"></trkpt>
      <trkpt lat="4.993803" lon="-75.629437"></trkpt>
      <trkpt lat="4.993564" lon="-75.629353"></trkpt>
      <trkpt lat="4.994167" lon="-75.629348"></trkpt>
      <trkpt lat="4.994809" lon="-75.629407"></trkpt>
      <trkpt lat="4.995101" lon="-75.629453"></trkpt>
      <trkpt lat="4.995409" lon="-75.629560"></trkpt>
      <trkpt lat="4.995632" lon="-75.629695"></trkpt>
      <trkpt lat="4.995890" lon="-75.629881"></trkpt>
      <trkpt lat="4.996120" lon="-75.629962"></trkpt>
      <trkpt lat="4.996494" lon="-75.629995"></trkpt>
      <trkpt lat="4.996889" lon="-75.629997"></trkpt>
      <trkpt lat="4.997041" lon="-75.629987"></trkpt>
      <trkpt lat="4.997209" lon="-75.629936"></trkpt>
      <trkpt lat="4.997492" lon="-75.629802"></trkpt>
      <trkpt lat="4.997705" lon="-75.629754"></trkpt>
      <trkpt lat="4.998030" lon="-75.629749"></trkpt>
      <trkpt lat="4.998499" lon="-75.629774"></trkpt>
      <trkpt lat="4.998887" lon="-75.629735"></trkpt>
      <trkpt lat="4.999224" lon="-75.629646"></trkpt>
      <trkpt lat="4.999515" lon="-75.629553"></trkpt>
      <trkpt lat="4.999739" lon="-75.629474"></trkpt>
      <trkpt lat="4.999901" lon="-75.629385"></trkpt>
      <trkpt lat="5.000319" lon="-75.629059"></trkpt>
      <trkpt lat="5.000652" lon="-75.628821"></trkpt>
      <trkpt lat="5.000897" lon="-75.628690"></trkpt>
      <trkpt lat="5.001543" lon="-75.628424"></trkpt>
      <trkpt lat="5.002312" lon="-75.628026"></trkpt>
      <trkpt lat="5.002614" lon="-75.627881"></trkpt>
      <trkpt lat="5.002828" lon="-75.627822"></trkpt>
      <trkpt lat="5.003134" lon="-75.627760"></trkpt>
      <trkpt lat="5.003326" lon="-75.627693"></trkpt>
      <trkpt lat="5.003864" lon="-75.627434"></trkpt>
      <trkpt lat="5.004392" lon="-75.627225"></trkpt>
      <trkpt lat="5.004637" lon="-75.627178"></trkpt>
      <trkpt lat="5.005232" lon="-75.627153"></trkpt>
      <trkpt lat="5.005541" lon="-75.627123"></trkpt>
      <trkpt lat="5.005721" lon="-75.626992"></trkpt>
      <trkpt lat="5.005912" lon="-75.626762"></trkpt>
      <trkpt lat="5.005998" lon="-75.626743"></trkpt>
      <trkpt lat="5.006064" lon="-75.626763"></trkpt>
      <trkpt lat="5.006155" lon="-75.626851"></trkpt>
      <trkpt lat="5.006412" lon="-75.627429"></trkpt>
      <trkpt lat="5.006565" lon="-75.627636"></trkpt>
      <trkpt lat="5.006697" lon="-75.627729"></trkpt>
      <trkpt lat="5.006867" lon="-75.627774"></trkpt>
      <trkpt lat="5.007123" lon="-75.627803"></trkpt>
      <trkpt lat="5.007321" lon="-75.627786"></trkpt>
      <trkpt lat="5.007466" lon="-75.627837"></trkpt>
      <trkpt lat="5.007625" lon="-75.627963"></trkpt>
      <trkpt lat="5.007725" lon="-75.628130"></trkpt>
      <trkpt lat="5.007731" lon="-75.628304"></trkpt>
      <trkpt lat="5.007675" lon="-75.628464"></trkpt>
      <trkpt lat="5.007570" lon="-75.628633"></trkpt>
      <trkpt lat="5.007492" lon="-75.628827"></trkpt>
      <trkpt lat="5.007540" lon="-75.629038"></trkpt>
      <trkpt lat="5.007725" lon="-75.629237"></trkpt>
      <trkpt lat="5.007866" lon="-75.629301"></trkpt>
      <trkpt lat="5.007981" lon="-75.629275"></trkpt>
      <trkpt lat="5.008091" lon="-75.629164"></trkpt>
      <trkpt lat="5.008423" lon="-75.628997"></trkpt>
      <trkpt lat="5.008826" lon="-75.628856"></trkpt>
      <trkpt lat="5.009049" lon="-75.628855"></trkpt>
      <trkpt lat="5.009296" lon="-75.628966"></trkpt>
      <trkpt lat="5.009457" lon="-75.629137"></trkpt>
      <trkpt lat="5.009515" lon="-75.629174"></trkpt>
      <trkpt lat="5.009522" lon="-75.629034"></trkpt>
      <trkpt lat="5.009378" lon="-75.628847"></trkpt>
      <trkpt lat="5.009196" lon="-75.628644"></trkpt>
      <trkpt lat="5.009169" lon="-75.628559"></trkpt>
      <trkpt lat="5.009167" lon="-75.628484"></trkpt>
      <trkpt lat="5.009212" lon="-75.628369"></trkpt>
      <trkpt lat="5.009493" lon="-75.627863"></trkpt>
      <trkpt lat="5.009575" lon="-75.627712"></trkpt>
      <trkpt lat="5.009632" lon="-75.627574"></trkpt>
      <trkpt lat="5.009658" lon="-75.627411"></trkpt>
      <trkpt lat="5.009676" lon="-75.627165"></trkpt>
      <trkpt lat="5.009680" lon="-75.626868"></trkpt>
      <trkpt lat="5.009636" lon="-75.626672"></trkpt>
      <trkpt lat="5.009544" lon="-75.626530"></trkpt>
      <trkpt lat="5.009466" lon="-75.626395"></trkpt>
      <trkpt lat="5.009439" lon="-75.626216"></trkpt>
      <trkpt lat="5.009444" lon="-75.625957"></trkpt>
      <trkpt lat="5.009449" lon="-75.625554"></trkpt>
      <trkpt lat="5.009487" lon="-75.625424"></trkpt>
      <trkpt lat="5.009571" lon="-75.625284"></trkpt>
      <trkpt lat="5.009654" lon="-75.625130"></trkpt>
      <trkpt lat="5.009696" lon="-75.624968"></trkpt>
      <trkpt lat="5.009759" lon="-75.624810"></trkpt>
      <trkpt lat="5.009874" lon="-75.624724"></trkpt>
      <trkpt lat="5.010135" lon="-75.624632"></trkpt>
      <trkpt lat="5.010686" lon="-75.624475"></trkpt>
      <trkpt lat="5.011045" lon="-75.624327"></trkpt>
      <trkpt lat="5.011707" lon="-75.624059"></trkpt>
      <trkpt lat="5.012175" lon="-75.623959"></trkpt>
      <trkpt lat="5.012437" lon="-75.623925"></trkpt>
      <trkpt lat="5.013235" lon="-75.623873"></trkpt>
      <trkpt lat="5.014898" lon="-75.623705"></trkpt>
      <trkpt lat="5.015965" lon="-75.623709"></trkpt>
      <trkpt lat="5.016390" lon="-75.623618"></trkpt>
      <trkpt lat="5.016677" lon="-75.623684"></trkpt>
      <trkpt lat="5.016824" lon="-75.623832"></trkpt>
      <trkpt lat="5.016924" lon="-75.623979"></trkpt>
      <trkpt lat="5.017089" lon="-75.624024"></trkpt>
      <trkpt lat="5.017219" lon="-75.624002"></trkpt>
      <trkpt lat="5.017357" lon="-75.624127"></trkpt>
      <trkpt lat="5.017580" lon="-75.624421"></trkpt>
      <trkpt lat="5.017792" lon="-75.624576"></trkpt>
      <trkpt lat="5.018037" lon="-75.624723"></trkpt>
      <trkpt lat="5.018279" lon="-75.624642"></trkpt>
      <trkpt lat="5.018448" lon="-75.624415"></trkpt>
      <trkpt lat="5.018616" lon="-75.624270"></trkpt>
      <trkpt lat="5.018881" lon="-75.624057"></trkpt>
      <trkpt lat="5.019109" lon="-75.623895"></trkpt>
      <trkpt lat="5.019287" lon="-75.623794"></trkpt>
      <trkpt lat="5.019430" lon="-75.623707"></trkpt>
      <trkpt lat="5.020069" lon="-75.623558"></trkpt>
      <trkpt lat="5.020499" lon="-75.622691"></trkpt>
      <trkpt lat="5.020314" lon="-75.622062"></trkpt>
      <trkpt lat="5.020210" lon="-75.622251"></trkpt>
    </trkseg></trk></gpx>