<?xml version="1.0" encoding="UTF-8"?>
<gpx version="1.1" creator="entre-lomas-y-tazas" xmlns="http://www.topografix.com/GPX/1/1">
  <metadata>
    <name>La Sultana (Dosquebradas) → Hacienda El Jordán (Viterbo)</name>
    <desc>Base en barrio La Sultana, Dosquebradas, Risaralda. Destino Viterbo, Caldas — Hacienda El Jordán. Trazo por carretera (OSRM) alineado a la ruta de Google Maps que compartieron.</desc>
  </metadata>
  <wpt lat="4.8195984" lon="-75.6767607"><name>Casa · La Sultana, Dosquebradas</name></wpt>
  <wpt lat="5.057656" lon="-75.8715827"><name>Hacienda El Jordán, Viterbo</name></wpt>
  <wpt lat="5.0605779" lon="-75.872356"><name>Viterbo, Caldas (casco)</name></wpt>
  <trk>
    <name>Dosquebradas → Viterbo</name>
    <type>carretera</type>
    <trkseg>
      <trkpt lat="4.819598" lon="-75.676761"></trkpt>
      <trkpt lat="4.817816" lon="-75.676607"></trkpt>
      <trkpt lat="4.817608" lon="-75.676390"></trkpt>
      <trkpt lat="4.817926" lon="-75.676083"></trkpt>
      <trkpt lat="4.818374" lon="-75.675664"></trkpt>
      <trkpt lat="4.818763" lon="-75.675297"></trkpt>
      <trkpt lat="4.819268" lon="-75.675206"></trkpt>
      <trkpt lat="4.819430" lon="-75.675387"></trkpt>
      <trkpt lat="4.819620" lon="-75.675601"></trkpt>
      <trkpt lat="4.820193" lon="-75.675677"></trkpt>
      <trkpt lat="4.820728" lon="-75.675688"></trkpt>
      <trkpt lat="4.820997" lon="-75.675732"></trkpt>
      <trkpt lat="4.821282" lon="-75.675840"></trkpt>
      <trkpt lat="4.821560" lon="-75.676058"></trkpt>
      <trkpt lat="4.821879" lon="-75.676200"></trkpt>
      <trkpt lat="4.822195" lon="-75.676214"></trkpt>
      <trkpt lat="4.822529" lon="-75.676270"></trkpt>
      <trkpt lat="4.822836" lon="-75.676374"></trkpt>
      <trkpt lat="4.823297" lon="-75.676793"></trkpt>
      <trkpt lat="4.824598" lon="-75.678064"></trkpt>
      <trkpt lat="4.824705" lon="-75.678202"></trkpt>
      <trkpt lat="4.824736" lon="-75.678308"></trkpt>
      <trkpt lat="4.824767" lon="-75.679409"></trkpt>
      <trkpt lat="4.825400" lon="-75.680518"></trkpt>
      <trkpt lat="4.826188" lon="-75.681794"></trkpt>
      <trkpt lat="4.826227" lon="-75.681852"></trkpt>
      <trkpt lat="4.826270" lon="-75.681915"></trkpt>
      <trkpt lat="4.826091" lon="-75.682034"></trkpt>
      <trkpt lat="4.825559" lon="-75.682371"></trkpt>
      <trkpt lat="4.825151" lon="-75.682621"></trkpt>
      <trkpt lat="4.824859" lon="-75.682800"></trkpt>
      <trkpt lat="4.823949" lon="-75.683343"></trkpt>
      <trkpt lat="4.823533" lon="-75.683515"></trkpt>
      <trkpt lat="4.822846" lon="-75.683772"></trkpt>
      <trkpt lat="4.822226" lon="-75.684011"></trkpt>
      <trkpt lat="4.822102" lon="-75.684111"></trkpt>
      <trkpt lat="4.821997" lon="-75.684249"></trkpt>
      <trkpt lat="4.821761" lon="-75.684617"></trkpt>
      <trkpt lat="4.821670" lon="-75.684705"></trkpt>
      <trkpt lat="4.821516" lon="-75.684819"></trkpt>
      <trkpt lat="4.821430" lon="-75.684862"></trkpt>
      <trkpt lat="4.821046" lon="-75.685013"></trkpt>
      <trkpt lat="4.820346" lon="-75.685276"></trkpt>
      <trkpt lat="4.819570" lon="-75.685515"></trkpt>
      <trkpt lat="4.818947" lon="-75.685725"></trkpt>
      <trkpt lat="4.814170" lon="-75.687385"></trkpt>
      <trkpt lat="4.814058" lon="-75.687437"></trkpt>
      <trkpt lat="4.813972" lon="-75.687528"></trkpt>
      <trkpt lat="4.813927" lon="-75.687697"></trkpt>
      <trkpt lat="4.813926" lon="-75.687807"></trkpt>
      <trkpt lat="4.814067" lon="-75.689122"></trkpt>
      <trkpt lat="4.814077" lon="-75.689202"></trkpt>
      <trkpt lat="4.814149" lon="-75.689743"></trkpt>
      <trkpt lat="4.814195" lon="-75.690026"></trkpt>
      <trkpt lat="4.814381" lon="-75.691683"></trkpt>
      <trkpt lat="4.814474" lon="-75.692507"></trkpt>
      <trkpt lat="4.814567" lon="-75.693334"></trkpt>
      <trkpt lat="4.814663" lon="-75.694180"></trkpt>
      <trkpt lat="4.814672" lon="-75.694249"></trkpt>
      <trkpt lat="4.814764" lon="-75.695008"></trkpt>
      <trkpt lat="4.814806" lon="-75.695371"></trkpt>
      <trkpt lat="4.814870" lon="-75.695899"></trkpt>
      <trkpt lat="4.814969" lon="-75.696723"></trkpt>
      <trkpt lat="4.815067" lon="-75.697533"></trkpt>
      <trkpt lat="4.815074" lon="-75.697593"></trkpt>
      <trkpt lat="4.815173" lon="-75.698414"></trkpt>
      <trkpt lat="4.815221" lon="-75.698847"></trkpt>
      <trkpt lat="4.815262" lon="-75.699238"></trkpt>
      <trkpt lat="4.815356" lon="-75.700048"></trkpt>
      <trkpt lat="4.815369" lon="-75.700150"></trkpt>
      <trkpt lat="4.815473" lon="-75.700935"></trkpt>
      <trkpt lat="4.815566" lon="-75.701736"></trkpt>
      <trkpt lat="4.815573" lon="-75.701797"></trkpt>
      <trkpt lat="4.815658" lon="-75.702594"></trkpt>
      <trkpt lat="4.815752" lon="-75.703411"></trkpt>
      <trkpt lat="4.815759" lon="-75.703469"></trkpt>
      <trkpt lat="4.815859" lon="-75.704254"></trkpt>
      <trkpt lat="4.815952" lon="-75.705094"></trkpt>
      <trkpt lat="4.815958" lon="-75.705149"></trkpt>
      <trkpt lat="4.816054" lon="-75.706064"></trkpt>
      <trkpt lat="4.816078" lon="-75.706303"></trkpt>
      <trkpt lat="4.816137" lon="-75.706778"></trkpt>
      <trkpt lat="4.816219" lon="-75.707580"></trkpt>
      <trkpt lat="4.816225" lon="-75.707633"></trkpt>
      <trkpt lat="4.816323" lon="-75.708455"></trkpt>
      <trkpt lat="4.816406" lon="-75.709151"></trkpt>
      <trkpt lat="4.816516" lon="-75.710076"></trkpt>
      <trkpt lat="4.816524" lon="-75.710149"></trkpt>
      <trkpt lat="4.816613" lon="-75.710970"></trkpt>
      <trkpt lat="4.816619" lon="-75.711023"></trkpt>
      <trkpt lat="4.816712" lon="-75.711809"></trkpt>
      <trkpt lat="4.816739" lon="-75.712052"></trkpt>
      <trkpt lat="4.816833" lon="-75.712562"></trkpt>
      <trkpt lat="4.816850" lon="-75.712626"></trkpt>
      <trkpt lat="4.816932" lon="-75.713169"></trkpt>
      <trkpt lat="4.816970" lon="-75.713431"></trkpt>
      <trkpt lat="4.816985" lon="-75.714037"></trkpt>
      <trkpt lat="4.816991" lon="-75.714111"></trkpt>
      <trkpt lat="4.817037" lon="-75.714556"></trkpt>
      <trkpt lat="4.817097" lon="-75.715085"></trkpt>
      <trkpt lat="4.817096" lon="-75.715191"></trkpt>
      <trkpt lat="4.817076" lon="-75.715273"></trkpt>
      <trkpt lat="4.817019" lon="-75.715359"></trkpt>
      <trkpt lat="4.816932" lon="-75.715439"></trkpt>
      <trkpt lat="4.816808" lon="-75.715522"></trkpt>
      <trkpt lat="4.816654" lon="-75.715649"></trkpt>
      <trkpt lat="4.816595" lon="-75.715725"></trkpt>
      <trkpt lat="4.816554" lon="-75.715825"></trkpt>
      <trkpt lat="4.816532" lon="-75.716035"></trkpt>
      <trkpt lat="4.816521" lon="-75.716147"></trkpt>
      <trkpt lat="4.816483" lon="-75.716369"></trkpt>
      <trkpt lat="4.816430" lon="-75.716618"></trkpt>
      <trkpt lat="4.816406" lon="-75.716801"></trkpt>
      <trkpt lat="4.816444" lon="-75.716930"></trkpt>
      <trkpt lat="4.816450" lon="-75.717032"></trkpt>
      <trkpt lat="4.816438" lon="-75.717117"></trkpt>
      <trkpt lat="4.816398" lon="-75.717184"></trkpt>
      <trkpt lat="4.816342" lon="-75.717225"></trkpt>
      <trkpt lat="4.816255" lon="-75.717417"></trkpt>
      <trkpt lat="4.815987" lon="-75.718139"></trkpt>
      <trkpt lat="4.815937" lon="-75.718806"></trkpt>
      <trkpt lat="4.816047" lon="-75.719733"></trkpt>
      <trkpt lat="4.816041" lon="-75.720311"></trkpt>
      <trkpt lat="4.816020" lon="-75.720723"></trkpt>
      <trkpt lat="4.816003" lon="-75.721080"></trkpt>
      <trkpt lat="4.815929" lon="-75.722528"></trkpt>
      <trkpt lat="4.815827" lon="-75.724420"></trkpt>
      <trkpt lat="4.815771" lon="-75.725391"></trkpt>
      <trkpt lat="4.815695" lon="-75.726079"></trkpt>
      <trkpt lat="4.815637" lon="-75.726499"></trkpt>
      <trkpt lat="4.815572" lon="-75.726957"></trkpt>
      <trkpt lat="4.815504" lon="-75.727504"></trkpt>
      <trkpt lat="4.815461" lon="-75.727911"></trkpt>
      <trkpt lat="4.815439" lon="-75.728159"></trkpt>
      <trkpt lat="4.815476" lon="-75.728939"></trkpt>
      <trkpt lat="4.815447" lon="-75.729658"></trkpt>
      <trkpt lat="4.815344" lon="-75.729901"></trkpt>
      <trkpt lat="4.814966" lon="-75.730474"></trkpt>
      <trkpt lat="4.814565" lon="-75.730948"></trkpt>
      <trkpt lat="4.814223" lon="-75.731353"></trkpt>
      <trkpt lat="4.814044" lon="-75.731625"></trkpt>
      <trkpt lat="4.813869" lon="-75.731973"></trkpt>
      <trkpt lat="4.813760" lon="-75.732331"></trkpt>
      <trkpt lat="4.813596" lon="-75.733141"></trkpt>
      <trkpt lat="4.813576" lon="-75.733438"></trkpt>
      <trkpt lat="4.813577" lon="-75.733672"></trkpt>
      <trkpt lat="4.813578" lon="-75.734167"></trkpt>
      <trkpt lat="4.813466" lon="-75.734488"></trkpt>
      <trkpt lat="4.813187" lon="-75.735121"></trkpt>
      <trkpt lat="4.813077" lon="-75.735420"></trkpt>
      <trkpt lat="4.812892" lon="-75.735835"></trkpt>
      <trkpt lat="4.812244" lon="-75.737015"></trkpt>
      <trkpt lat="4.811804" lon="-75.737815"></trkpt>
      <trkpt lat="4.811385" lon="-75.738566"></trkpt>
      <trkpt lat="4.811191" lon="-75.738923"></trkpt>
      <trkpt lat="4.810133" lon="-75.740839"></trkpt>
      <trkpt lat="4.809739" lon="-75.741594"></trkpt>
      <trkpt lat="4.809612" lon="-75.741908"></trkpt>
      <trkpt lat="4.809523" lon="-75.742257"></trkpt>
      <trkpt lat="4.809134" lon="-75.745181"></trkpt>
      <trkpt lat="4.808746" lon="-75.747520"></trkpt>
      <trkpt lat="4.808684" lon="-75.748012"></trkpt>
      <trkpt lat="4.808679" lon="-75.748370"></trkpt>
      <trkpt lat="4.808711" lon="-75.748671"></trkpt>
      <trkpt lat="4.808789" lon="-75.748979"></trkpt>
      <trkpt lat="4.808938" lon="-75.749338"></trkpt>
      <trkpt lat="4.809369" lon="-75.750070"></trkpt>
      <trkpt lat="4.809607" lon="-75.750432"></trkpt>
      <trkpt lat="4.809856" lon="-75.750816"></trkpt>
      <trkpt lat="4.810114" lon="-75.751254"></trkpt>
      <trkpt lat="4.810440" lon="-75.752122"></trkpt>
      <trkpt lat="4.810685" lon="-75.752873"></trkpt>
      <trkpt lat="4.811078" lon="-75.754137"></trkpt>
      <trkpt lat="4.811623" lon="-75.755810"></trkpt>
      <trkpt lat="4.811873" lon="-75.756555"></trkpt>
      <trkpt lat="4.812189" lon="-75.757525"></trkpt>
      <trkpt lat="4.812645" lon="-75.758963"></trkpt>
      <trkpt lat="4.813126" lon="-75.760410"></trkpt>
      <trkpt lat="4.813209" lon="-75.760653"></trkpt>
      <trkpt lat="4.813372" lon="-75.761153"></trkpt>
      <trkpt lat="4.813764" lon="-75.762348"></trkpt>
      <trkpt lat="4.813930" lon="-75.763127"></trkpt>
      <trkpt lat="4.813955" lon="-75.763761"></trkpt>
      <trkpt lat="4.813818" lon="-75.764605"></trkpt>
      <trkpt lat="4.813608" lon="-75.765163"></trkpt>
      <trkpt lat="4.813414" lon="-75.765562"></trkpt>
      <trkpt lat="4.812790" lon="-75.766688"></trkpt>
      <trkpt lat="4.812487" lon="-75.767236"></trkpt>
      <trkpt lat="4.811949" lon="-75.768225"></trkpt>
      <trkpt lat="4.811651" lon="-75.768763"></trkpt>
      <trkpt lat="4.811033" lon="-75.769901"></trkpt>
      <trkpt lat="4.810682" lon="-75.770685"></trkpt>
      <trkpt lat="4.810650" lon="-75.771110"></trkpt>
      <trkpt lat="4.810678" lon="-75.771308"></trkpt>
      <trkpt lat="4.810747" lon="-75.771524"></trkpt>
      <trkpt lat="4.811095" lon="-75.772048"></trkpt>
      <trkpt lat="4.812260" lon="-75.773197"></trkpt>
      <trkpt lat="4.812497" lon="-75.773598"></trkpt>
      <trkpt lat="4.812657" lon="-75.774323"></trkpt>
      <trkpt lat="4.812474" lon="-75.775251"></trkpt>
      <trkpt lat="4.812183" lon="-75.776110"></trkpt>
      <trkpt lat="4.812119" lon="-75.776509"></trkpt>
      <trkpt lat="4.812167" lon="-75.776807"></trkpt>
      <trkpt lat="4.812416" lon="-75.777430"></trkpt>
      <trkpt lat="4.812751" lon="-75.778073"></trkpt>
      <trkpt lat="4.812952" lon="-75.778618"></trkpt>
      <trkpt lat="4.813017" lon="-75.779032"></trkpt>
      <trkpt lat="4.813018" lon="-75.779548"></trkpt>
      <trkpt lat="4.812924" lon="-75.780029"></trkpt>
      <trkpt lat="4.812751" lon="-75.780720"></trkpt>
      <trkpt lat="4.812735" lon="-75.781199"></trkpt>
      <trkpt lat="4.812803" lon="-75.781617"></trkpt>
      <trkpt lat="4.813275" lon="-75.782439"></trkpt>
      <trkpt lat="4.813792" lon="-75.783421"></trkpt>
      <trkpt lat="4.813872" lon="-75.783857"></trkpt>
      <trkpt lat="4.813893" lon="-75.784246"></trkpt>
      <trkpt lat="4.813973" lon="-75.785750"></trkpt>
      <trkpt lat="4.814140" lon="-75.788744"></trkpt>
      <trkpt lat="4.814184" lon="-75.790282"></trkpt>
      <trkpt lat="4.814087" lon="-75.792033"></trkpt>
      <trkpt lat="4.813884" lon="-75.793828"></trkpt>
      <trkpt lat="4.813564" lon="-75.795851"></trkpt>
      <trkpt lat="4.813341" lon="-75.797377"></trkpt>
      <trkpt lat="4.813335" lon="-75.797898"></trkpt>
      <trkpt lat="4.813388" lon="-75.798435"></trkpt>
      <trkpt lat="4.813486" lon="-75.799019"></trkpt>
      <trkpt lat="4.813921" lon="-75.801712"></trkpt>
      <trkpt lat="4.814311" lon="-75.803968"></trkpt>
      <trkpt lat="4.814110" lon="-75.805141"></trkpt>
      <trkpt lat="4.813679" lon="-75.806054"></trkpt>
      <trkpt lat="4.812713" lon="-75.807343"></trkpt>
      <trkpt lat="4.812509" lon="-75.807639"></trkpt>
      <trkpt lat="4.811346" lon="-75.809140"></trkpt>
      <trkpt lat="4.811144" lon="-75.809405"></trkpt>
      <trkpt lat="4.810885" lon="-75.809745"></trkpt>
      <trkpt lat="4.810251" lon="-75.810617"></trkpt>
      <trkpt lat="4.809826" lon="-75.811164"></trkpt>
      <trkpt lat="4.809186" lon="-75.812191"></trkpt>
      <trkpt lat="4.809159" lon="-75.812239"></trkpt>
      <trkpt lat="4.808676" lon="-75.813092"></trkpt>
      <trkpt lat="4.808329" lon="-75.813721"></trkpt>
      <trkpt lat="4.807138" lon="-75.815497"></trkpt>
      <trkpt lat="4.806825" lon="-75.815999"></trkpt>
      <trkpt lat="4.806659" lon="-75.816529"></trkpt>
      <trkpt lat="4.806601" lon="-75.816984"></trkpt>
      <trkpt lat="4.806630" lon="-75.817365"></trkpt>
      <trkpt lat="4.806752" lon="-75.818536"></trkpt>
      <trkpt lat="4.806758" lon="-75.819764"></trkpt>
      <trkpt lat="4.806479" lon="-75.820983"></trkpt>
      <trkpt lat="4.806218" lon="-75.821724"></trkpt>
      <trkpt lat="4.805990" lon="-75.822202"></trkpt>
      <trkpt lat="4.805667" lon="-75.822763"></trkpt>
      <trkpt lat="4.805306" lon="-75.823241"></trkpt>
      <trkpt lat="4.804957" lon="-75.823676"></trkpt>
      <trkpt lat="4.804496" lon="-75.824202"></trkpt>
      <trkpt lat="4.803735" lon="-75.825054"></trkpt>
      <trkpt lat="4.803319" lon="-75.825561"></trkpt>
      <trkpt lat="4.803096" lon="-75.825927"></trkpt>
      <trkpt lat="4.802842" lon="-75.826535"></trkpt>
      <trkpt lat="4.802780" lon="-75.826884"></trkpt>
      <trkpt lat="4.802766" lon="-75.827263"></trkpt>
      <trkpt lat="4.802799" lon="-75.827594"></trkpt>
      <trkpt lat="4.802878" lon="-75.828154"></trkpt>
      <trkpt lat="4.802963" lon="-75.828700"></trkpt>
      <trkpt lat="4.803058" lon="-75.829126"></trkpt>
      <trkpt lat="4.803391" lon="-75.830225"></trkpt>
      <trkpt lat="4.803426" lon="-75.830517"></trkpt>
      <trkpt lat="4.803352" lon="-75.831204"></trkpt>
      <trkpt lat="4.803305" lon="-75.831547"></trkpt>
      <trkpt lat="4.803310" lon="-75.831809"></trkpt>
      <trkpt lat="4.803390" lon="-75.833060"></trkpt>
      <trkpt lat="4.803502" lon="-75.834145"></trkpt>
      <trkpt lat="4.803507" lon="-75.834544"></trkpt>
      <trkpt lat="4.803475" lon="-75.834999"></trkpt>
      <trkpt lat="4.803419" lon="-75.835316"></trkpt>
      <trkpt lat="4.803224" lon="-75.836031"></trkpt>
      <trkpt lat="4.802950" lon="-75.837014"></trkpt>
      <trkpt lat="4.802172" lon="-75.839530"></trkpt>
      <trkpt lat="4.801839" lon="-75.840369"></trkpt>
      <trkpt lat="4.801188" lon="-75.841477"></trkpt>
      <trkpt lat="4.801068" lon="-75.841800"></trkpt>
      <trkpt lat="4.801074" lon="-75.841897"></trkpt>
      <trkpt lat="4.801108" lon="-75.841981"></trkpt>
      <trkpt lat="4.801217" lon="-75.842088"></trkpt>
      <trkpt lat="4.801379" lon="-75.842143"></trkpt>
      <trkpt lat="4.802725" lon="-75.842512"></trkpt>
      <trkpt lat="4.804105" lon="-75.842815"></trkpt>
      <trkpt lat="4.804431" lon="-75.842867"></trkpt>
      <trkpt lat="4.804624" lon="-75.842868"></trkpt>
      <trkpt lat="4.804836" lon="-75.842846"></trkpt>
      <trkpt lat="4.804990" lon="-75.842820"></trkpt>
      <trkpt lat="4.805258" lon="-75.842732"></trkpt>
      <trkpt lat="4.805611" lon="-75.842554"></trkpt>
      <trkpt lat="4.806101" lon="-75.842186"></trkpt>
      <trkpt lat="4.806254" lon="-75.842058"></trkpt>
      <trkpt lat="4.806770" lon="-75.841682"></trkpt>
      <trkpt lat="4.807075" lon="-75.841521"></trkpt>
      <trkpt lat="4.807915" lon="-75.841299"></trkpt>
      <trkpt lat="4.808577" lon="-75.841138"></trkpt>
      <trkpt lat="4.809254" lon="-75.840991"></trkpt>
      <trkpt lat="4.810258" lon="-75.840749"></trkpt>
      <trkpt lat="4.811532" lon="-75.840477"></trkpt>
      <trkpt lat="4.812251" lon="-75.840429"></trkpt>
      <trkpt lat="4.813209" lon="-75.840376"></trkpt>
      <trkpt lat="4.813868" lon="-75.840375"></trkpt>
      <trkpt lat="4.814480" lon="-75.840373"></trkpt>
      <trkpt lat="4.815264" lon="-75.840370"></trkpt>
      <trkpt lat="4.815692" lon="-75.840376"></trkpt>
      <trkpt lat="4.816582" lon="-75.840392"></trkpt>
      <trkpt lat="4.817013" lon="-75.840408"></trkpt>
      <trkpt lat="4.818226" lon="-75.840469"></trkpt>
      <trkpt lat="4.818504" lon="-75.840504"></trkpt>
      <trkpt lat="4.818619" lon="-75.840519"></trkpt>
      <trkpt lat="4.819006" lon="-75.840572"></trkpt>
      <trkpt lat="4.819322" lon="-75.840642"></trkpt>
      <trkpt lat="4.819517" lon="-75.840682"></trkpt>
      <trkpt lat="4.819905" lon="-75.840760"></trkpt>
      <trkpt lat="4.820311" lon="-75.840855"></trkpt>
      <trkpt lat="4.820665" lon="-75.840936"></trkpt>
      <trkpt lat="4.821069" lon="-75.841031"></trkpt>
      <trkpt lat="4.821365" lon="-75.841102"></trkpt>
      <trkpt lat="4.821815" lon="-75.841200"></trkpt>
      <trkpt lat="4.821976" lon="-75.841236"></trkpt>
      <trkpt lat="4.822410" lon="-75.841331"></trkpt>
      <trkpt lat="4.822643" lon="-75.841382"></trkpt>
      <trkpt lat="4.823133" lon="-75.841492"></trkpt>
      <trkpt lat="4.823484" lon="-75.841570"></trkpt>
      <trkpt lat="4.823785" lon="-75.841644"></trkpt>
      <trkpt lat="4.824211" lon="-75.841750"></trkpt>
      <trkpt lat="4.824317" lon="-75.841774"></trkpt>
      <trkpt lat="4.824663" lon="-75.841872"></trkpt>
      <trkpt lat="4.824903" lon="-75.841949"></trkpt>
      <trkpt lat="4.825135" lon="-75.842038"></trkpt>
      <trkpt lat="4.825568" lon="-75.842234"></trkpt>
      <trkpt lat="4.825791" lon="-75.842355"></trkpt>
      <trkpt lat="4.825962" lon="-75.842464"></trkpt>
      <trkpt lat="4.826213" lon="-75.842637"></trkpt>
      <trkpt lat="4.826440" lon="-75.842810"></trkpt>
      <trkpt lat="4.826778" lon="-75.843119"></trkpt>
      <trkpt lat="4.827033" lon="-75.843389"></trkpt>
      <trkpt lat="4.827277" lon="-75.843654"></trkpt>
      <trkpt lat="4.827516" lon="-75.843913"></trkpt>
      <trkpt lat="4.827730" lon="-75.844149"></trkpt>
      <trkpt lat="4.827847" lon="-75.844278"></trkpt>
      <trkpt lat="4.828035" lon="-75.844490"></trkpt>
      <trkpt lat="4.828155" lon="-75.844616"></trkpt>
      <trkpt lat="4.828544" lon="-75.845056"></trkpt>
      <trkpt lat="4.828874" lon="-75.845401"></trkpt>
      <trkpt lat="4.829069" lon="-75.845615"></trkpt>
      <trkpt lat="4.829416" lon="-75.845999"></trkpt>
      <trkpt lat="4.829616" lon="-75.846223"></trkpt>
      <trkpt lat="4.829757" lon="-75.846380"></trkpt>
      <trkpt lat="4.829979" lon="-75.846622"></trkpt>
      <trkpt lat="4.830177" lon="-75.846860"></trkpt>
      <trkpt lat="4.830381" lon="-75.847119"></trkpt>
      <trkpt lat="4.830738" lon="-75.847644"></trkpt>
      <trkpt lat="4.831050" lon="-75.848111"></trkpt>
      <trkpt lat="4.831124" lon="-75.848215"></trkpt>
      <trkpt lat="4.831335" lon="-75.848529"></trkpt>
      <trkpt lat="4.831523" lon="-75.848806"></trkpt>
      <trkpt lat="4.831786" lon="-75.849206"></trkpt>
      <trkpt lat="4.831970" lon="-75.849484"></trkpt>
      <trkpt lat="4.832181" lon="-75.849800"></trkpt>
      <trkpt lat="4.832362" lon="-75.850070"></trkpt>
      <trkpt lat="4.832456" lon="-75.850203"></trkpt>
      <trkpt lat="4.832563" lon="-75.850332"></trkpt>
      <trkpt lat="4.832722" lon="-75.850482"></trkpt>
      <trkpt lat="4.832947" lon="-75.850659"></trkpt>
      <trkpt lat="4.833126" lon="-75.850776"></trkpt>
      <trkpt lat="4.833352" lon="-75.850914"></trkpt>
      <trkpt lat="4.833717" lon="-75.851125"></trkpt>
      <trkpt lat="4.834183" lon="-75.851400"></trkpt>
      <trkpt lat="4.834469" lon="-75.851573"></trkpt>
      <trkpt lat="4.834669" lon="-75.851693"></trkpt>
      <trkpt lat="4.834997" lon="-75.851921"></trkpt>
      <trkpt lat="4.835302" lon="-75.852226"></trkpt>
      <trkpt lat="4.835587" lon="-75.852630"></trkpt>
      <trkpt lat="4.835686" lon="-75.852784"></trkpt>
      <trkpt lat="4.835946" lon="-75.853191"></trkpt>
      <trkpt lat="4.836069" lon="-75.853383"></trkpt>
      <trkpt lat="4.836425" lon="-75.853940"></trkpt>
      <trkpt lat="4.836714" lon="-75.854376"></trkpt>
      <trkpt lat="4.836873" lon="-75.854625"></trkpt>
      <trkpt lat="4.837215" lon="-75.855183"></trkpt>
      <trkpt lat="4.837755" lon="-75.856013"></trkpt>
      <trkpt lat="4.837992" lon="-75.856399"></trkpt>
      <trkpt lat="4.838245" lon="-75.856820"></trkpt>
      <trkpt lat="4.838423" lon="-75.857074"></trkpt>
      <trkpt lat="4.838757" lon="-75.857497"></trkpt>
      <trkpt lat="4.839158" lon="-75.857967"></trkpt>
      <trkpt lat="4.840325" lon="-75.859227"></trkpt>
      <trkpt lat="4.840500" lon="-75.859418"></trkpt>
      <trkpt lat="4.841139" lon="-75.860114"></trkpt>
      <trkpt lat="4.841760" lon="-75.860804"></trkpt>
      <trkpt lat="4.842125" lon="-75.861199"></trkpt>
      <trkpt lat="4.842314" lon="-75.861392"></trkpt>
      <trkpt lat="4.842631" lon="-75.861731"></trkpt>
      <trkpt lat="4.842869" lon="-75.861973"></trkpt>
      <trkpt lat="4.843086" lon="-75.862163"></trkpt>
      <trkpt lat="4.843569" lon="-75.862506"></trkpt>
      <trkpt lat="4.843942" lon="-75.862708"></trkpt>
      <trkpt lat="4.844494" lon="-75.862917"></trkpt>
      <trkpt lat="4.844850" lon="-75.863039"></trkpt>
      <trkpt lat="4.845284" lon="-75.863189"></trkpt>
      <trkpt lat="4.846042" lon="-75.863451"></trkpt>
      <trkpt lat="4.846845" lon="-75.863724"></trkpt>
      <trkpt lat="4.847418" lon="-75.863919"></trkpt>
      <trkpt lat="4.848118" lon="-75.864154"></trkpt>
      <trkpt lat="4.848519" lon="-75.864292"></trkpt>
      <trkpt lat="4.849017" lon="-75.864453"></trkpt>
      <trkpt lat="4.849420" lon="-75.864595"></trkpt>
      <trkpt lat="4.849941" lon="-75.864831"></trkpt>
      <trkpt lat="4.850930" lon="-75.865300"></trkpt>
      <trkpt lat="4.851344" lon="-75.865514"></trkpt>
      <trkpt lat="4.851638" lon="-75.865735"></trkpt>
      <trkpt lat="4.851865" lon="-75.865990"></trkpt>
      <trkpt lat="4.852081" lon="-75.866329"></trkpt>
      <trkpt lat="4.852300" lon="-75.866681"></trkpt>
      <trkpt lat="4.852467" lon="-75.866858"></trkpt>
      <trkpt lat="4.852671" lon="-75.867015"></trkpt>
      <trkpt lat="4.852946" lon="-75.867165"></trkpt>
      <trkpt lat="4.853077" lon="-75.867215"></trkpt>
      <trkpt lat="4.853304" lon="-75.867267"></trkpt>
      <trkpt lat="4.853589" lon="-75.867287"></trkpt>
      <trkpt lat="4.854015" lon="-75.867293"></trkpt>
      <trkpt lat="4.854331" lon="-75.867318"></trkpt>
      <trkpt lat="4.854608" lon="-75.867383"></trkpt>
      <trkpt lat="4.854961" lon="-75.867501"></trkpt>
      <trkpt lat="4.855238" lon="-75.867602"></trkpt>
      <trkpt lat="4.855677" lon="-75.867750"></trkpt>
      <trkpt lat="4.856004" lon="-75.867857"></trkpt>
      <trkpt lat="4.856279" lon="-75.867948"></trkpt>
      <trkpt lat="4.856549" lon="-75.868043"></trkpt>
      <trkpt lat="4.856903" lon="-75.868178"></trkpt>
      <trkpt lat="4.857164" lon="-75.868244"></trkpt>
      <trkpt lat="4.857412" lon="-75.868277"></trkpt>
      <trkpt lat="4.857635" lon="-75.868285"></trkpt>
      <trkpt lat="4.857790" lon="-75.868273"></trkpt>
      <trkpt lat="4.858517" lon="-75.868178"></trkpt>
      <trkpt lat="4.859675" lon="-75.868028"></trkpt>
      <trkpt lat="4.860045" lon="-75.868011"></trkpt>
      <trkpt lat="4.860405" lon="-75.867983"></trkpt>
      <trkpt lat="4.860726" lon="-75.867961"></trkpt>
      <trkpt lat="4.861408" lon="-75.867905"></trkpt>
      <trkpt lat="4.861925" lon="-75.867895"></trkpt>
      <trkpt lat="4.862255" lon="-75.867968"></trkpt>
      <trkpt lat="4.862486" lon="-75.868040"></trkpt>
      <trkpt lat="4.863190" lon="-75.868268"></trkpt>
      <trkpt lat="4.864038" lon="-75.868555"></trkpt>
      <trkpt lat="4.864435" lon="-75.868676"></trkpt>
      <trkpt lat="4.864675" lon="-75.868729"></trkpt>
      <trkpt lat="4.865022" lon="-75.868766"></trkpt>
      <trkpt lat="4.865670" lon="-75.868793"></trkpt>
      <trkpt lat="4.866018" lon="-75.868786"></trkpt>
      <trkpt lat="4.866909" lon="-75.868802"></trkpt>
      <trkpt lat="4.867648" lon="-75.868809"></trkpt>
      <trkpt lat="4.868057" lon="-75.868816"></trkpt>
      <trkpt lat="4.868421" lon="-75.868844"></trkpt>
      <trkpt lat="4.868785" lon="-75.868942"></trkpt>
      <trkpt lat="4.868990" lon="-75.869046"></trkpt>
      <trkpt lat="4.869186" lon="-75.869174"></trkpt>
      <trkpt lat="4.869454" lon="-75.869392"></trkpt>
      <trkpt lat="4.870072" lon="-75.869956"></trkpt>
      <trkpt lat="4.870786" lon="-75.870650"></trkpt>
      <trkpt lat="4.871135" lon="-75.870995"></trkpt>
      <trkpt lat="4.871288" lon="-75.871141"></trkpt>
      <trkpt lat="4.871562" lon="-75.871343"></trkpt>
      <trkpt lat="4.871907" lon="-75.871531"></trkpt>
      <trkpt lat="4.872271" lon="-75.871669"></trkpt>
      <trkpt lat="4.872721" lon="-75.871773"></trkpt>
      <trkpt lat="4.873128" lon="-75.871802"></trkpt>
      <trkpt lat="4.873569" lon="-75.871765"></trkpt>
      <trkpt lat="4.874015" lon="-75.871683"></trkpt>
      <trkpt lat="4.874345" lon="-75.871617"></trkpt>
      <trkpt lat="4.875367" lon="-75.871414"></trkpt>
      <trkpt lat="4.875839" lon="-75.871320"></trkpt>
      <trkpt lat="4.876151" lon="-75.871260"></trkpt>
      <trkpt lat="4.876811" lon="-75.871103"></trkpt>
      <trkpt lat="4.877004" lon="-75.871046"></trkpt>
      <trkpt lat="4.877452" lon="-75.870901"></trkpt>
      <trkpt lat="4.878113" lon="-75.870691"></trkpt>
      <trkpt lat="4.878590" lon="-75.870571"></trkpt>
      <trkpt lat="4.879199" lon="-75.870466"></trkpt>
      <trkpt lat="4.879620" lon="-75.870411"></trkpt>
      <trkpt lat="4.880154" lon="-75.870346"></trkpt>
      <trkpt lat="4.882081" lon="-75.870127"></trkpt>
      <trkpt lat="4.882524" lon="-75.870054"></trkpt>
      <trkpt lat="4.883128" lon="-75.869984"></trkpt>
      <trkpt lat="4.885417" lon="-75.869704"></trkpt>
      <trkpt lat="4.886921" lon="-75.869628"></trkpt>
      <trkpt lat="4.887230" lon="-75.869542"></trkpt>
      <trkpt lat="4.887348" lon="-75.869501"></trkpt>
      <trkpt lat="4.887798" lon="-75.869105"></trkpt>
      <trkpt lat="4.887934" lon="-75.869087"></trkpt>
      <trkpt lat="4.888350" lon="-75.869165"></trkpt>
      <trkpt lat="4.888777" lon="-75.869243"></trkpt>
      <trkpt lat="4.888935" lon="-75.869357"></trkpt>
      <trkpt lat="4.889091" lon="-75.869626"></trkpt>
      <trkpt lat="4.889200" lon="-75.869757"></trkpt>
      <trkpt lat="4.889402" lon="-75.869862"></trkpt>
      <trkpt lat="4.890080" lon="-75.869896"></trkpt>
      <trkpt lat="4.890408" lon="-75.869952"></trkpt>
      <trkpt lat="4.891229" lon="-75.869923"></trkpt>
      <trkpt lat="4.892143" lon="-75.869849"></trkpt>
      <trkpt lat="4.892946" lon="-75.869749"></trkpt>
      <trkpt lat="4.894489" lon="-75.869521"></trkpt>
      <trkpt lat="4.899936" lon="-75.869006"></trkpt>
      <trkpt lat="4.902343" lon="-75.869127"></trkpt>
      <trkpt lat="4.907791" lon="-75.870058"></trkpt>
      <trkpt lat="4.910117" lon="-75.870402"></trkpt>
      <trkpt lat="4.910719" lon="-75.870393"></trkpt>
      <trkpt lat="4.911885" lon="-75.870206"></trkpt>
      <trkpt lat="4.912562" lon="-75.869989"></trkpt>
      <trkpt lat="4.916308" lon="-75.867814"></trkpt>
      <trkpt lat="4.916685" lon="-75.867626"></trkpt>
      <trkpt lat="4.918243" lon="-75.867097"></trkpt>
      <trkpt lat="4.920222" lon="-75.866362"></trkpt>
      <trkpt lat="4.922005" lon="-75.865733"></trkpt>
      <trkpt lat="4.929473" lon="-75.863416"></trkpt>
      <trkpt lat="4.931274" lon="-75.862929"></trkpt>
      <trkpt lat="4.933017" lon="-75.862414"></trkpt>
      <trkpt lat="4.933398" lon="-75.862306"></trkpt>
      <trkpt lat="4.934387" lon="-75.862026"></trkpt>
      <trkpt lat="4.935370" lon="-75.861749"></trkpt>
      <trkpt lat="4.936463" lon="-75.861485"></trkpt>
      <trkpt lat="4.938144" lon="-75.861134"></trkpt>
      <trkpt lat="4.939254" lon="-75.860601"></trkpt>
      <trkpt lat="4.940278" lon="-75.859701"></trkpt>
      <trkpt lat="4.942132" lon="-75.859001"></trkpt>
      <trkpt lat="4.942826" lon="-75.858616"></trkpt>
      <trkpt lat="4.943887" lon="-75.857999"></trkpt>
      <trkpt lat="4.948818" lon="-75.855031"></trkpt>
      <trkpt lat="4.951146" lon="-75.854554"></trkpt>
      <trkpt lat="4.953148" lon="-75.853993"></trkpt>
      <trkpt lat="4.954181" lon="-75.853518"></trkpt>
      <trkpt lat="4.954800" lon="-75.853377"></trkpt>
      <trkpt lat="4.955372" lon="-75.853342"></trkpt>
      <trkpt lat="4.955972" lon="-75.853392"></trkpt>
      <trkpt lat="4.956539" lon="-75.853585"></trkpt>
      <trkpt lat="4.959954" lon="-75.855871"></trkpt>
      <trkpt lat="4.961013" lon="-75.856457"></trkpt>
      <trkpt lat="4.961539" lon="-75.856904"></trkpt>
      <trkpt lat="4.962466" lon="-75.857739"></trkpt>
      <trkpt lat="4.962982" lon="-75.858037"></trkpt>
      <trkpt lat="4.963383" lon="-75.858091"></trkpt>
      <trkpt lat="4.963818" lon="-75.858037"></trkpt>
      <trkpt lat="4.964367" lon="-75.857991"></trkpt>
      <trkpt lat="4.967211" lon="-75.858061"></trkpt>
      <trkpt lat="4.968401" lon="-75.857903"></trkpt>
      <trkpt lat="4.969889" lon="-75.857643"></trkpt>
      <trkpt lat="4.970261" lon="-75.857659"></trkpt>
      <trkpt lat="4.973032" lon="-75.858107"></trkpt>
      <trkpt lat="4.973642" lon="-75.858096"></trkpt>
      <trkpt lat="4.974983" lon="-75.857779"></trkpt>
      <trkpt lat="4.976465" lon="-75.857499"></trkpt>
      <trkpt lat="4.981342" lon="-75.857701"></trkpt>
      <trkpt lat="4.981726" lon="-75.857727"></trkpt>
      <trkpt lat="4.987244" lon="-75.858108"></trkpt>
      <trkpt lat="4.989337" lon="-75.858269"></trkpt>
      <trkpt lat="4.990347" lon="-75.858198"></trkpt>
      <trkpt lat="4.992383" lon="-75.857742"></trkpt>
      <trkpt lat="4.992968" lon="-75.857848"></trkpt>
      <trkpt lat="4.994076" lon="-75.858270"></trkpt>
      <trkpt lat="4.995073" lon="-75.858553"></trkpt>
      <trkpt lat="4.998298" lon="-75.858811"></trkpt>
      <trkpt lat="4.999193" lon="-75.858850"></trkpt>
      <trkpt lat="4.999352" lon="-75.858862"></trkpt>
      <trkpt lat="5.000384" lon="-75.858964"></trkpt>
      <trkpt lat="5.002305" lon="-75.859083"></trkpt>
      <trkpt lat="5.003707" lon="-75.859188"></trkpt>
      <trkpt lat="5.004762" lon="-75.859271"></trkpt>
      <trkpt lat="5.006395" lon="-75.859415"></trkpt>
      <trkpt lat="5.009171" lon="-75.859660"></trkpt>
      <trkpt lat="5.013182" lon="-75.860027"></trkpt>
      <trkpt lat="5.013871" lon="-75.860078"></trkpt>
      <trkpt lat="5.014502" lon="-75.860071"></trkpt>
      <trkpt lat="5.014988" lon="-75.860059"></trkpt>
      <trkpt lat="5.017978" lon="-75.859998"></trkpt>
      <trkpt lat="5.018245" lon="-75.859979"></trkpt>
      <trkpt lat="5.018499" lon="-75.859936"></trkpt>
      <trkpt lat="5.020310" lon="-75.859577"></trkpt>
      <trkpt lat="5.022697" lon="-75.859104"></trkpt>
      <trkpt lat="5.025836" lon="-75.858482"></trkpt>
      <trkpt lat="5.028556" lon="-75.857943"></trkpt>
      <trkpt lat="5.029339" lon="-75.857763"></trkpt>
      <trkpt lat="5.030108" lon="-75.857530"></trkpt>
      <trkpt lat="5.031474" lon="-75.857058"></trkpt>
      <trkpt lat="5.034421" lon="-75.856004"></trkpt>
      <trkpt lat="5.036745" lon="-75.855183"></trkpt>
      <trkpt lat="5.037905" lon="-75.854976"></trkpt>
      <trkpt lat="5.040964" lon="-75.854526"></trkpt>
      <trkpt lat="5.044413" lon="-75.854019"></trkpt>
      <trkpt lat="5.045576" lon="-75.853845"></trkpt>
      <trkpt lat="5.047101" lon="-75.853630"></trkpt>
      <trkpt lat="5.048997" lon="-75.853372"></trkpt>
      <trkpt lat="5.050791" lon="-75.853080"></trkpt>
      <trkpt lat="5.051965" lon="-75.852912"></trkpt>
      <trkpt lat="5.054130" lon="-75.852593"></trkpt>
      <trkpt lat="5.054593" lon="-75.852523"></trkpt>
      <trkpt lat="5.056679" lon="-75.852222"></trkpt>
      <trkpt lat="5.059188" lon="-75.851846"></trkpt>
      <trkpt lat="5.061462" lon="-75.851506"></trkpt>
      <trkpt lat="5.064230" lon="-75.851079"></trkpt>
      <trkpt lat="5.065406" lon="-75.850827"></trkpt>
      <trkpt lat="5.065996" lon="-75.850433"></trkpt>
      <trkpt lat="5.066176" lon="-75.850353"></trkpt>
      <trkpt lat="5.066339" lon="-75.850308"></trkpt>
      <trkpt lat="5.066874" lon="-75.850212"></trkpt>
      <trkpt lat="5.067001" lon="-75.850229"></trkpt>
      <trkpt lat="5.067111" lon="-75.850293"></trkpt>
      <trkpt lat="5.067189" lon="-75.850396"></trkpt>
      <trkpt lat="5.067221" lon="-75.850520"></trkpt>
      <trkpt lat="5.067251" lon="-75.850743"></trkpt>
      <trkpt lat="5.067290" lon="-75.851134"></trkpt>
      <trkpt lat="5.067698" lon="-75.856500"></trkpt>
      <trkpt lat="5.067797" lon="-75.857629"></trkpt>
      <trkpt lat="5.067896" lon="-75.858761"></trkpt>
      <trkpt lat="5.068027" lon="-75.858994"></trkpt>
      <trkpt lat="5.068858" lon="-75.859872"></trkpt>
      <trkpt lat="5.069456" lon="-75.860585"></trkpt>
      <trkpt lat="5.069582" lon="-75.860918"></trkpt>
      <trkpt lat="5.069600" lon="-75.861215"></trkpt>
      <trkpt lat="5.069579" lon="-75.861414"></trkpt>
      <trkpt lat="5.069553" lon="-75.861595"></trkpt>
      <trkpt lat="5.069526" lon="-75.861902"></trkpt>
      <trkpt lat="5.069496" lon="-75.862388"></trkpt>
      <trkpt lat="5.069454" lon="-75.863237"></trkpt>
      <trkpt lat="5.069403" lon="-75.864117"></trkpt>
      <trkpt lat="5.069359" lon="-75.864308"></trkpt>
      <trkpt lat="5.069223" lon="-75.864599"></trkpt>
      <trkpt lat="5.068428" lon="-75.865924"></trkpt>
      <trkpt lat="5.067812" lon="-75.866910"></trkpt>
      <trkpt lat="5.067579" lon="-75.867277"></trkpt>
      <trkpt lat="5.067106" lon="-75.867977"></trkpt>
      <trkpt lat="5.066447" lon="-75.869005"></trkpt>
      <trkpt lat="5.066267" lon="-75.869311"></trkpt>
      <trkpt lat="5.066195" lon="-75.869412"></trkpt>
      <trkpt lat="5.066103" lon="-75.869526"></trkpt>
      <trkpt lat="5.065965" lon="-75.869650"></trkpt>
      <trkpt lat="5.065818" lon="-75.869769"></trkpt>
      <trkpt lat="5.064885" lon="-75.870534"></trkpt>
      <trkpt lat="5.064481" lon="-75.870884"></trkpt>
      <trkpt lat="5.064292" lon="-75.871067"></trkpt>
      <trkpt lat="5.064231" lon="-75.871177"></trkpt>
      <trkpt lat="5.064265" lon="-75.871407"></trkpt>
      <trkpt lat="5.064472" lon="-75.872267"></trkpt>
      <trkpt lat="5.064457" lon="-75.872278"></trkpt>
      <trkpt lat="5.062912" lon="-75.872748"></trkpt>
      <trkpt lat="5.061285" lon="-75.873236"></trkpt>
      <trkpt lat="5.061191" lon="-75.873178"></trkpt>
      <trkpt lat="5.060691" lon="-75.871596"></trkpt>
      <trkpt lat="5.059646" lon="-75.871023"></trkpt>
      <trkpt lat="5.059135" lon="-75.871175"></trkpt>
      <trkpt lat="5.058091" lon="-75.871485"></trkpt>
      <trkpt lat="5.057664" lon="-75.871612"></trkpt>
    </trkseg>
  </trk>
</gpx>
