<?xml version="1.0" encoding="UTF-8"?>
<gpx version="1.1" creator="mil-rutas-un-destino" xmlns="http://www.topografix.com/GPX/1/1">
  <metadata>
    <name>4 oct 2026 · Altagracia, Arabia, La India, Ulloa, Filandia</name>
    <desc>Mirador Altagracia, almuerzo Arabia, rio Barbas, destapada a La India, Ulloa, cafe Filandia, regreso.</desc>
  </metadata>
  <wpt lat="4.81784" lon="-75.676521"><name>Salida</name></wpt>
  <wpt lat="4.7382311" lon="-75.7124114"><name>Altagracia — mirador</name></wpt>
  <wpt lat="4.71883" lon="-75.716752"><name>Arabia — almuerzo</name></wpt>
  <wpt lat="4.706532" lon="-75.7077077"><name>La India (destapada)</name></wpt>
  <wpt lat="4.7030365" lon="-75.7377371"><name>Ulloa</name></wpt>
  <wpt lat="4.6746953" lon="-75.6577028"><name>Filandia — café</name></wpt>
  <wpt lat="4.8192126" lon="-75.6757184"><name>Regreso</name></wpt>
  <trk>
    <name>Ruta 4 oct 2026</name>
    <type>mixto</type>
    <trkseg>
      <trkpt lat="4.817784" lon="-75.676575"></trkpt>
      <trkpt lat="4.817608" lon="-75.676390"></trkpt>
      <trkpt lat="4.817926" lon="-75.676083"></trkpt>
      <trkpt lat="4.818374" lon="-75.675664"></trkpt>
      <trkpt lat="4.818763" lon="-75.675297"></trkpt>
      <trkpt lat="4.819268" lon="-75.675206"></trkpt>
      <trkpt lat="4.819430" lon="-75.675387"></trkpt>
      <trkpt lat="4.819620" lon="-75.675601"></trkpt>
      <trkpt lat="4.820193" lon="-75.675677"></trkpt>
      <trkpt lat="4.820728" lon="-75.675688"></trkpt>
      <trkpt lat="4.820997" lon="-75.675732"></trkpt>
      <trkpt lat="4.821282" lon="-75.675840"></trkpt>
      <trkpt lat="4.821560" lon="-75.676058"></trkpt>
      <trkpt lat="4.821879" lon="-75.676200"></trkpt>
      <trkpt lat="4.822195" lon="-75.676214"></trkpt>
      <trkpt lat="4.822529" lon="-75.676270"></trkpt>
      <trkpt lat="4.822836" lon="-75.676374"></trkpt>
      <trkpt lat="4.823297" lon="-75.676793"></trkpt>
      <trkpt lat="4.824598" lon="-75.678064"></trkpt>
      <trkpt lat="4.824705" lon="-75.678202"></trkpt>
      <trkpt lat="4.824736" lon="-75.678308"></trkpt>
      <trkpt lat="4.824767" lon="-75.679409"></trkpt>
      <trkpt lat="4.825400" lon="-75.680518"></trkpt>
      <trkpt lat="4.826188" lon="-75.681794"></trkpt>
      <trkpt lat="4.826227" lon="-75.681852"></trkpt>
      <trkpt lat="4.826270" lon="-75.681915"></trkpt>
      <trkpt lat="4.826091" lon="-75.682034"></trkpt>
      <trkpt lat="4.825559" lon="-75.682371"></trkpt>
      <trkpt lat="4.825151" lon="-75.682621"></trkpt>
      <trkpt lat="4.824859" lon="-75.682800"></trkpt>
      <trkpt lat="4.823949" lon="-75.683343"></trkpt>
      <trkpt lat="4.823533" lon="-75.683515"></trkpt>
      <trkpt lat="4.822846" lon="-75.683772"></trkpt>
      <trkpt lat="4.822226" lon="-75.684011"></trkpt>
      <trkpt lat="4.822102" lon="-75.684111"></trkpt>
      <trkpt lat="4.821997" lon="-75.684249"></trkpt>
      <trkpt lat="4.821761" lon="-75.684617"></trkpt>
      <trkpt lat="4.821670" lon="-75.684705"></trkpt>
      <trkpt lat="4.821516" lon="-75.684819"></trkpt>
      <trkpt lat="4.821430" lon="-75.684862"></trkpt>
      <trkpt lat="4.821046" lon="-75.685013"></trkpt>
      <trkpt lat="4.820346" lon="-75.685276"></trkpt>
      <trkpt lat="4.819570" lon="-75.685515"></trkpt>
      <trkpt lat="4.818947" lon="-75.685725"></trkpt>
      <trkpt lat="4.814170" lon="-75.687385"></trkpt>
      <trkpt lat="4.814058" lon="-75.687437"></trkpt>
      <trkpt lat="4.813599" lon="-75.687586"></trkpt>
      <trkpt lat="4.813212" lon="-75.687634"></trkpt>
      <trkpt lat="4.812802" lon="-75.687682"></trkpt>
      <trkpt lat="4.812384" lon="-75.687729"></trkpt>
      <trkpt lat="4.812273" lon="-75.687752"></trkpt>
      <trkpt lat="4.812166" lon="-75.687796"></trkpt>
      <trkpt lat="4.811530" lon="-75.688261"></trkpt>
      <trkpt lat="4.810949" lon="-75.688685"></trkpt>
      <trkpt lat="4.810430" lon="-75.689046"></trkpt>
      <trkpt lat="4.810079" lon="-75.689327"></trkpt>
      <trkpt lat="4.809830" lon="-75.689696"></trkpt>
      <trkpt lat="4.809753" lon="-75.689931"></trkpt>
      <trkpt lat="4.809769" lon="-75.690271"></trkpt>
      <trkpt lat="4.810245" lon="-75.691221"></trkpt>
      <trkpt lat="4.810420" lon="-75.691679"></trkpt>
      <trkpt lat="4.810432" lon="-75.691912"></trkpt>
      <trkpt lat="4.810370" lon="-75.692166"></trkpt>
      <trkpt lat="4.810311" lon="-75.692298"></trkpt>
      <trkpt lat="4.810200" lon="-75.692427"></trkpt>
      <trkpt lat="4.810021" lon="-75.692547"></trkpt>
      <trkpt lat="4.809528" lon="-75.692843"></trkpt>
      <trkpt lat="4.808721" lon="-75.693420"></trkpt>
      <trkpt lat="4.808661" lon="-75.693607"></trkpt>
      <trkpt lat="4.808715" lon="-75.693786"></trkpt>
      <trkpt lat="4.808850" lon="-75.693894"></trkpt>
      <trkpt lat="4.809108" lon="-75.693877"></trkpt>
      <trkpt lat="4.809238" lon="-75.693735"></trkpt>
      <trkpt lat="4.809257" lon="-75.693546"></trkpt>
      <trkpt lat="4.809178" lon="-75.693401"></trkpt>
      <trkpt lat="4.809043" lon="-75.693325"></trkpt>
      <trkpt lat="4.808856" lon="-75.693289"></trkpt>
      <trkpt lat="4.807700" lon="-75.693413"></trkpt>
      <trkpt lat="4.807134" lon="-75.693465"></trkpt>
      <trkpt lat="4.806278" lon="-75.693562"></trkpt>
      <trkpt lat="4.805887" lon="-75.693597"></trkpt>
      <trkpt lat="4.805404" lon="-75.693641"></trkpt>
      <trkpt lat="4.804512" lon="-75.693848"></trkpt>
      <trkpt lat="4.804264" lon="-75.694120"></trkpt>
      <trkpt lat="4.804018" lon="-75.694704"></trkpt>
      <trkpt lat="4.803681" lon="-75.695459"></trkpt>
      <trkpt lat="4.803525" lon="-75.695651"></trkpt>
      <trkpt lat="4.803353" lon="-75.695801"></trkpt>
      <trkpt lat="4.803111" lon="-75.695943"></trkpt>
      <trkpt lat="4.802767" lon="-75.696030"></trkpt>
      <trkpt lat="4.802424" lon="-75.696016"></trkpt>
      <trkpt lat="4.802145" lon="-75.695936"></trkpt>
      <trkpt lat="4.801920" lon="-75.695825"></trkpt>
      <trkpt lat="4.801855" lon="-75.695779"></trkpt>
      <trkpt lat="4.801612" lon="-75.695451"></trkpt>
      <trkpt lat="4.801546" lon="-75.695054"></trkpt>
      <trkpt lat="4.801484" lon="-75.694882"></trkpt>
      <trkpt lat="4.801341" lon="-75.694645"></trkpt>
      <trkpt lat="4.801146" lon="-75.694450"></trkpt>
      <trkpt lat="4.800817" lon="-75.694252"></trkpt>
      <trkpt lat="4.800222" lon="-75.694257"></trkpt>
      <trkpt lat="4.799157" lon="-75.694551"></trkpt>
      <trkpt lat="4.798512" lon="-75.694716"></trkpt>
      <trkpt lat="4.798278" lon="-75.694782"></trkpt>
      <trkpt lat="4.797718" lon="-75.694849"></trkpt>
      <trkpt lat="4.796979" lon="-75.694792"></trkpt>
      <trkpt lat="4.796250" lon="-75.694800"></trkpt>
      <trkpt lat="4.796065" lon="-75.694865"></trkpt>
      <trkpt lat="4.795957" lon="-75.694926"></trkpt>
      <trkpt lat="4.795047" lon="-75.695506"></trkpt>
      <trkpt lat="4.794555" lon="-75.695810"></trkpt>
      <trkpt lat="4.794270" lon="-75.695955"></trkpt>
      <trkpt lat="4.793934" lon="-75.696063"></trkpt>
      <trkpt lat="4.793785" lon="-75.696100"></trkpt>
      <trkpt lat="4.793062" lon="-75.696240"></trkpt>
      <trkpt lat="4.792477" lon="-75.696372"></trkpt>
      <trkpt lat="4.792053" lon="-75.696350"></trkpt>
      <trkpt lat="4.791624" lon="-75.696243"></trkpt>
      <trkpt lat="4.790854" lon="-75.696019"></trkpt>
      <trkpt lat="4.790661" lon="-75.696040"></trkpt>
      <trkpt lat="4.790122" lon="-75.696235"></trkpt>
      <trkpt lat="4.789585" lon="-75.696330"></trkpt>
      <trkpt lat="4.789237" lon="-75.696346"></trkpt>
      <trkpt lat="4.788600" lon="-75.696254"></trkpt>
      <trkpt lat="4.788083" lon="-75.696068"></trkpt>
      <trkpt lat="4.787895" lon="-75.695844"></trkpt>
      <trkpt lat="4.787755" lon="-75.695522"></trkpt>
      <trkpt lat="4.787487" lon="-75.694599"></trkpt>
      <trkpt lat="4.787341" lon="-75.694291"></trkpt>
      <trkpt lat="4.787219" lon="-75.694153"></trkpt>
      <trkpt lat="4.786984" lon="-75.693953"></trkpt>
      <trkpt lat="4.786855" lon="-75.693894"></trkpt>
      <trkpt lat="4.786567" lon="-75.693852"></trkpt>
      <trkpt lat="4.786332" lon="-75.693928"></trkpt>
      <trkpt lat="4.786143" lon="-75.694140"></trkpt>
      <trkpt lat="4.786070" lon="-75.694361"></trkpt>
      <trkpt lat="4.786101" lon="-75.694596"></trkpt>
      <trkpt lat="4.786440" lon="-75.695221"></trkpt>
      <trkpt lat="4.786520" lon="-75.695481"></trkpt>
      <trkpt lat="4.786530" lon="-75.696428"></trkpt>
      <trkpt lat="4.786466" lon="-75.696660"></trkpt>
      <trkpt lat="4.786349" lon="-75.696823"></trkpt>
      <trkpt lat="4.786126" lon="-75.696944"></trkpt>
      <trkpt lat="4.785309" lon="-75.697071"></trkpt>
      <trkpt lat="4.785082" lon="-75.697067"></trkpt>
      <trkpt lat="4.784863" lon="-75.697011"></trkpt>
      <trkpt lat="4.784693" lon="-75.696930"></trkpt>
      <trkpt lat="4.784393" lon="-75.696731"></trkpt>
      <trkpt lat="4.784202" lon="-75.696569"></trkpt>
      <trkpt lat="4.783900" lon="-75.696226"></trkpt>
      <trkpt lat="4.783600" lon="-75.695879"></trkpt>
      <trkpt lat="4.783465" lon="-75.695775"></trkpt>
      <trkpt lat="4.783136" lon="-75.695561"></trkpt>
      <trkpt lat="4.782968" lon="-75.695487"></trkpt>
      <trkpt lat="4.782828" lon="-75.695470"></trkpt>
      <trkpt lat="4.782651" lon="-75.695492"></trkpt>
      <trkpt lat="4.782525" lon="-75.695548"></trkpt>
      <trkpt lat="4.782407" lon="-75.695648"></trkpt>
      <trkpt lat="4.782287" lon="-75.695792"></trkpt>
      <trkpt lat="4.782221" lon="-75.695965"></trkpt>
      <trkpt lat="4.782222" lon="-75.696147"></trkpt>
      <trkpt lat="4.782320" lon="-75.696573"></trkpt>
      <trkpt lat="4.782369" lon="-75.696762"></trkpt>
      <trkpt lat="4.782423" lon="-75.696977"></trkpt>
      <trkpt lat="4.782451" lon="-75.697051"></trkpt>
      <trkpt lat="4.782526" lon="-75.697183"></trkpt>
      <trkpt lat="4.782638" lon="-75.697303"></trkpt>
      <trkpt lat="4.782926" lon="-75.697529"></trkpt>
      <trkpt lat="4.783457" lon="-75.697888"></trkpt>
      <trkpt lat="4.783766" lon="-75.698135"></trkpt>
      <trkpt lat="4.783903" lon="-75.698307"></trkpt>
      <trkpt lat="4.783956" lon="-75.698474"></trkpt>
      <trkpt lat="4.783966" lon="-75.698557"></trkpt>
      <trkpt lat="4.783952" lon="-75.698695"></trkpt>
      <trkpt lat="4.783927" lon="-75.698793"></trkpt>
      <trkpt lat="4.783852" lon="-75.698945"></trkpt>
      <trkpt lat="4.783712" lon="-75.699102"></trkpt>
      <trkpt lat="4.783553" lon="-75.699190"></trkpt>
      <trkpt lat="4.783480" lon="-75.699210"></trkpt>
      <trkpt lat="4.783334" lon="-75.699228"></trkpt>
      <trkpt lat="4.783188" lon="-75.699215"></trkpt>
      <trkpt lat="4.782965" lon="-75.699170"></trkpt>
      <trkpt lat="4.782731" lon="-75.699107"></trkpt>
      <trkpt lat="4.782441" lon="-75.699028"></trkpt>
      <trkpt lat="4.782302" lon="-75.698974"></trkpt>
      <trkpt lat="4.782226" lon="-75.698934"></trkpt>
      <trkpt lat="4.782000" lon="-75.698792"></trkpt>
      <trkpt lat="4.781848" lon="-75.698652"></trkpt>
      <trkpt lat="4.781402" lon="-75.698034"></trkpt>
      <trkpt lat="4.781186" lon="-75.697744"></trkpt>
      <trkpt lat="4.780967" lon="-75.697476"></trkpt>
      <trkpt lat="4.780749" lon="-75.697251"></trkpt>
      <trkpt lat="4.780542" lon="-75.697084"></trkpt>
      <trkpt lat="4.780004" lon="-75.696691"></trkpt>
      <trkpt lat="4.779113" lon="-75.696048"></trkpt>
      <trkpt lat="4.778933" lon="-75.695908"></trkpt>
      <trkpt lat="4.778831" lon="-75.695808"></trkpt>
      <trkpt lat="4.778749" lon="-75.695714"></trkpt>
      <trkpt lat="4.778674" lon="-75.695601"></trkpt>
      <trkpt lat="4.778644" lon="-75.695531"></trkpt>
      <trkpt lat="4.778582" lon="-75.695329"></trkpt>
      <trkpt lat="4.778474" lon="-75.694957"></trkpt>
      <trkpt lat="4.778368" lon="-75.694675"></trkpt>
      <trkpt lat="4.778313" lon="-75.694550"></trkpt>
      <trkpt lat="4.778203" lon="-75.694292"></trkpt>
      <trkpt lat="4.778020" lon="-75.693924"></trkpt>
      <trkpt lat="4.777847" lon="-75.693717"></trkpt>
      <trkpt lat="4.777663" lon="-75.693522"></trkpt>
      <trkpt lat="4.777489" lon="-75.693386"></trkpt>
      <trkpt lat="4.777270" lon="-75.693255"></trkpt>
      <trkpt lat="4.777062" lon="-75.693149"></trkpt>
      <trkpt lat="4.776830" lon="-75.693062"></trkpt>
      <trkpt lat="4.776511" lon="-75.692960"></trkpt>
      <trkpt lat="4.776221" lon="-75.692889"></trkpt>
      <trkpt lat="4.775917" lon="-75.692801"></trkpt>
      <trkpt lat="4.774858" lon="-75.692485"></trkpt>
      <trkpt lat="4.772865" lon="-75.691990"></trkpt>
      <trkpt lat="4.772424" lon="-75.691874"></trkpt>
      <trkpt lat="4.772189" lon="-75.691814"></trkpt>
      <trkpt lat="4.771896" lon="-75.691732"></trkpt>
      <trkpt lat="4.771746" lon="-75.691687"></trkpt>
      <trkpt lat="4.771462" lon="-75.691588"></trkpt>
      <trkpt lat="4.771210" lon="-75.691472"></trkpt>
      <trkpt lat="4.770981" lon="-75.691346"></trkpt>
      <trkpt lat="4.770847" lon="-75.691260"></trkpt>
      <trkpt lat="4.770616" lon="-75.691109"></trkpt>
      <trkpt lat="4.770410" lon="-75.690971"></trkpt>
      <trkpt lat="4.769942" lon="-75.690615"></trkpt>
      <trkpt lat="4.769713" lon="-75.690514"></trkpt>
      <trkpt lat="4.769619" lon="-75.690482"></trkpt>
      <trkpt lat="4.769465" lon="-75.690450"></trkpt>
      <trkpt lat="4.769202" lon="-75.690444"></trkpt>
      <trkpt lat="4.768341" lon="-75.690527"></trkpt>
      <trkpt lat="4.768017" lon="-75.690550"></trkpt>
      <trkpt lat="4.767813" lon="-75.690535"></trkpt>
      <trkpt lat="4.767609" lon="-75.690484"></trkpt>
      <trkpt lat="4.767451" lon="-75.690367"></trkpt>
      <trkpt lat="4.767107" lon="-75.690084"></trkpt>
      <trkpt lat="4.766618" lon="-75.689733"></trkpt>
      <trkpt lat="4.766175" lon="-75.689417"></trkpt>
      <trkpt lat="4.766027" lon="-75.689275"></trkpt>
      <trkpt lat="4.765840" lon="-75.689065"></trkpt>
      <trkpt lat="4.765687" lon="-75.688869"></trkpt>
      <trkpt lat="4.765523" lon="-75.688611"></trkpt>
      <trkpt lat="4.764921" lon="-75.687628"></trkpt>
      <trkpt lat="4.764713" lon="-75.687312"></trkpt>
      <trkpt lat="4.764416" lon="-75.686938"></trkpt>
      <trkpt lat="4.764268" lon="-75.686770"></trkpt>
      <trkpt lat="4.764038" lon="-75.686536"></trkpt>
      <trkpt lat="4.762407" lon="-75.685085"></trkpt>
      <trkpt lat="4.761402" lon="-75.684209"></trkpt>
      <trkpt lat="4.761233" lon="-75.684080"></trkpt>
      <trkpt lat="4.760996" lon="-75.683926"></trkpt>
      <trkpt lat="4.760673" lon="-75.683707"></trkpt>
      <trkpt lat="4.760123" lon="-75.683343"></trkpt>
      <trkpt lat="4.759863" lon="-75.683131"></trkpt>
      <trkpt lat="4.759661" lon="-75.682949"></trkpt>
      <trkpt lat="4.759477" lon="-75.682753"></trkpt>
      <trkpt lat="4.759249" lon="-75.682433"></trkpt>
      <trkpt lat="4.759064" lon="-75.682124"></trkpt>
      <trkpt lat="4.758454" lon="-75.680882"></trkpt>
      <trkpt lat="4.757935" lon="-75.679834"></trkpt>
      <trkpt lat="4.757789" lon="-75.679528"></trkpt>
      <trkpt lat="4.757699" lon="-75.679296"></trkpt>
      <trkpt lat="4.757619" lon="-75.679024"></trkpt>
      <trkpt lat="4.757500" lon="-75.678643"></trkpt>
      <trkpt lat="4.757393" lon="-75.678353"></trkpt>
      <trkpt lat="4.757296" lon="-75.678147"></trkpt>
      <trkpt lat="4.757190" lon="-75.677994"></trkpt>
      <trkpt lat="4.757095" lon="-75.677908"></trkpt>
      <trkpt lat="4.756875" lon="-75.677752"></trkpt>
      <trkpt lat="4.756509" lon="-75.677504"></trkpt>
      <trkpt lat="4.756149" lon="-75.677254"></trkpt>
      <trkpt lat="4.755996" lon="-75.677131"></trkpt>
      <trkpt lat="4.755836" lon="-75.676978"></trkpt>
      <trkpt lat="4.755662" lon="-75.676774"></trkpt>
      <trkpt lat="4.755446" lon="-75.676513"></trkpt>
      <trkpt lat="4.755140" lon="-75.676130"></trkpt>
      <trkpt lat="4.754932" lon="-75.675880"></trkpt>
      <trkpt lat="4.754834" lon="-75.675775"></trkpt>
      <trkpt lat="4.754664" lon="-75.675627"></trkpt>
      <trkpt lat="4.754492" lon="-75.675508"></trkpt>
      <trkpt lat="4.754263" lon="-75.675383"></trkpt>
      <trkpt lat="4.753121" lon="-75.674852"></trkpt>
      <trkpt lat="4.752886" lon="-75.674685"></trkpt>
      <trkpt lat="4.752764" lon="-75.674569"></trkpt>
      <trkpt lat="4.752684" lon="-75.674435"></trkpt>
      <trkpt lat="4.752631" lon="-75.674275"></trkpt>
      <trkpt lat="4.752563" lon="-75.673964"></trkpt>
      <trkpt lat="4.752445" lon="-75.673328"></trkpt>
      <trkpt lat="4.752392" lon="-75.673156"></trkpt>
      <trkpt lat="4.752316" lon="-75.673001"></trkpt>
      <trkpt lat="4.752267" lon="-75.672917"></trkpt>
      <trkpt lat="4.752218" lon="-75.672851"></trkpt>
      <trkpt lat="4.752097" lon="-75.672728"></trkpt>
      <trkpt lat="4.751937" lon="-75.672601"></trkpt>
      <trkpt lat="4.751325" lon="-75.672213"></trkpt>
      <trkpt lat="4.751119" lon="-75.672070"></trkpt>
      <trkpt lat="4.750932" lon="-75.671916"></trkpt>
      <trkpt lat="4.750775" lon="-75.671747"></trkpt>
      <trkpt lat="4.750660" lon="-75.671585"></trkpt>
      <trkpt lat="4.750560" lon="-75.671375"></trkpt>
      <trkpt lat="4.750500" lon="-75.671159"></trkpt>
      <trkpt lat="4.750317" lon="-75.670203"></trkpt>
      <trkpt lat="4.750117" lon="-75.669148"></trkpt>
      <trkpt lat="4.750041" lon="-75.668749"></trkpt>
      <trkpt lat="4.749867" lon="-75.667849"></trkpt>
      <trkpt lat="4.749799" lon="-75.667543"></trkpt>
      <trkpt lat="4.749717" lon="-75.667258"></trkpt>
      <trkpt lat="4.749421" lon="-75.666556"></trkpt>
      <trkpt lat="4.749166" lon="-75.665984"></trkpt>
      <trkpt lat="4.749117" lon="-75.665875"></trkpt>
      <trkpt lat="4.748961" lon="-75.665538"></trkpt>
      <trkpt lat="4.748839" lon="-75.665321"></trkpt>
      <trkpt lat="4.748765" lon="-75.665201"></trkpt>
      <trkpt lat="4.748598" lon="-75.665024"></trkpt>
      <trkpt lat="4.748456" lon="-75.664903"></trkpt>
      <trkpt lat="4.748191" lon="-75.664739"></trkpt>
      <trkpt lat="4.747960" lon="-75.664624"></trkpt>
      <trkpt lat="4.747714" lon="-75.664556"></trkpt>
      <trkpt lat="4.747482" lon="-75.664530"></trkpt>
      <trkpt lat="4.747268" lon="-75.664546"></trkpt>
      <trkpt lat="4.747131" lon="-75.664564"></trkpt>
      <trkpt lat="4.746064" lon="-75.664779"></trkpt>
      <trkpt lat="4.745930" lon="-75.664820"></trkpt>
      <trkpt lat="4.745734" lon="-75.664918"></trkpt>
      <trkpt lat="4.745575" lon="-75.665052"></trkpt>
      <trkpt lat="4.745422" lon="-75.665235"></trkpt>
      <trkpt lat="4.745291" lon="-75.665386"></trkpt>
      <trkpt lat="4.745258" lon="-75.665430"></trkpt>
      <trkpt lat="4.745223" lon="-75.665616"></trkpt>
      <trkpt lat="4.744883" lon="-75.666290"></trkpt>
      <trkpt lat="4.744625" lon="-75.666842"></trkpt>
      <trkpt lat="4.744402" lon="-75.667337"></trkpt>
      <trkpt lat="4.744354" lon="-75.667504"></trkpt>
      <trkpt lat="4.744320" lon="-75.667839"></trkpt>
      <trkpt lat="4.744333" lon="-75.668176"></trkpt>
      <trkpt lat="4.744373" lon="-75.668558"></trkpt>
      <trkpt lat="4.744414" lon="-75.668926"></trkpt>
      <trkpt lat="4.744487" lon="-75.669448"></trkpt>
      <trkpt lat="4.744569" lon="-75.670082"></trkpt>
      <trkpt lat="4.744649" lon="-75.671015"></trkpt>
      <trkpt lat="4.744722" lon="-75.671518"></trkpt>
      <trkpt lat="4.744861" lon="-75.671868"></trkpt>
      <trkpt lat="4.745330" lon="-75.672633"></trkpt>
      <trkpt lat="4.745699" lon="-75.673279"></trkpt>
      <trkpt lat="4.745840" lon="-75.674196"></trkpt>
      <trkpt lat="4.745973" lon="-75.675271"></trkpt>
      <trkpt lat="4.746188" lon="-75.676650"></trkpt>
      <trkpt lat="4.746183" lon="-75.677248"></trkpt>
      <trkpt lat="4.745720" lon="-75.677083"></trkpt>
      <trkpt lat="4.745331" lon="-75.677068"></trkpt>
      <trkpt lat="4.744963" lon="-75.677195"></trkpt>
      <trkpt lat="4.744820" lon="-75.677189"></trkpt>
      <trkpt lat="4.744424" lon="-75.676844"></trkpt>
      <trkpt lat="4.744278" lon="-75.676818"></trkpt>
      <trkpt lat="4.743920" lon="-75.677169"></trkpt>
      <trkpt lat="4.743759" lon="-75.677276"></trkpt>
      <trkpt lat="4.743722" lon="-75.677367"></trkpt>
      <trkpt lat="4.743725" lon="-75.677569"></trkpt>
      <trkpt lat="4.743608" lon="-75.677830"></trkpt>
      <trkpt lat="4.743452" lon="-75.677998"></trkpt>
      <trkpt lat="4.742411" lon="-75.677940"></trkpt>
      <trkpt lat="4.742269" lon="-75.677859"></trkpt>
      <trkpt lat="4.741913" lon="-75.677282"></trkpt>
      <trkpt lat="4.741787" lon="-75.677109"></trkpt>
      <trkpt lat="4.741661" lon="-75.677014"></trkpt>
      <trkpt lat="4.741371" lon="-75.677032"></trkpt>
      <trkpt lat="4.741216" lon="-75.677019"></trkpt>
      <trkpt lat="4.740664" lon="-75.676807"></trkpt>
      <trkpt lat="4.740539" lon="-75.676643"></trkpt>
      <trkpt lat="4.740464" lon="-75.676344"></trkpt>
      <trkpt lat="4.740390" lon="-75.676268"></trkpt>
      <trkpt lat="4.740285" lon="-75.676236"></trkpt>
      <trkpt lat="4.740000" lon="-75.676174"></trkpt>
      <trkpt lat="4.739852" lon="-75.676023"></trkpt>
      <trkpt lat="4.739760" lon="-75.675950"></trkpt>
      <trkpt lat="4.739666" lon="-75.675942"></trkpt>
      <trkpt lat="4.739515" lon="-75.676023"></trkpt>
      <trkpt lat="4.739469" lon="-75.676143"></trkpt>
      <trkpt lat="4.739632" lon="-75.676625"></trkpt>
      <trkpt lat="4.739628" lon="-75.676836"></trkpt>
      <trkpt lat="4.739304" lon="-75.677398"></trkpt>
      <trkpt lat="4.739183" lon="-75.677497"></trkpt>
      <trkpt lat="4.738847" lon="-75.677524"></trkpt>
      <trkpt lat="4.737987" lon="-75.677524"></trkpt>
      <trkpt lat="4.737696" lon="-75.677491"></trkpt>
      <trkpt lat="4.737334" lon="-75.677307"></trkpt>
      <trkpt lat="4.737179" lon="-75.677359"></trkpt>
      <trkpt lat="4.736915" lon="-75.677673"></trkpt>
      <trkpt lat="4.736735" lon="-75.678200"></trkpt>
      <trkpt lat="4.736578" lon="-75.678470"></trkpt>
      <trkpt lat="4.736390" lon="-75.678510"></trkpt>
      <trkpt lat="4.736185" lon="-75.678386"></trkpt>
      <trkpt lat="4.735364" lon="-75.677503"></trkpt>
      <trkpt lat="4.735110" lon="-75.677456"></trkpt>
      <trkpt lat="4.734790" lon="-75.677534"></trkpt>
      <trkpt lat="4.734391" lon="-75.677719"></trkpt>
      <trkpt lat="4.733838" lon="-75.677724"></trkpt>
      <trkpt lat="4.733681" lon="-75.677774"></trkpt>
      <trkpt lat="4.733379" lon="-75.678146"></trkpt>
      <trkpt lat="4.733318" lon="-75.678371"></trkpt>
      <trkpt lat="4.733446" lon="-75.678651"></trkpt>
      <trkpt lat="4.733382" lon="-75.679244"></trkpt>
      <trkpt lat="4.733448" lon="-75.679496"></trkpt>
      <trkpt lat="4.733949" lon="-75.680253"></trkpt>
      <trkpt lat="4.733984" lon="-75.680497"></trkpt>
      <trkpt lat="4.733696" lon="-75.681056"></trkpt>
      <trkpt lat="4.733597" lon="-75.681295"></trkpt>
      <trkpt lat="4.733638" lon="-75.681791"></trkpt>
      <trkpt lat="4.733552" lon="-75.682544"></trkpt>
      <trkpt lat="4.733618" lon="-75.683244"></trkpt>
      <trkpt lat="4.733780" lon="-75.683873"></trkpt>
      <trkpt lat="4.733630" lon="-75.684309"></trkpt>
      <trkpt lat="4.732991" lon="-75.685028"></trkpt>
      <trkpt lat="4.732908" lon="-75.685509"></trkpt>
      <trkpt lat="4.733002" lon="-75.685758"></trkpt>
      <trkpt lat="4.733485" lon="-75.686278"></trkpt>
      <trkpt lat="4.733687" lon="-75.686575"></trkpt>
      <trkpt lat="4.733847" lon="-75.687125"></trkpt>
      <trkpt lat="4.733878" lon="-75.687650"></trkpt>
      <trkpt lat="4.734191" lon="-75.688288"></trkpt>
      <trkpt lat="4.734313" lon="-75.688669"></trkpt>
      <trkpt lat="4.734218" lon="-75.689300"></trkpt>
      <trkpt lat="4.734017" lon="-75.689723"></trkpt>
      <trkpt lat="4.733978" lon="-75.690002"></trkpt>
      <trkpt lat="4.734092" lon="-75.690282"></trkpt>
      <trkpt lat="4.734533" lon="-75.690738"></trkpt>
      <trkpt lat="4.734621" lon="-75.690966"></trkpt>
      <trkpt lat="4.734554" lon="-75.691271"></trkpt>
      <trkpt lat="4.734187" lon="-75.692134"></trkpt>
      <trkpt lat="4.734150" lon="-75.692719"></trkpt>
      <trkpt lat="4.733856" lon="-75.693939"></trkpt>
      <trkpt lat="4.733815" lon="-75.694554"></trkpt>
      <trkpt lat="4.733796" lon="-75.695069"></trkpt>
      <trkpt lat="4.733637" lon="-75.695287"></trkpt>
      <trkpt lat="4.733141" lon="-75.695731"></trkpt>
      <trkpt lat="4.733029" lon="-75.695938"></trkpt>
      <trkpt lat="4.732991" lon="-75.696271"></trkpt>
      <trkpt lat="4.732985" lon="-75.696596"></trkpt>
      <trkpt lat="4.733220" lon="-75.697090"></trkpt>
      <trkpt lat="4.733254" lon="-75.697307"></trkpt>
      <trkpt lat="4.733205" lon="-75.697722"></trkpt>
      <trkpt lat="4.733106" lon="-75.698215"></trkpt>
      <trkpt lat="4.732911" lon="-75.698819"></trkpt>
      <trkpt lat="4.732907" lon="-75.699169"></trkpt>
      <trkpt lat="4.733270" lon="-75.700403"></trkpt>
      <trkpt lat="4.734067" lon="-75.702046"></trkpt>
      <trkpt lat="4.734312" lon="-75.702733"></trkpt>
      <trkpt lat="4.734322" lon="-75.703263"></trkpt>
      <trkpt lat="4.734415" lon="-75.703589"></trkpt>
      <trkpt lat="4.734817" lon="-75.703938"></trkpt>
      <trkpt lat="4.735131" lon="-75.704305"></trkpt>
      <trkpt lat="4.735271" lon="-75.704621"></trkpt>
      <trkpt lat="4.735415" lon="-75.705058"></trkpt>
      <trkpt lat="4.736740" lon="-75.706570"></trkpt>
      <trkpt lat="4.737307" lon="-75.707079"></trkpt>
      <trkpt lat="4.737415" lon="-75.707254"></trkpt>
      <trkpt lat="4.737535" lon="-75.707863"></trkpt>
      <trkpt lat="4.737877" lon="-75.708636"></trkpt>
      <trkpt lat="4.738001" lon="-75.709054"></trkpt>
      <trkpt lat="4.738050" lon="-75.709576"></trkpt>
      <trkpt lat="4.738264" lon="-75.710634"></trkpt>
      <trkpt lat="4.738155" lon="-75.711075"></trkpt>
      <trkpt lat="4.737933" lon="-75.711459"></trkpt>
      <trkpt lat="4.737855" lon="-75.711655"></trkpt>
      <trkpt lat="4.737893" lon="-75.711895"></trkpt>
      <trkpt lat="4.738223" lon="-75.712416"></trkpt>
      <trkpt lat="4.738190" lon="-75.712481"></trkpt>
      <trkpt lat="4.738019" lon="-75.712542"></trkpt>
      <trkpt lat="4.737788" lon="-75.712678"></trkpt>
      <trkpt lat="4.737115" lon="-75.713122"></trkpt>
      <trkpt lat="4.736766" lon="-75.713335"></trkpt>
      <trkpt lat="4.736548" lon="-75.713435"></trkpt>
      <trkpt lat="4.736380" lon="-75.713488"></trkpt>
      <trkpt lat="4.735976" lon="-75.713566"></trkpt>
      <trkpt lat="4.735700" lon="-75.713621"></trkpt>
      <trkpt lat="4.735308" lon="-75.713754"></trkpt>
      <trkpt lat="4.735059" lon="-75.713868"></trkpt>
      <trkpt lat="4.734961" lon="-75.713953"></trkpt>
      <trkpt lat="4.734868" lon="-75.714107"></trkpt>
      <trkpt lat="4.734774" lon="-75.714212"></trkpt>
      <trkpt lat="4.734634" lon="-75.714290"></trkpt>
      <trkpt lat="4.734438" lon="-75.714375"></trkpt>
      <trkpt lat="4.734293" lon="-75.714411"></trkpt>
      <trkpt lat="4.734156" lon="-75.714396"></trkpt>
      <trkpt lat="4.733855" lon="-75.714292"></trkpt>
      <trkpt lat="4.733648" lon="-75.714203"></trkpt>
      <trkpt lat="4.733505" lon="-75.714113"></trkpt>
      <trkpt lat="4.733337" lon="-75.713958"></trkpt>
      <trkpt lat="4.733272" lon="-75.713848"></trkpt>
      <trkpt lat="4.733261" lon="-75.713733"></trkpt>
      <trkpt lat="4.733318" lon="-75.713597"></trkpt>
      <trkpt lat="4.733459" lon="-75.713445"></trkpt>
      <trkpt lat="4.733701" lon="-75.713318"></trkpt>
      <trkpt lat="4.733846" lon="-75.713263"></trkpt>
      <trkpt lat="4.733975" lon="-75.713183"></trkpt>
      <trkpt lat="4.734012" lon="-75.713064"></trkpt>
      <trkpt lat="4.734003" lon="-75.712914"></trkpt>
      <trkpt lat="4.734022" lon="-75.712820"></trkpt>
      <trkpt lat="4.734113" lon="-75.712732"></trkpt>
      <trkpt lat="4.734280" lon="-75.712673"></trkpt>
      <trkpt lat="4.734646" lon="-75.712964"></trkpt>
      <trkpt lat="4.734826" lon="-75.713044"></trkpt>
      <trkpt lat="4.735013" lon="-75.712936"></trkpt>
      <trkpt lat="4.735118" lon="-75.712698"></trkpt>
      <trkpt lat="4.735540" lon="-75.712401"></trkpt>
      <trkpt lat="4.735623" lon="-75.712198"></trkpt>
      <trkpt lat="4.735479" lon="-75.711969"></trkpt>
      <trkpt lat="4.735323" lon="-75.711896"></trkpt>
      <trkpt lat="4.735170" lon="-75.711919"></trkpt>
      <trkpt lat="4.734829" lon="-75.711984"></trkpt>
      <trkpt lat="4.734602" lon="-75.711742"></trkpt>
      <trkpt lat="4.734237" lon="-75.711610"></trkpt>
      <trkpt lat="4.733973" lon="-75.711391"></trkpt>
      <trkpt lat="4.733728" lon="-75.711358"></trkpt>
      <trkpt lat="4.733231" lon="-75.711439"></trkpt>
      <trkpt lat="4.733027" lon="-75.711402"></trkpt>
      <trkpt lat="4.732911" lon="-75.711241"></trkpt>
      <trkpt lat="4.732877" lon="-75.710878"></trkpt>
      <trkpt lat="4.732531" lon="-75.710295"></trkpt>
      <trkpt lat="4.732241" lon="-75.710132"></trkpt>
      <trkpt lat="4.731934" lon="-75.710038"></trkpt>
      <trkpt lat="4.731832" lon="-75.709931"></trkpt>
      <trkpt lat="4.731648" lon="-75.709521"></trkpt>
      <trkpt lat="4.731444" lon="-75.709407"></trkpt>
      <trkpt lat="4.731259" lon="-75.709441"></trkpt>
      <trkpt lat="4.730796" lon="-75.709823"></trkpt>
      <trkpt lat="4.730698" lon="-75.710159"></trkpt>
      <trkpt lat="4.730247" lon="-75.710680"></trkpt>
      <trkpt lat="4.729775" lon="-75.710860"></trkpt>
      <trkpt lat="4.729038" lon="-75.711066"></trkpt>
      <trkpt lat="4.728234" lon="-75.711603"></trkpt>
      <trkpt lat="4.728075" lon="-75.711841"></trkpt>
      <trkpt lat="4.728087" lon="-75.712102"></trkpt>
      <trkpt lat="4.728185" lon="-75.712340"></trkpt>
      <trkpt lat="4.727923" lon="-75.712653"></trkpt>
      <trkpt lat="4.727836" lon="-75.712841"></trkpt>
      <trkpt lat="4.727835" lon="-75.713158"></trkpt>
      <trkpt lat="4.727675" lon="-75.713306"></trkpt>
      <trkpt lat="4.727541" lon="-75.713331"></trkpt>
      <trkpt lat="4.727428" lon="-75.713230"></trkpt>
      <trkpt lat="4.727112" lon="-75.712583"></trkpt>
      <trkpt lat="4.726877" lon="-75.712404"></trkpt>
      <trkpt lat="4.726837" lon="-75.712114"></trkpt>
      <trkpt lat="4.726973" lon="-75.711917"></trkpt>
      <trkpt lat="4.727283" lon="-75.711489"></trkpt>
      <trkpt lat="4.727261" lon="-75.711257"></trkpt>
      <trkpt lat="4.726749" lon="-75.710938"></trkpt>
      <trkpt lat="4.726412" lon="-75.710734"></trkpt>
      <trkpt lat="4.726340" lon="-75.710503"></trkpt>
      <trkpt lat="4.726491" lon="-75.710194"></trkpt>
      <trkpt lat="4.726570" lon="-75.709951"></trkpt>
      <trkpt lat="4.726511" lon="-75.709429"></trkpt>
      <trkpt lat="4.726401" lon="-75.709005"></trkpt>
      <trkpt lat="4.726559" lon="-75.708748"></trkpt>
      <trkpt lat="4.726709" lon="-75.708517"></trkpt>
      <trkpt lat="4.726844" lon="-75.708058"></trkpt>
      <trkpt lat="4.726960" lon="-75.707904"></trkpt>
      <trkpt lat="4.727174" lon="-75.707646"></trkpt>
      <trkpt lat="4.727183" lon="-75.707502"></trkpt>
      <trkpt lat="4.726749" lon="-75.706824"></trkpt>
      <trkpt lat="4.726713" lon="-75.706633"></trkpt>
      <trkpt lat="4.726914" lon="-75.706207"></trkpt>
      <trkpt lat="4.726880" lon="-75.706058"></trkpt>
      <trkpt lat="4.726690" lon="-75.706047"></trkpt>
      <trkpt lat="4.726498" lon="-75.706237"></trkpt>
      <trkpt lat="4.726069" lon="-75.706578"></trkpt>
      <trkpt lat="4.725859" lon="-75.707001"></trkpt>
      <trkpt lat="4.725854" lon="-75.707378"></trkpt>
      <trkpt lat="4.725773" lon="-75.707646"></trkpt>
      <trkpt lat="4.725416" lon="-75.708244"></trkpt>
      <trkpt lat="4.725173" lon="-75.708477"></trkpt>
      <trkpt lat="4.724976" lon="-75.708921"></trkpt>
      <trkpt lat="4.724949" lon="-75.709193"></trkpt>
      <trkpt lat="4.725157" lon="-75.709728"></trkpt>
      <trkpt lat="4.725105" lon="-75.709917"></trkpt>
      <trkpt lat="4.724819" lon="-75.710279"></trkpt>
      <trkpt lat="4.724492" lon="-75.710692"></trkpt>
      <trkpt lat="4.724483" lon="-75.710901"></trkpt>
      <trkpt lat="4.724685" lon="-75.711273"></trkpt>
      <trkpt lat="4.724680" lon="-75.711421"></trkpt>
      <trkpt lat="4.724461" lon="-75.711792"></trkpt>
      <trkpt lat="4.724206" lon="-75.712344"></trkpt>
      <trkpt lat="4.724150" lon="-75.712722"></trkpt>
      <trkpt lat="4.724066" lon="-75.712943"></trkpt>
      <trkpt lat="4.723860" lon="-75.713185"></trkpt>
      <trkpt lat="4.723734" lon="-75.713536"></trkpt>
      <trkpt lat="4.723599" lon="-75.713737"></trkpt>
      <trkpt lat="4.723459" lon="-75.713783"></trkpt>
      <trkpt lat="4.723316" lon="-75.713753"></trkpt>
      <trkpt lat="4.723057" lon="-75.713585"></trkpt>
      <trkpt lat="4.722743" lon="-75.713615"></trkpt>
      <trkpt lat="4.722526" lon="-75.713548"></trkpt>
      <trkpt lat="4.722390" lon="-75.713423"></trkpt>
      <trkpt lat="4.722245" lon="-75.713449"></trkpt>
      <trkpt lat="4.722263" lon="-75.713716"></trkpt>
      <trkpt lat="4.722423" lon="-75.714010"></trkpt>
      <trkpt lat="4.722576" lon="-75.714096"></trkpt>
      <trkpt lat="4.722885" lon="-75.714215"></trkpt>
      <trkpt lat="4.723186" lon="-75.714506"></trkpt>
      <trkpt lat="4.723076" lon="-75.714859"></trkpt>
      <trkpt lat="4.723113" lon="-75.715055"></trkpt>
      <trkpt lat="4.723278" lon="-75.715368"></trkpt>
      <trkpt lat="4.723222" lon="-75.715571"></trkpt>
      <trkpt lat="4.723073" lon="-75.715674"></trkpt>
      <trkpt lat="4.722945" lon="-75.715682"></trkpt>
      <trkpt lat="4.722792" lon="-75.715598"></trkpt>
      <trkpt lat="4.722724" lon="-75.715478"></trkpt>
      <trkpt lat="4.722638" lon="-75.715057"></trkpt>
      <trkpt lat="4.722435" lon="-75.714693"></trkpt>
      <trkpt lat="4.721889" lon="-75.714203"></trkpt>
      <trkpt lat="4.721774" lon="-75.714141"></trkpt>
      <trkpt lat="4.721562" lon="-75.714141"></trkpt>
      <trkpt lat="4.721321" lon="-75.714226"></trkpt>
      <trkpt lat="4.721204" lon="-75.715027"></trkpt>
      <trkpt lat="4.720864" lon="-75.715226"></trkpt>
      <trkpt lat="4.720576" lon="-75.715204"></trkpt>
      <trkpt lat="4.719483" lon="-75.715431"></trkpt>
      <trkpt lat="4.719100" lon="-75.716548"></trkpt>
      <trkpt lat="4.718657" lon="-75.716689"></trkpt>
      <trkpt lat="4.718001" lon="-75.716780"></trkpt>
      <trkpt lat="4.717681" lon="-75.717691"></trkpt>
      <trkpt lat="4.717401" lon="-75.717692"></trkpt>
      <trkpt lat="4.717033" lon="-75.717490"></trkpt>
      <trkpt lat="4.716888" lon="-75.717461"></trkpt>
      <trkpt lat="4.716783" lon="-75.717562"></trkpt>
      <trkpt lat="4.716766" lon="-75.718014"></trkpt>
      <trkpt lat="4.716627" lon="-75.718215"></trkpt>
      <trkpt lat="4.716167" lon="-75.718306"></trkpt>
      <trkpt lat="4.716001" lon="-75.718434"></trkpt>
      <trkpt lat="4.715885" lon="-75.718662"></trkpt>
      <trkpt lat="4.715819" lon="-75.718944"></trkpt>
      <trkpt lat="4.715877" lon="-75.719157"></trkpt>
      <trkpt lat="4.716048" lon="-75.719553"></trkpt>
      <trkpt lat="4.716002" lon="-75.719962"></trkpt>
      <trkpt lat="4.715878" lon="-75.720262"></trkpt>
      <trkpt lat="4.715718" lon="-75.720505"></trkpt>
      <trkpt lat="4.715168" lon="-75.720962"></trkpt>
      <trkpt lat="4.714933" lon="-75.721030"></trkpt>
      <trkpt lat="4.714752" lon="-75.720966"></trkpt>
      <trkpt lat="4.714626" lon="-75.720775"></trkpt>
      <trkpt lat="4.714434" lon="-75.720252"></trkpt>
      <trkpt lat="4.714337" lon="-75.719760"></trkpt>
      <trkpt lat="4.714388" lon="-75.719435"></trkpt>
      <trkpt lat="4.714157" lon="-75.718617"></trkpt>
      <trkpt lat="4.713966" lon="-75.718244"></trkpt>
      <trkpt lat="4.714102" lon="-75.717860"></trkpt>
      <trkpt lat="4.714305" lon="-75.717456"></trkpt>
      <trkpt lat="4.714256" lon="-75.717244"></trkpt>
      <trkpt lat="4.714131" lon="-75.717014"></trkpt>
      <trkpt lat="4.714019" lon="-75.716378"></trkpt>
      <trkpt lat="4.714071" lon="-75.716140"></trkpt>
      <trkpt lat="4.714240" lon="-75.715880"></trkpt>
      <trkpt lat="4.714591" lon="-75.715693"></trkpt>
      <trkpt lat="4.714970" lon="-75.715592"></trkpt>
      <trkpt lat="4.714983" lon="-75.715465"></trkpt>
      <trkpt lat="4.714828" lon="-75.715330"></trkpt>
      <trkpt lat="4.714316" lon="-75.715295"></trkpt>
      <trkpt lat="4.714265" lon="-75.715189"></trkpt>
      <trkpt lat="4.714375" lon="-75.715003"></trkpt>
      <trkpt lat="4.714478" lon="-75.714780"></trkpt>
      <trkpt lat="4.714474" lon="-75.714600"></trkpt>
      <trkpt lat="4.714310" lon="-75.714521"></trkpt>
      <trkpt lat="4.714144" lon="-75.714610"></trkpt>
      <trkpt lat="4.713898" lon="-75.714953"></trkpt>
      <trkpt lat="4.713762" lon="-75.715016"></trkpt>
      <trkpt lat="4.713687" lon="-75.714955"></trkpt>
      <trkpt lat="4.713782" lon="-75.714486"></trkpt>
      <trkpt lat="4.713878" lon="-75.714081"></trkpt>
      <trkpt lat="4.714193" lon="-75.713891"></trkpt>
      <trkpt lat="4.714189" lon="-75.713658"></trkpt>
      <trkpt lat="4.714204" lon="-75.713296"></trkpt>
      <trkpt lat="4.714367" lon="-75.713031"></trkpt>
      <trkpt lat="4.714399" lon="-75.712849"></trkpt>
      <trkpt lat="4.714080" lon="-75.712435"></trkpt>
      <trkpt lat="4.713884" lon="-75.712359"></trkpt>
      <trkpt lat="4.713294" lon="-75.712600"></trkpt>
      <trkpt lat="4.712635" lon="-75.712469"></trkpt>
      <trkpt lat="4.712414" lon="-75.712506"></trkpt>
      <trkpt lat="4.711988" lon="-75.712879"></trkpt>
      <trkpt lat="4.711718" lon="-75.712767"></trkpt>
      <trkpt lat="4.711751" lon="-75.712524"></trkpt>
      <trkpt lat="4.712028" lon="-75.712344"></trkpt>
      <trkpt lat="4.712143" lon="-75.711934"></trkpt>
      <trkpt lat="4.711943" lon="-75.711426"></trkpt>
      <trkpt lat="4.711981" lon="-75.711182"></trkpt>
      <trkpt lat="4.712727" lon="-75.710460"></trkpt>
      <trkpt lat="4.712763" lon="-75.709745"></trkpt>
      <trkpt lat="4.712924" lon="-75.709396"></trkpt>
      <trkpt lat="4.712835" lon="-75.709196"></trkpt>
      <trkpt lat="4.712464" lon="-75.708780"></trkpt>
      <trkpt lat="4.712667" lon="-75.707722"></trkpt>
      <trkpt lat="4.713026" lon="-75.707045"></trkpt>
      <trkpt lat="4.713087" lon="-75.706766"></trkpt>
      <trkpt lat="4.713300" lon="-75.706781"></trkpt>
      <trkpt lat="4.713992" lon="-75.707130"></trkpt>
      <trkpt lat="4.714387" lon="-75.707014"></trkpt>
      <trkpt lat="4.714729" lon="-75.706916"></trkpt>
      <trkpt lat="4.715073" lon="-75.706432"></trkpt>
      <trkpt lat="4.715511" lon="-75.706183"></trkpt>
      <trkpt lat="4.715723" lon="-75.705959"></trkpt>
      <trkpt lat="4.715603" lon="-75.705829"></trkpt>
      <trkpt lat="4.715356" lon="-75.705879"></trkpt>
      <trkpt lat="4.714780" lon="-75.706270"></trkpt>
      <trkpt lat="4.714536" lon="-75.706239"></trkpt>
      <trkpt lat="4.714033" lon="-75.705600"></trkpt>
      <trkpt lat="4.713571" lon="-75.705244"></trkpt>
      <trkpt lat="4.713331" lon="-75.704933"></trkpt>
      <trkpt lat="4.712907" lon="-75.704338"></trkpt>
      <trkpt lat="4.712867" lon="-75.704021"></trkpt>
      <trkpt lat="4.712865" lon="-75.703872"></trkpt>
      <trkpt lat="4.712087" lon="-75.704422"></trkpt>
      <trkpt lat="4.711751" lon="-75.705007"></trkpt>
      <trkpt lat="4.711985" lon="-75.705584"></trkpt>
      <trkpt lat="4.711988" lon="-75.705838"></trkpt>
      <trkpt lat="4.711320" lon="-75.706465"></trkpt>
      <trkpt lat="4.711180" lon="-75.706987"></trkpt>
      <trkpt lat="4.710839" lon="-75.707251"></trkpt>
      <trkpt lat="4.710167" lon="-75.707539"></trkpt>
      <trkpt lat="4.709964" lon="-75.708372"></trkpt>
      <trkpt lat="4.709787" lon="-75.708878"></trkpt>
      <trkpt lat="4.709594" lon="-75.709234"></trkpt>
      <trkpt lat="4.709259" lon="-75.709457"></trkpt>
      <trkpt lat="4.708998" lon="-75.709309"></trkpt>
      <trkpt lat="4.708718" lon="-75.709256"></trkpt>
      <trkpt lat="4.708499" lon="-75.709858"></trkpt>
      <trkpt lat="4.708309" lon="-75.710063"></trkpt>
      <trkpt lat="4.707952" lon="-75.709969"></trkpt>
      <trkpt lat="4.707184" lon="-75.709752"></trkpt>
      <trkpt lat="4.706743" lon="-75.709987"></trkpt>
      <trkpt lat="4.706184" lon="-75.710324"></trkpt>
      <trkpt lat="4.705934" lon="-75.710289"></trkpt>
      <trkpt lat="4.705901" lon="-75.710120"></trkpt>
      <trkpt lat="4.706088" lon="-75.709753"></trkpt>
      <trkpt lat="4.706013" lon="-75.709508"></trkpt>
      <trkpt lat="4.705638" lon="-75.709437"></trkpt>
      <trkpt lat="4.705452" lon="-75.709253"></trkpt>
      <trkpt lat="4.705498" lon="-75.709043"></trkpt>
      <trkpt lat="4.705689" lon="-75.708973"></trkpt>
      <trkpt lat="4.705944" lon="-75.709046"></trkpt>
      <trkpt lat="4.706274" lon="-75.709280"></trkpt>
      <trkpt lat="4.706469" lon="-75.709537"></trkpt>
      <trkpt lat="4.706698" lon="-75.709526"></trkpt>
      <trkpt lat="4.707434" lon="-75.709224"></trkpt>
      <trkpt lat="4.707674" lon="-75.708955"></trkpt>
      <trkpt lat="4.707693" lon="-75.708258"></trkpt>
      <trkpt lat="4.707982" lon="-75.708045"></trkpt>
      <trkpt lat="4.708551" lon="-75.707353"></trkpt>
      <trkpt lat="4.708622" lon="-75.707058"></trkpt>
      <trkpt lat="4.708358" lon="-75.706385"></trkpt>
      <trkpt lat="4.708239" lon="-75.706311"></trkpt>
      <trkpt lat="4.708104" lon="-75.706336"></trkpt>
      <trkpt lat="4.707690" lon="-75.706604"></trkpt>
      <trkpt lat="4.707494" lon="-75.706745"></trkpt>
      <trkpt lat="4.707247" lon="-75.707074"></trkpt>
      <trkpt lat="4.707133" lon="-75.707276"></trkpt>
      <trkpt lat="4.706720" lon="-75.707542"></trkpt>
      <trkpt lat="4.706508" lon="-75.707715"></trkpt>
      <trkpt lat="4.706983" lon="-75.708579"></trkpt>
      <trkpt lat="4.706486" lon="-75.707642"></trkpt>
      <trkpt lat="4.706140" lon="-75.707279"></trkpt>
      <trkpt lat="4.705883" lon="-75.707113"></trkpt>
      <trkpt lat="4.705339" lon="-75.706841"></trkpt>
      <trkpt lat="4.705002" lon="-75.707070"></trkpt>
      <trkpt lat="4.704788" lon="-75.707296"></trkpt>
      <trkpt lat="4.703526" lon="-75.709290"></trkpt>
      <trkpt lat="4.702590" lon="-75.709609"></trkpt>
      <trkpt lat="4.701269" lon="-75.710476"></trkpt>
      <trkpt lat="4.700402" lon="-75.711736"></trkpt>
      <trkpt lat="4.700274" lon="-75.712441"></trkpt>
      <trkpt lat="4.699913" lon="-75.713607"></trkpt>
      <trkpt lat="4.699877" lon="-75.714556"></trkpt>
      <trkpt lat="4.699955" lon="-75.715185"></trkpt>
      <trkpt lat="4.700511" lon="-75.715389"></trkpt>
      <trkpt lat="4.700740" lon="-75.716211"></trkpt>
      <trkpt lat="4.700522" lon="-75.717280"></trkpt>
      <trkpt lat="4.700124" lon="-75.717732"></trkpt>
      <trkpt lat="4.700066" lon="-75.717818"></trkpt>
      <trkpt lat="4.700007" lon="-75.718049"></trkpt>
      <trkpt lat="4.700057" lon="-75.718277"></trkpt>
      <trkpt lat="4.700138" lon="-75.718575"></trkpt>
      <trkpt lat="4.700269" lon="-75.718847"></trkpt>
      <trkpt lat="4.700442" lon="-75.718927"></trkpt>
      <trkpt lat="4.700572" lon="-75.718875"></trkpt>
      <trkpt lat="4.700611" lon="-75.718894"></trkpt>
      <trkpt lat="4.700594" lon="-75.718927"></trkpt>
      <trkpt lat="4.700423" lon="-75.719011"></trkpt>
      <trkpt lat="4.700103" lon="-75.718940"></trkpt>
      <trkpt lat="4.699797" lon="-75.719063"></trkpt>
      <trkpt lat="4.699396" lon="-75.719504"></trkpt>
      <trkpt lat="4.699089" lon="-75.719636"></trkpt>
      <trkpt lat="4.698932" lon="-75.719774"></trkpt>
      <trkpt lat="4.698510" lon="-75.720739"></trkpt>
      <trkpt lat="4.698519" lon="-75.720982"></trkpt>
      <trkpt lat="4.698757" lon="-75.721298"></trkpt>
      <trkpt lat="4.698773" lon="-75.721518"></trkpt>
      <trkpt lat="4.698706" lon="-75.721713"></trkpt>
      <trkpt lat="4.699749" lon="-75.721987"></trkpt>
      <trkpt lat="4.700430" lon="-75.722344"></trkpt>
      <trkpt lat="4.700070" lon="-75.722811"></trkpt>
      <trkpt lat="4.699279" lon="-75.722684"></trkpt>
      <trkpt lat="4.699134" lon="-75.722716"></trkpt>
      <trkpt lat="4.699019" lon="-75.723468"></trkpt>
      <trkpt lat="4.699384" lon="-75.723712"></trkpt>
      <trkpt lat="4.699771" lon="-75.724101"></trkpt>
      <trkpt lat="4.699868" lon="-75.724307"></trkpt>
      <trkpt lat="4.699493" lon="-75.724311"></trkpt>
      <trkpt lat="4.699221" lon="-75.724464"></trkpt>
      <trkpt lat="4.698896" lon="-75.724931"></trkpt>
      <trkpt lat="4.699022" lon="-75.725091"></trkpt>
      <trkpt lat="4.699647" lon="-75.724995"></trkpt>
      <trkpt lat="4.699720" lon="-75.725316"></trkpt>
      <trkpt lat="4.699639" lon="-75.726161"></trkpt>
      <trkpt lat="4.699908" lon="-75.726868"></trkpt>
      <trkpt lat="4.700454" lon="-75.727260"></trkpt>
      <trkpt lat="4.701881" lon="-75.727033"></trkpt>
      <trkpt lat="4.702477" lon="-75.727140"></trkpt>
      <trkpt lat="4.703862" lon="-75.728481"></trkpt>
      <trkpt lat="4.703979" lon="-75.728850"></trkpt>
      <trkpt lat="4.704254" lon="-75.729593"></trkpt>
      <trkpt lat="4.704744" lon="-75.730096"></trkpt>
      <trkpt lat="4.705064" lon="-75.730286"></trkpt>
      <trkpt lat="4.705513" lon="-75.730637"></trkpt>
      <trkpt lat="4.705629" lon="-75.730848"></trkpt>
      <trkpt lat="4.705594" lon="-75.731166"></trkpt>
      <trkpt lat="4.705485" lon="-75.731562"></trkpt>
      <trkpt lat="4.705788" lon="-75.731913"></trkpt>
      <trkpt lat="4.706023" lon="-75.732170"></trkpt>
      <trkpt lat="4.705799" lon="-75.732432"></trkpt>
      <trkpt lat="4.705652" lon="-75.732609"></trkpt>
      <trkpt lat="4.705692" lon="-75.732753"></trkpt>
      <trkpt lat="4.706211" lon="-75.733309"></trkpt>
      <trkpt lat="4.706267" lon="-75.733716"></trkpt>
      <trkpt lat="4.705991" lon="-75.733939"></trkpt>
      <trkpt lat="4.705764" lon="-75.734119"></trkpt>
      <trkpt lat="4.705726" lon="-75.734242"></trkpt>
      <trkpt lat="4.705844" lon="-75.734659"></trkpt>
      <trkpt lat="4.706202" lon="-75.735426"></trkpt>
      <trkpt lat="4.706995" lon="-75.737362"></trkpt>
      <trkpt lat="4.706638" lon="-75.737641"></trkpt>
      <trkpt lat="4.706416" lon="-75.738023"></trkpt>
      <trkpt lat="4.706346" lon="-75.738279"></trkpt>
      <trkpt lat="4.706308" lon="-75.738377"></trkpt>
      <trkpt lat="4.706232" lon="-75.738356"></trkpt>
      <trkpt lat="4.706216" lon="-75.737977"></trkpt>
      <trkpt lat="4.706267" lon="-75.737711"></trkpt>
      <trkpt lat="4.706167" lon="-75.737576"></trkpt>
      <trkpt lat="4.705959" lon="-75.737507"></trkpt>
      <trkpt lat="4.705794" lon="-75.737579"></trkpt>
      <trkpt lat="4.705652" lon="-75.737732"></trkpt>
      <trkpt lat="4.705616" lon="-75.738044"></trkpt>
      <trkpt lat="4.705355" lon="-75.738341"></trkpt>
      <trkpt lat="4.705320" lon="-75.738628"></trkpt>
      <trkpt lat="4.705282" lon="-75.738737"></trkpt>
      <trkpt lat="4.705104" lon="-75.738841"></trkpt>
      <trkpt lat="4.704890" lon="-75.738981"></trkpt>
      <trkpt lat="4.704441" lon="-75.738455"></trkpt>
      <trkpt lat="4.704102" lon="-75.738058"></trkpt>
      <trkpt lat="4.703594" lon="-75.738483"></trkpt>
      <trkpt lat="4.703010" lon="-75.737705"></trkpt>
      <trkpt lat="4.703871" lon="-75.737798"></trkpt>
      <trkpt lat="4.703836" lon="-75.738294"></trkpt>
      <trkpt lat="4.702964" lon="-75.737744"></trkpt>
      <trkpt lat="4.702187" lon="-75.736827"></trkpt>
      <trkpt lat="4.701485" lon="-75.736008"></trkpt>
      <trkpt lat="4.700524" lon="-75.734880"></trkpt>
      <trkpt lat="4.700280" lon="-75.734620"></trkpt>
      <trkpt lat="4.700027" lon="-75.734417"></trkpt>
      <trkpt lat="4.699927" lon="-75.734281"></trkpt>
      <trkpt lat="4.699863" lon="-75.734111"></trkpt>
      <trkpt lat="4.699855" lon="-75.734037"></trkpt>
      <trkpt lat="4.699769" lon="-75.733727"></trkpt>
      <trkpt lat="4.699844" lon="-75.733599"></trkpt>
      <trkpt lat="4.699993" lon="-75.733536"></trkpt>
      <trkpt lat="4.700395" lon="-75.733554"></trkpt>
      <trkpt lat="4.700388" lon="-75.733468"></trkpt>
      <trkpt lat="4.700031" lon="-75.733415"></trkpt>
      <trkpt lat="4.699636" lon="-75.733477"></trkpt>
      <trkpt lat="4.699456" lon="-75.733555"></trkpt>
      <trkpt lat="4.699431" lon="-75.733549"></trkpt>
      <trkpt lat="4.699356" lon="-75.733474"></trkpt>
      <trkpt lat="4.699292" lon="-75.733332"></trkpt>
      <trkpt lat="4.699196" lon="-75.733019"></trkpt>
      <trkpt lat="4.698933" lon="-75.732852"></trkpt>
      <trkpt lat="4.698314" lon="-75.732139"></trkpt>
      <trkpt lat="4.698035" lon="-75.731826"></trkpt>
      <trkpt lat="4.697988" lon="-75.731310"></trkpt>
      <trkpt lat="4.697767" lon="-75.730904"></trkpt>
      <trkpt lat="4.697397" lon="-75.729868"></trkpt>
      <trkpt lat="4.697175" lon="-75.729645"></trkpt>
      <trkpt lat="4.696443" lon="-75.729674"></trkpt>
      <trkpt lat="4.696064" lon="-75.729731"></trkpt>
      <trkpt lat="4.695847" lon="-75.729704"></trkpt>
      <trkpt lat="4.695685" lon="-75.729468"></trkpt>
      <trkpt lat="4.695570" lon="-75.728804"></trkpt>
      <trkpt lat="4.694568" lon="-75.728140"></trkpt>
      <trkpt lat="4.693416" lon="-75.727246"></trkpt>
      <trkpt lat="4.692999" lon="-75.726893"></trkpt>
      <trkpt lat="4.692330" lon="-75.726493"></trkpt>
      <trkpt lat="4.691792" lon="-75.725603"></trkpt>
      <trkpt lat="4.691113" lon="-75.725338"></trkpt>
      <trkpt lat="4.690957" lon="-75.724956"></trkpt>
      <trkpt lat="4.690822" lon="-75.724882"></trkpt>
      <trkpt lat="4.689886" lon="-75.724779"></trkpt>
      <trkpt lat="4.689516" lon="-75.724287"></trkpt>
      <trkpt lat="4.689558" lon="-75.723725"></trkpt>
      <trkpt lat="4.689500" lon="-75.723605"></trkpt>
      <trkpt lat="4.689266" lon="-75.723781"></trkpt>
      <trkpt lat="4.689005" lon="-75.723626"></trkpt>
      <trkpt lat="4.688808" lon="-75.723138"></trkpt>
      <trkpt lat="4.688820" lon="-75.722703"></trkpt>
      <trkpt lat="4.688916" lon="-75.722467"></trkpt>
      <trkpt lat="4.688879" lon="-75.722382"></trkpt>
      <trkpt lat="4.688373" lon="-75.722362"></trkpt>
      <trkpt lat="4.688384" lon="-75.722787"></trkpt>
      <trkpt lat="4.688027" lon="-75.723398"></trkpt>
      <trkpt lat="4.687904" lon="-75.723439"></trkpt>
      <trkpt lat="4.687837" lon="-75.723235"></trkpt>
      <trkpt lat="4.687865" lon="-75.722766"></trkpt>
      <trkpt lat="4.687566" lon="-75.721789"></trkpt>
      <trkpt lat="4.687547" lon="-75.720746"></trkpt>
      <trkpt lat="4.687361" lon="-75.720009"></trkpt>
      <trkpt lat="4.686779" lon="-75.719504"></trkpt>
      <trkpt lat="4.686623" lon="-75.719113"></trkpt>
      <trkpt lat="4.686350" lon="-75.717787"></trkpt>
      <trkpt lat="4.686980" lon="-75.716946"></trkpt>
      <trkpt lat="4.687623" lon="-75.716055"></trkpt>
      <trkpt lat="4.687813" lon="-75.715722"></trkpt>
      <trkpt lat="4.687694" lon="-75.715274"></trkpt>
      <trkpt lat="4.687488" lon="-75.714770"></trkpt>
      <trkpt lat="4.687304" lon="-75.714144"></trkpt>
      <trkpt lat="4.686608" lon="-75.713435"></trkpt>
      <trkpt lat="4.684836" lon="-75.712924"></trkpt>
      <trkpt lat="4.684433" lon="-75.712990"></trkpt>
      <trkpt lat="4.684294" lon="-75.713008"></trkpt>
      <trkpt lat="4.684051" lon="-75.713028"></trkpt>
      <trkpt lat="4.683188" lon="-75.712865"></trkpt>
      <trkpt lat="4.682992" lon="-75.712770"></trkpt>
      <trkpt lat="4.682895" lon="-75.712681"></trkpt>
      <trkpt lat="4.682904" lon="-75.711074"></trkpt>
      <trkpt lat="4.682874" lon="-75.710620"></trkpt>
      <trkpt lat="4.683358" lon="-75.710105"></trkpt>
      <trkpt lat="4.683888" lon="-75.709580"></trkpt>
      <trkpt lat="4.683989" lon="-75.709326"></trkpt>
      <trkpt lat="4.683919" lon="-75.709069"></trkpt>
      <trkpt lat="4.683733" lon="-75.708866"></trkpt>
      <trkpt lat="4.682298" lon="-75.708076"></trkpt>
      <trkpt lat="4.681536" lon="-75.707570"></trkpt>
      <trkpt lat="4.681237" lon="-75.706652"></trkpt>
      <trkpt lat="4.681319" lon="-75.705907"></trkpt>
      <trkpt lat="4.681188" lon="-75.704879"></trkpt>
      <trkpt lat="4.681052" lon="-75.704431"></trkpt>
      <trkpt lat="4.681141" lon="-75.704145"></trkpt>
      <trkpt lat="4.681424" lon="-75.703980"></trkpt>
      <trkpt lat="4.681369" lon="-75.703530"></trkpt>
      <trkpt lat="4.681344" lon="-75.703132"></trkpt>
      <trkpt lat="4.681100" lon="-75.702881"></trkpt>
      <trkpt lat="4.680856" lon="-75.702781"></trkpt>
      <trkpt lat="4.680823" lon="-75.702558"></trkpt>
      <trkpt lat="4.681060" lon="-75.702191"></trkpt>
      <trkpt lat="4.681098" lon="-75.701781"></trkpt>
      <trkpt lat="4.681278" lon="-75.701458"></trkpt>
      <trkpt lat="4.681072" lon="-75.700895"></trkpt>
      <trkpt lat="4.680512" lon="-75.700604"></trkpt>
      <trkpt lat="4.680000" lon="-75.700283"></trkpt>
      <trkpt lat="4.679876" lon="-75.699946"></trkpt>
      <trkpt lat="4.680059" lon="-75.699593"></trkpt>
      <trkpt lat="4.679897" lon="-75.698862"></trkpt>
      <trkpt lat="4.679186" lon="-75.697329"></trkpt>
      <trkpt lat="4.679283" lon="-75.696898"></trkpt>
      <trkpt lat="4.679183" lon="-75.696672"></trkpt>
      <trkpt lat="4.678906" lon="-75.696719"></trkpt>
      <trkpt lat="4.678418" lon="-75.696520"></trkpt>
      <trkpt lat="4.678300" lon="-75.696100"></trkpt>
      <trkpt lat="4.678386" lon="-75.695532"></trkpt>
      <trkpt lat="4.678477" lon="-75.693867"></trkpt>
      <trkpt lat="4.678206" lon="-75.693536"></trkpt>
      <trkpt lat="4.678018" lon="-75.693199"></trkpt>
      <trkpt lat="4.678023" lon="-75.692576"></trkpt>
      <trkpt lat="4.677933" lon="-75.692347"></trkpt>
      <trkpt lat="4.677115" lon="-75.691983"></trkpt>
      <trkpt lat="4.675318" lon="-75.691455"></trkpt>
      <trkpt lat="4.674692" lon="-75.690860"></trkpt>
      <trkpt lat="4.674194" lon="-75.690494"></trkpt>
      <trkpt lat="4.674080" lon="-75.690070"></trkpt>
      <trkpt lat="4.673615" lon="-75.689708"></trkpt>
      <trkpt lat="4.672919" lon="-75.689495"></trkpt>
      <trkpt lat="4.672413" lon="-75.688835"></trkpt>
      <trkpt lat="4.672329" lon="-75.688578"></trkpt>
      <trkpt lat="4.672051" lon="-75.688494"></trkpt>
      <trkpt lat="4.672104" lon="-75.688259"></trkpt>
      <trkpt lat="4.672110" lon="-75.687966"></trkpt>
      <trkpt lat="4.671846" lon="-75.687303"></trkpt>
      <trkpt lat="4.671781" lon="-75.686968"></trkpt>
      <trkpt lat="4.671733" lon="-75.686735"></trkpt>
      <trkpt lat="4.671522" lon="-75.686711"></trkpt>
      <trkpt lat="4.671206" lon="-75.686638"></trkpt>
      <trkpt lat="4.670947" lon="-75.685880"></trkpt>
      <trkpt lat="4.670926" lon="-75.685507"></trkpt>
      <trkpt lat="4.670787" lon="-75.685264"></trkpt>
      <trkpt lat="4.670582" lon="-75.685044"></trkpt>
      <trkpt lat="4.670338" lon="-75.684753"></trkpt>
      <trkpt lat="4.670123" lon="-75.684507"></trkpt>
      <trkpt lat="4.670041" lon="-75.684372"></trkpt>
      <trkpt lat="4.669858" lon="-75.683967"></trkpt>
      <trkpt lat="4.669685" lon="-75.683757"></trkpt>
      <trkpt lat="4.669090" lon="-75.683020"></trkpt>
      <trkpt lat="4.668351" lon="-75.682098"></trkpt>
      <trkpt lat="4.668252" lon="-75.681846"></trkpt>
      <trkpt lat="4.668173" lon="-75.681693"></trkpt>
      <trkpt lat="4.667865" lon="-75.681361"></trkpt>
      <trkpt lat="4.667875" lon="-75.681087"></trkpt>
      <trkpt lat="4.667788" lon="-75.680831"></trkpt>
      <trkpt lat="4.667904" lon="-75.680418"></trkpt>
      <trkpt lat="4.668123" lon="-75.680224"></trkpt>
      <trkpt lat="4.667893" lon="-75.679966"></trkpt>
      <trkpt lat="4.667928" lon="-75.679601"></trkpt>
      <trkpt lat="4.668020" lon="-75.679281"></trkpt>
      <trkpt lat="4.667876" lon="-75.678914"></trkpt>
      <trkpt lat="4.667947" lon="-75.678763"></trkpt>
      <trkpt lat="4.668216" lon="-75.678577"></trkpt>
      <trkpt lat="4.668143" lon="-75.678191"></trkpt>
      <trkpt lat="4.667850" lon="-75.678062"></trkpt>
      <trkpt lat="4.667762" lon="-75.677924"></trkpt>
      <trkpt lat="4.667824" lon="-75.677618"></trkpt>
      <trkpt lat="4.667843" lon="-75.677530"></trkpt>
      <trkpt lat="4.667836" lon="-75.677491"></trkpt>
      <trkpt lat="4.667792" lon="-75.677430"></trkpt>
      <trkpt lat="4.667757" lon="-75.677425"></trkpt>
      <trkpt lat="4.667553" lon="-75.677552"></trkpt>
      <trkpt lat="4.667033" lon="-75.677517"></trkpt>
      <trkpt lat="4.666586" lon="-75.677166"></trkpt>
      <trkpt lat="4.666434" lon="-75.676994"></trkpt>
      <trkpt lat="4.666123" lon="-75.676657"></trkpt>
      <trkpt lat="4.665635" lon="-75.676298"></trkpt>
      <trkpt lat="4.665460" lon="-75.675860"></trkpt>
      <trkpt lat="4.665450" lon="-75.675608"></trkpt>
      <trkpt lat="4.665507" lon="-75.675385"></trkpt>
      <trkpt lat="4.665316" lon="-75.675061"></trkpt>
      <trkpt lat="4.665241" lon="-75.674768"></trkpt>
      <trkpt lat="4.665292" lon="-75.673969"></trkpt>
      <trkpt lat="4.665264" lon="-75.673852"></trkpt>
      <trkpt lat="4.664754" lon="-75.673218"></trkpt>
      <trkpt lat="4.664697" lon="-75.672969"></trkpt>
      <trkpt lat="4.664668" lon="-75.672066"></trkpt>
      <trkpt lat="4.664676" lon="-75.671901"></trkpt>
      <trkpt lat="4.664752" lon="-75.671466"></trkpt>
      <trkpt lat="4.664565" lon="-75.671134"></trkpt>
      <trkpt lat="4.664682" lon="-75.670166"></trkpt>
      <trkpt lat="4.664694" lon="-75.669451"></trkpt>
      <trkpt lat="4.664818" lon="-75.668980"></trkpt>
      <trkpt lat="4.665012" lon="-75.668719"></trkpt>
      <trkpt lat="4.665178" lon="-75.668507"></trkpt>
      <trkpt lat="4.665262" lon="-75.668291"></trkpt>
      <trkpt lat="4.665364" lon="-75.667917"></trkpt>
      <trkpt lat="4.665563" lon="-75.667565"></trkpt>
      <trkpt lat="4.665623" lon="-75.667402"></trkpt>
      <trkpt lat="4.665706" lon="-75.667038"></trkpt>
      <trkpt lat="4.666107" lon="-75.666739"></trkpt>
      <trkpt lat="4.667613" lon="-75.665311"></trkpt>
      <trkpt lat="4.667921" lon="-75.665076"></trkpt>
      <trkpt lat="4.668323" lon="-75.664848"></trkpt>
      <trkpt lat="4.668980" lon="-75.664320"></trkpt>
      <trkpt lat="4.669209" lon="-75.664072"></trkpt>
      <trkpt lat="4.669368" lon="-75.663831"></trkpt>
      <trkpt lat="4.669514" lon="-75.663373"></trkpt>
      <trkpt lat="4.669549" lon="-75.662603"></trkpt>
      <trkpt lat="4.669836" lon="-75.662425"></trkpt>
      <trkpt lat="4.670162" lon="-75.662105"></trkpt>
      <trkpt lat="4.670834" lon="-75.661492"></trkpt>
      <trkpt lat="4.671782" lon="-75.660775"></trkpt>
      <trkpt lat="4.671874" lon="-75.660627"></trkpt>
      <trkpt lat="4.672743" lon="-75.659200"></trkpt>
      <trkpt lat="4.673177" lon="-75.658461"></trkpt>
      <trkpt lat="4.674327" lon="-75.658214"></trkpt>
      <trkpt lat="4.674447" lon="-75.658057"></trkpt>
      <trkpt lat="4.674675" lon="-75.657690"></trkpt>
      <trkpt lat="4.674698" lon="-75.657605"></trkpt>
      <trkpt lat="4.674929" lon="-75.657191"></trkpt>
      <trkpt lat="4.675238" lon="-75.656638"></trkpt>
      <trkpt lat="4.675510" lon="-75.656150"></trkpt>
      <trkpt lat="4.675879" lon="-75.655520"></trkpt>
      <trkpt lat="4.675888" lon="-75.655323"></trkpt>
      <trkpt lat="4.676018" lon="-75.654964"></trkpt>
      <trkpt lat="4.676242" lon="-75.654668"></trkpt>
      <trkpt lat="4.676480" lon="-75.654353"></trkpt>
      <trkpt lat="4.676547" lon="-75.654127"></trkpt>
      <trkpt lat="4.676462" lon="-75.653938"></trkpt>
      <trkpt lat="4.676001" lon="-75.653239"></trkpt>
      <trkpt lat="4.675996" lon="-75.653046"></trkpt>
      <trkpt lat="4.676183" lon="-75.652684"></trkpt>
      <trkpt lat="4.676851" lon="-75.651925"></trkpt>
      <trkpt lat="4.677348" lon="-75.651489"></trkpt>
      <trkpt lat="4.677460" lon="-75.651239"></trkpt>
      <trkpt lat="4.677519" lon="-75.650739"></trkpt>
      <trkpt lat="4.677293" lon="-75.649227"></trkpt>
      <trkpt lat="4.677267" lon="-75.648528"></trkpt>
      <trkpt lat="4.677312" lon="-75.647802"></trkpt>
      <trkpt lat="4.677140" lon="-75.646801"></trkpt>
      <trkpt lat="4.677025" lon="-75.646179"></trkpt>
      <trkpt lat="4.677124" lon="-75.645565"></trkpt>
      <trkpt lat="4.677610" lon="-75.644385"></trkpt>
      <trkpt lat="4.677868" lon="-75.643815"></trkpt>
      <trkpt lat="4.678148" lon="-75.643463"></trkpt>
      <trkpt lat="4.678755" lon="-75.642854"></trkpt>
      <trkpt lat="4.679318" lon="-75.642098"></trkpt>
      <trkpt lat="4.679658" lon="-75.641390"></trkpt>
      <trkpt lat="4.679799" lon="-75.640790"></trkpt>
      <trkpt lat="4.679866" lon="-75.640649"></trkpt>
      <trkpt lat="4.680219" lon="-75.640421"></trkpt>
      <trkpt lat="4.680566" lon="-75.640241"></trkpt>
      <trkpt lat="4.681289" lon="-75.639972"></trkpt>
      <trkpt lat="4.682057" lon="-75.639719"></trkpt>
      <trkpt lat="4.682467" lon="-75.639479"></trkpt>
      <trkpt lat="4.682686" lon="-75.639322"></trkpt>
      <trkpt lat="4.682807" lon="-75.639213"></trkpt>
      <trkpt lat="4.683037" lon="-75.638891"></trkpt>
      <trkpt lat="4.683687" lon="-75.637878"></trkpt>
      <trkpt lat="4.683823" lon="-75.637729"></trkpt>
      <trkpt lat="4.684361" lon="-75.637361"></trkpt>
      <trkpt lat="4.684574" lon="-75.637174"></trkpt>
      <trkpt lat="4.684988" lon="-75.636492"></trkpt>
      <trkpt lat="4.685297" lon="-75.635916"></trkpt>
      <trkpt lat="4.685885" lon="-75.635300"></trkpt>
      <trkpt lat="4.686680" lon="-75.634386"></trkpt>
      <trkpt lat="4.687180" lon="-75.634021"></trkpt>
      <trkpt lat="4.687603" lon="-75.633443"></trkpt>
      <trkpt lat="4.687947" lon="-75.633001"></trkpt>
      <trkpt lat="4.688420" lon="-75.632409"></trkpt>
      <trkpt lat="4.688844" lon="-75.631744"></trkpt>
      <trkpt lat="4.688972" lon="-75.631240"></trkpt>
      <trkpt lat="4.688840" lon="-75.630838"></trkpt>
      <trkpt lat="4.688643" lon="-75.630282"></trkpt>
      <trkpt lat="4.688669" lon="-75.629862"></trkpt>
      <trkpt lat="4.688721" lon="-75.629508"></trkpt>
      <trkpt lat="4.688646" lon="-75.629151"></trkpt>
      <trkpt lat="4.688324" lon="-75.628422"></trkpt>
      <trkpt lat="4.688232" lon="-75.628082"></trkpt>
      <trkpt lat="4.688394" lon="-75.627200"></trkpt>
      <trkpt lat="4.688528" lon="-75.626400"></trkpt>
      <trkpt lat="4.688406" lon="-75.626200"></trkpt>
      <trkpt lat="4.688146" lon="-75.625856"></trkpt>
      <trkpt lat="4.687695" lon="-75.624968"></trkpt>
      <trkpt lat="4.687159" lon="-75.623451"></trkpt>
      <trkpt lat="4.686866" lon="-75.622619"></trkpt>
      <trkpt lat="4.686973" lon="-75.621895"></trkpt>
      <trkpt lat="4.687302" lon="-75.621186"></trkpt>
      <trkpt lat="4.687635" lon="-75.620625"></trkpt>
      <trkpt lat="4.688229" lon="-75.619093"></trkpt>
      <trkpt lat="4.688288" lon="-75.618837"></trkpt>
      <trkpt lat="4.688130" lon="-75.618446"></trkpt>
      <trkpt lat="4.687951" lon="-75.618268"></trkpt>
      <trkpt lat="4.686759" lon="-75.617473"></trkpt>
      <trkpt lat="4.686412" lon="-75.617220"></trkpt>
      <trkpt lat="4.686181" lon="-75.616815"></trkpt>
      <trkpt lat="4.686178" lon="-75.616368"></trkpt>
      <trkpt lat="4.686235" lon="-75.616203"></trkpt>
      <trkpt lat="4.686537" lon="-75.615779"></trkpt>
      <trkpt lat="4.687751" lon="-75.614428"></trkpt>
      <trkpt lat="4.688635" lon="-75.613436"></trkpt>
      <trkpt lat="4.689075" lon="-75.613066"></trkpt>
      <trkpt lat="4.689334" lon="-75.612677"></trkpt>
      <trkpt lat="4.689437" lon="-75.611994"></trkpt>
      <trkpt lat="4.689363" lon="-75.611552"></trkpt>
      <trkpt lat="4.689330" lon="-75.611031"></trkpt>
      <trkpt lat="4.689573" lon="-75.610260"></trkpt>
      <trkpt lat="4.689538" lon="-75.609867"></trkpt>
      <trkpt lat="4.688849" lon="-75.608654"></trkpt>
      <trkpt lat="4.688697" lon="-75.608279"></trkpt>
      <trkpt lat="4.688740" lon="-75.607902"></trkpt>
      <trkpt lat="4.688756" lon="-75.607408"></trkpt>
      <trkpt lat="4.688719" lon="-75.607314"></trkpt>
      <trkpt lat="4.688657" lon="-75.607234"></trkpt>
      <trkpt lat="4.688542" lon="-75.607181"></trkpt>
      <trkpt lat="4.688432" lon="-75.607089"></trkpt>
      <trkpt lat="4.688146" lon="-75.606983"></trkpt>
      <trkpt lat="4.687786" lon="-75.606873"></trkpt>
      <trkpt lat="4.687627" lon="-75.606820"></trkpt>
      <trkpt lat="4.687557" lon="-75.606753"></trkpt>
      <trkpt lat="4.687539" lon="-75.606673"></trkpt>
      <trkpt lat="4.687558" lon="-75.606606"></trkpt>
      <trkpt lat="4.687615" lon="-75.606551"></trkpt>
      <trkpt lat="4.687701" lon="-75.606536"></trkpt>
      <trkpt lat="4.687847" lon="-75.606573"></trkpt>
      <trkpt lat="4.688103" lon="-75.606673"></trkpt>
      <trkpt lat="4.688309" lon="-75.606714"></trkpt>
      <trkpt lat="4.688511" lon="-75.606767"></trkpt>
      <trkpt lat="4.688694" lon="-75.606782"></trkpt>
      <trkpt lat="4.688958" lon="-75.606776"></trkpt>
      <trkpt lat="4.690044" lon="-75.606740"></trkpt>
      <trkpt lat="4.690362" lon="-75.606743"></trkpt>
      <trkpt lat="4.690709" lon="-75.606769"></trkpt>
      <trkpt lat="4.691655" lon="-75.606841"></trkpt>
      <trkpt lat="4.691861" lon="-75.606854"></trkpt>
      <trkpt lat="4.692039" lon="-75.606821"></trkpt>
      <trkpt lat="4.692183" lon="-75.606762"></trkpt>
      <trkpt lat="4.692317" lon="-75.606673"></trkpt>
      <trkpt lat="4.692440" lon="-75.606547"></trkpt>
      <trkpt lat="4.692537" lon="-75.606386"></trkpt>
      <trkpt lat="4.692591" lon="-75.606225"></trkpt>
      <trkpt lat="4.692610" lon="-75.606051"></trkpt>
      <trkpt lat="4.692616" lon="-75.604273"></trkpt>
      <trkpt lat="4.692604" lon="-75.604031"></trkpt>
      <trkpt lat="4.692651" lon="-75.603883"></trkpt>
      <trkpt lat="4.692722" lon="-75.603794"></trkpt>
      <trkpt lat="4.692821" lon="-75.603711"></trkpt>
      <trkpt lat="4.692939" lon="-75.603649"></trkpt>
      <trkpt lat="4.693090" lon="-75.603611"></trkpt>
      <trkpt lat="4.693255" lon="-75.603613"></trkpt>
      <trkpt lat="4.693394" lon="-75.603650"></trkpt>
      <trkpt lat="4.693526" lon="-75.603723"></trkpt>
      <trkpt lat="4.693666" lon="-75.603864"></trkpt>
      <trkpt lat="4.694070" lon="-75.604544"></trkpt>
      <trkpt lat="4.694238" lon="-75.604906"></trkpt>
      <trkpt lat="4.694357" lon="-75.605109"></trkpt>
      <trkpt lat="4.694465" lon="-75.605248"></trkpt>
      <trkpt lat="4.694592" lon="-75.605366"></trkpt>
      <trkpt lat="4.694750" lon="-75.605473"></trkpt>
      <trkpt lat="4.694935" lon="-75.605555"></trkpt>
      <trkpt lat="4.695539" lon="-75.605787"></trkpt>
      <trkpt lat="4.696026" lon="-75.605979"></trkpt>
      <trkpt lat="4.696191" lon="-75.606033"></trkpt>
      <trkpt lat="4.696351" lon="-75.606071"></trkpt>
      <trkpt lat="4.696573" lon="-75.606106"></trkpt>
      <trkpt lat="4.696819" lon="-75.606128"></trkpt>
      <trkpt lat="4.697083" lon="-75.606131"></trkpt>
      <trkpt lat="4.697359" lon="-75.606114"></trkpt>
      <trkpt lat="4.697817" lon="-75.606084"></trkpt>
      <trkpt lat="4.698227" lon="-75.606052"></trkpt>
      <trkpt lat="4.698351" lon="-75.606046"></trkpt>
      <trkpt lat="4.698916" lon="-75.606034"></trkpt>
      <trkpt lat="4.699408" lon="-75.606012"></trkpt>
      <trkpt lat="4.700016" lon="-75.605972"></trkpt>
      <trkpt lat="4.700268" lon="-75.605918"></trkpt>
      <trkpt lat="4.700453" lon="-75.605837"></trkpt>
      <trkpt lat="4.700615" lon="-75.605728"></trkpt>
      <trkpt lat="4.700746" lon="-75.605604"></trkpt>
      <trkpt lat="4.700871" lon="-75.605437"></trkpt>
      <trkpt lat="4.700950" lon="-75.605282"></trkpt>
      <trkpt lat="4.701022" lon="-75.605036"></trkpt>
      <trkpt lat="4.701182" lon="-75.604566"></trkpt>
      <trkpt lat="4.701336" lon="-75.604211"></trkpt>
      <trkpt lat="4.701435" lon="-75.604071"></trkpt>
      <trkpt lat="4.701563" lon="-75.603958"></trkpt>
      <trkpt lat="4.701715" lon="-75.603879"></trkpt>
      <trkpt lat="4.701880" lon="-75.603837"></trkpt>
      <trkpt lat="4.702051" lon="-75.603835"></trkpt>
      <trkpt lat="4.702218" lon="-75.603873"></trkpt>
      <trkpt lat="4.702371" lon="-75.603950"></trkpt>
      <trkpt lat="4.702485" lon="-75.604042"></trkpt>
      <trkpt lat="4.702577" lon="-75.604156"></trkpt>
      <trkpt lat="4.702646" lon="-75.604286"></trkpt>
      <trkpt lat="4.702687" lon="-75.604427"></trkpt>
      <trkpt lat="4.702707" lon="-75.604615"></trkpt>
      <trkpt lat="4.702715" lon="-75.605491"></trkpt>
      <trkpt lat="4.702731" lon="-75.605745"></trkpt>
      <trkpt lat="4.702771" lon="-75.605906"></trkpt>
      <trkpt lat="4.702865" lon="-75.606056"></trkpt>
      <trkpt lat="4.702980" lon="-75.606170"></trkpt>
      <trkpt lat="4.704149" lon="-75.606931"></trkpt>
      <trkpt lat="4.704569" lon="-75.607177"></trkpt>
      <trkpt lat="4.705067" lon="-75.607241"></trkpt>
      <trkpt lat="4.705808" lon="-75.607075"></trkpt>
      <trkpt lat="4.706418" lon="-75.606850"></trkpt>
      <trkpt lat="4.707013" lon="-75.606331"></trkpt>
      <trkpt lat="4.707180" lon="-75.606122"></trkpt>
      <trkpt lat="4.707241" lon="-75.605934"></trkpt>
      <trkpt lat="4.707318" lon="-75.605454"></trkpt>
      <trkpt lat="4.707411" lon="-75.604733"></trkpt>
      <trkpt lat="4.707761" lon="-75.604085"></trkpt>
      <trkpt lat="4.708328" lon="-75.603525"></trkpt>
      <trkpt lat="4.708628" lon="-75.603528"></trkpt>
      <trkpt lat="4.708902" lon="-75.603709"></trkpt>
      <trkpt lat="4.709012" lon="-75.604011"></trkpt>
      <trkpt lat="4.708958" lon="-75.604497"></trkpt>
      <trkpt lat="4.709120" lon="-75.604891"></trkpt>
      <trkpt lat="4.709981" lon="-75.605770"></trkpt>
      <trkpt lat="4.710121" lon="-75.605923"></trkpt>
      <trkpt lat="4.710272" lon="-75.606212"></trkpt>
      <trkpt lat="4.710427" lon="-75.606857"></trkpt>
      <trkpt lat="4.710513" lon="-75.607317"></trkpt>
      <trkpt lat="4.710542" lon="-75.607638"></trkpt>
      <trkpt lat="4.710511" lon="-75.607925"></trkpt>
      <trkpt lat="4.710423" lon="-75.608161"></trkpt>
      <trkpt lat="4.710306" lon="-75.608366"></trkpt>
      <trkpt lat="4.709828" lon="-75.609061"></trkpt>
      <trkpt lat="4.709454" lon="-75.609667"></trkpt>
      <trkpt lat="4.709347" lon="-75.609863"></trkpt>
      <trkpt lat="4.709266" lon="-75.610071"></trkpt>
      <trkpt lat="4.709204" lon="-75.610326"></trkpt>
      <trkpt lat="4.709049" lon="-75.611124"></trkpt>
      <trkpt lat="4.708944" lon="-75.611805"></trkpt>
      <trkpt lat="4.708900" lon="-75.612197"></trkpt>
      <trkpt lat="4.708913" lon="-75.612452"></trkpt>
      <trkpt lat="4.708974" lon="-75.612700"></trkpt>
      <trkpt lat="4.709079" lon="-75.612932"></trkpt>
      <trkpt lat="4.709227" lon="-75.613140"></trkpt>
      <trkpt lat="4.709411" lon="-75.613317"></trkpt>
      <trkpt lat="4.709625" lon="-75.613455"></trkpt>
      <trkpt lat="4.709840" lon="-75.613538"></trkpt>
      <trkpt lat="4.710294" lon="-75.613634"></trkpt>
      <trkpt lat="4.710823" lon="-75.613734"></trkpt>
      <trkpt lat="4.711232" lon="-75.613827"></trkpt>
      <trkpt lat="4.711369" lon="-75.613899"></trkpt>
      <trkpt lat="4.711521" lon="-75.614026"></trkpt>
      <trkpt lat="4.711674" lon="-75.614219"></trkpt>
      <trkpt lat="4.711815" lon="-75.614410"></trkpt>
      <trkpt lat="4.711955" lon="-75.614544"></trkpt>
      <trkpt lat="4.712143" lon="-75.614653"></trkpt>
      <trkpt lat="4.712362" lon="-75.614718"></trkpt>
      <trkpt lat="4.712547" lon="-75.614738"></trkpt>
      <trkpt lat="4.713451" lon="-75.614626"></trkpt>
      <trkpt lat="4.713777" lon="-75.614602"></trkpt>
      <trkpt lat="4.713872" lon="-75.614603"></trkpt>
      <trkpt lat="4.714098" lon="-75.614627"></trkpt>
      <trkpt lat="4.714390" lon="-75.614693"></trkpt>
      <trkpt lat="4.714616" lon="-75.614775"></trkpt>
      <trkpt lat="4.714846" lon="-75.614891"></trkpt>
      <trkpt lat="4.715062" lon="-75.615024"></trkpt>
      <trkpt lat="4.715238" lon="-75.615168"></trkpt>
      <trkpt lat="4.715391" lon="-75.615319"></trkpt>
      <trkpt lat="4.715561" lon="-75.615526"></trkpt>
      <trkpt lat="4.715694" lon="-75.615723"></trkpt>
      <trkpt lat="4.715786" lon="-75.615914"></trkpt>
      <trkpt lat="4.715867" lon="-75.616145"></trkpt>
      <trkpt lat="4.715931" lon="-75.616402"></trkpt>
      <trkpt lat="4.716110" lon="-75.617448"></trkpt>
      <trkpt lat="4.716388" lon="-75.619297"></trkpt>
      <trkpt lat="4.716425" lon="-75.619632"></trkpt>
      <trkpt lat="4.716425" lon="-75.619812"></trkpt>
      <trkpt lat="4.716415" lon="-75.619982"></trkpt>
      <trkpt lat="4.716388" lon="-75.620156"></trkpt>
      <trkpt lat="4.716225" lon="-75.621010"></trkpt>
      <trkpt lat="4.716183" lon="-75.621264"></trkpt>
      <trkpt lat="4.716175" lon="-75.621422"></trkpt>
      <trkpt lat="4.716190" lon="-75.621550"></trkpt>
      <trkpt lat="4.716229" lon="-75.621706"></trkpt>
      <trkpt lat="4.716298" lon="-75.621878"></trkpt>
      <trkpt lat="4.716387" lon="-75.622043"></trkpt>
      <trkpt lat="4.716520" lon="-75.622212"></trkpt>
      <trkpt lat="4.717527" lon="-75.623272"></trkpt>
      <trkpt lat="4.717787" lon="-75.623536"></trkpt>
      <trkpt lat="4.717974" lon="-75.623670"></trkpt>
      <trkpt lat="4.718158" lon="-75.623753"></trkpt>
      <trkpt lat="4.718367" lon="-75.623804"></trkpt>
      <trkpt lat="4.719420" lon="-75.623930"></trkpt>
      <trkpt lat="4.719841" lon="-75.623977"></trkpt>
      <trkpt lat="4.720046" lon="-75.623989"></trkpt>
      <trkpt lat="4.720493" lon="-75.623972"></trkpt>
      <trkpt lat="4.720913" lon="-75.623953"></trkpt>
      <trkpt lat="4.721211" lon="-75.623961"></trkpt>
      <trkpt lat="4.721451" lon="-75.623996"></trkpt>
      <trkpt lat="4.721659" lon="-75.624055"></trkpt>
      <trkpt lat="4.721878" lon="-75.624164"></trkpt>
      <trkpt lat="4.722098" lon="-75.624318"></trkpt>
      <trkpt lat="4.722664" lon="-75.624817"></trkpt>
      <trkpt lat="4.723262" lon="-75.625389"></trkpt>
      <trkpt lat="4.723389" lon="-75.625570"></trkpt>
      <trkpt lat="4.723543" lon="-75.625847"></trkpt>
      <trkpt lat="4.723740" lon="-75.626415"></trkpt>
      <trkpt lat="4.723950" lon="-75.627038"></trkpt>
      <trkpt lat="4.724186" lon="-75.627801"></trkpt>
      <trkpt lat="4.724468" lon="-75.628911"></trkpt>
      <trkpt lat="4.724678" lon="-75.629897"></trkpt>
      <trkpt lat="4.724758" lon="-75.630266"></trkpt>
      <trkpt lat="4.724826" lon="-75.630477"></trkpt>
      <trkpt lat="4.724927" lon="-75.630706"></trkpt>
      <trkpt lat="4.725072" lon="-75.630913"></trkpt>
      <trkpt lat="4.725243" lon="-75.631083"></trkpt>
      <trkpt lat="4.725442" lon="-75.631230"></trkpt>
      <trkpt lat="4.726597" lon="-75.632015"></trkpt>
      <trkpt lat="4.726896" lon="-75.632291"></trkpt>
      <trkpt lat="4.727079" lon="-75.632503"></trkpt>
      <trkpt lat="4.727238" lon="-75.632759"></trkpt>
      <trkpt lat="4.727370" lon="-75.633009"></trkpt>
      <trkpt lat="4.727448" lon="-75.633265"></trkpt>
      <trkpt lat="4.727490" lon="-75.633557"></trkpt>
      <trkpt lat="4.727509" lon="-75.633788"></trkpt>
      <trkpt lat="4.727491" lon="-75.634049"></trkpt>
      <trkpt lat="4.727411" lon="-75.634422"></trkpt>
      <trkpt lat="4.727223" lon="-75.635041"></trkpt>
      <trkpt lat="4.727178" lon="-75.635279"></trkpt>
      <trkpt lat="4.727191" lon="-75.635536"></trkpt>
      <trkpt lat="4.727262" lon="-75.635773"></trkpt>
      <trkpt lat="4.727364" lon="-75.635953"></trkpt>
      <trkpt lat="4.727550" lon="-75.636184"></trkpt>
      <trkpt lat="4.727907" lon="-75.636508"></trkpt>
      <trkpt lat="4.728117" lon="-75.636652"></trkpt>
      <trkpt lat="4.728354" lon="-75.636717"></trkpt>
      <trkpt lat="4.728595" lon="-75.636757"></trkpt>
      <trkpt lat="4.728873" lon="-75.636766"></trkpt>
      <trkpt lat="4.729435" lon="-75.636768"></trkpt>
      <trkpt lat="4.729696" lon="-75.636790"></trkpt>
      <trkpt lat="4.729952" lon="-75.636851"></trkpt>
      <trkpt lat="4.730196" lon="-75.636949"></trkpt>
      <trkpt lat="4.730423" lon="-75.637081"></trkpt>
      <trkpt lat="4.730696" lon="-75.637273"></trkpt>
      <trkpt lat="4.731508" lon="-75.637895"></trkpt>
      <trkpt lat="4.731633" lon="-75.637996"></trkpt>
      <trkpt lat="4.731806" lon="-75.638170"></trkpt>
      <trkpt lat="4.731982" lon="-75.638405"></trkpt>
      <trkpt lat="4.732450" lon="-75.639189"></trkpt>
      <trkpt lat="4.732541" lon="-75.639360"></trkpt>
      <trkpt lat="4.732651" lon="-75.639503"></trkpt>
      <trkpt lat="4.732803" lon="-75.639642"></trkpt>
      <trkpt lat="4.732978" lon="-75.639750"></trkpt>
      <trkpt lat="4.734032" lon="-75.640288"></trkpt>
      <trkpt lat="4.734410" lon="-75.640480"></trkpt>
      <trkpt lat="4.734637" lon="-75.640642"></trkpt>
      <trkpt lat="4.734834" lon="-75.640844"></trkpt>
      <trkpt lat="4.734995" lon="-75.641081"></trkpt>
      <trkpt lat="4.735113" lon="-75.641350"></trkpt>
      <trkpt lat="4.735274" lon="-75.641931"></trkpt>
      <trkpt lat="4.735361" lon="-75.642334"></trkpt>
      <trkpt lat="4.735450" lon="-75.642733"></trkpt>
      <trkpt lat="4.735537" lon="-75.643064"></trkpt>
      <trkpt lat="4.735625" lon="-75.643400"></trkpt>
      <trkpt lat="4.735755" lon="-75.643816"></trkpt>
      <trkpt lat="4.735869" lon="-75.644237"></trkpt>
      <trkpt lat="4.735955" lon="-75.644512"></trkpt>
      <trkpt lat="4.736044" lon="-75.644714"></trkpt>
      <trkpt lat="4.736153" lon="-75.644873"></trkpt>
      <trkpt lat="4.736317" lon="-75.645048"></trkpt>
      <trkpt lat="4.736643" lon="-75.645353"></trkpt>
      <trkpt lat="4.736969" lon="-75.645696"></trkpt>
      <trkpt lat="4.737094" lon="-75.645873"></trkpt>
      <trkpt lat="4.737193" lon="-75.646074"></trkpt>
      <trkpt lat="4.737240" lon="-75.646290"></trkpt>
      <trkpt lat="4.737256" lon="-75.646489"></trkpt>
      <trkpt lat="4.737225" lon="-75.646709"></trkpt>
      <trkpt lat="4.737140" lon="-75.647024"></trkpt>
      <trkpt lat="4.737073" lon="-75.647276"></trkpt>
      <trkpt lat="4.737049" lon="-75.647516"></trkpt>
      <trkpt lat="4.737045" lon="-75.647759"></trkpt>
      <trkpt lat="4.737157" lon="-75.648346"></trkpt>
      <trkpt lat="4.737335" lon="-75.649082"></trkpt>
      <trkpt lat="4.737525" lon="-75.649890"></trkpt>
      <trkpt lat="4.737541" lon="-75.650176"></trkpt>
      <trkpt lat="4.737543" lon="-75.650517"></trkpt>
      <trkpt lat="4.737526" lon="-75.651244"></trkpt>
      <trkpt lat="4.737523" lon="-75.652068"></trkpt>
      <trkpt lat="4.737548" lon="-75.652433"></trkpt>
      <trkpt lat="4.737591" lon="-75.652734"></trkpt>
      <trkpt lat="4.737736" lon="-75.653509"></trkpt>
      <trkpt lat="4.737931" lon="-75.654516"></trkpt>
      <trkpt lat="4.738014" lon="-75.654792"></trkpt>
      <trkpt lat="4.738079" lon="-75.654938"></trkpt>
      <trkpt lat="4.738187" lon="-75.655105"></trkpt>
      <trkpt lat="4.738407" lon="-75.655403"></trkpt>
      <trkpt lat="4.738702" lon="-75.655784"></trkpt>
      <trkpt lat="4.739066" lon="-75.656225"></trkpt>
      <trkpt lat="4.739388" lon="-75.656647"></trkpt>
      <trkpt lat="4.739515" lon="-75.656852"></trkpt>
      <trkpt lat="4.739584" lon="-75.657019"></trkpt>
      <trkpt lat="4.739685" lon="-75.657325"></trkpt>
      <trkpt lat="4.739946" lon="-75.658322"></trkpt>
      <trkpt lat="4.740085" lon="-75.658649"></trkpt>
      <trkpt lat="4.740323" lon="-75.659128"></trkpt>
      <trkpt lat="4.740586" lon="-75.659751"></trkpt>
      <trkpt lat="4.740732" lon="-75.659975"></trkpt>
      <trkpt lat="4.740903" lon="-75.660173"></trkpt>
      <trkpt lat="4.741208" lon="-75.660433"></trkpt>
      <trkpt lat="4.741538" lon="-75.660702"></trkpt>
      <trkpt lat="4.741803" lon="-75.660968"></trkpt>
      <trkpt lat="4.742081" lon="-75.661294"></trkpt>
      <trkpt lat="4.742444" lon="-75.661811"></trkpt>
      <trkpt lat="4.742743" lon="-75.662271"></trkpt>
      <trkpt lat="4.743099" lon="-75.662813"></trkpt>
      <trkpt lat="4.743244" lon="-75.663005"></trkpt>
      <trkpt lat="4.743930" lon="-75.664005"></trkpt>
      <trkpt lat="4.744175" lon="-75.664365"></trkpt>
      <trkpt lat="4.744328" lon="-75.664574"></trkpt>
      <trkpt lat="4.744456" lon="-75.664710"></trkpt>
      <trkpt lat="4.744632" lon="-75.664810"></trkpt>
      <trkpt lat="4.744787" lon="-75.664866"></trkpt>
      <trkpt lat="4.744907" lon="-75.664897"></trkpt>
      <trkpt lat="4.745045" lon="-75.664933"></trkpt>
      <trkpt lat="4.745529" lon="-75.664843"></trkpt>
      <trkpt lat="4.745902" lon="-75.664765"></trkpt>
      <trkpt lat="4.746294" lon="-75.664721"></trkpt>
      <trkpt lat="4.747212" lon="-75.664553"></trkpt>
      <trkpt lat="4.747375" lon="-75.664533"></trkpt>
      <trkpt lat="4.747602" lon="-75.664536"></trkpt>
      <trkpt lat="4.747838" lon="-75.664584"></trkpt>
      <trkpt lat="4.748068" lon="-75.664673"></trkpt>
      <trkpt lat="4.748352" lon="-75.664832"></trkpt>
      <trkpt lat="4.748534" lon="-75.664966"></trkpt>
      <trkpt lat="4.748668" lon="-75.665095"></trkpt>
      <trkpt lat="4.748808" lon="-75.665263"></trkpt>
      <trkpt lat="4.748906" lon="-75.665438"></trkpt>
      <trkpt lat="4.749023" lon="-75.665674"></trkpt>
      <trkpt lat="4.749150" lon="-75.665947"></trkpt>
      <trkpt lat="4.749316" lon="-75.666321"></trkpt>
      <trkpt lat="4.749660" lon="-75.667122"></trkpt>
      <trkpt lat="4.749759" lon="-75.667392"></trkpt>
      <trkpt lat="4.749829" lon="-75.667670"></trkpt>
      <trkpt lat="4.749956" lon="-75.668304"></trkpt>
      <trkpt lat="4.750082" lon="-75.668963"></trkpt>
      <trkpt lat="4.750167" lon="-75.669412"></trkpt>
      <trkpt lat="4.750450" lon="-75.670914"></trkpt>
      <trkpt lat="4.750527" lon="-75.671268"></trkpt>
      <trkpt lat="4.750606" lon="-75.671479"></trkpt>
      <trkpt lat="4.750714" lon="-75.671667"></trkpt>
      <trkpt lat="4.750847" lon="-75.671830"></trkpt>
      <trkpt lat="4.751023" lon="-75.671994"></trkpt>
      <trkpt lat="4.751221" lon="-75.672142"></trkpt>
      <trkpt lat="4.751576" lon="-75.672371"></trkpt>
      <trkpt lat="4.752018" lon="-75.672661"></trkpt>
      <trkpt lat="4.752166" lon="-75.672793"></trkpt>
      <trkpt lat="4.752242" lon="-75.672884"></trkpt>
      <trkpt lat="4.752280" lon="-75.672939"></trkpt>
      <trkpt lat="4.752361" lon="-75.673086"></trkpt>
      <trkpt lat="4.752421" lon="-75.673239"></trkpt>
      <trkpt lat="4.752480" lon="-75.673518"></trkpt>
      <trkpt lat="4.752602" lon="-75.674162"></trkpt>
      <trkpt lat="4.752658" lon="-75.674369"></trkpt>
      <trkpt lat="4.752713" lon="-75.674498"></trkpt>
      <trkpt lat="4.752820" lon="-75.674632"></trkpt>
      <trkpt lat="4.752975" lon="-75.674747"></trkpt>
      <trkpt lat="4.754109" lon="-75.675309"></trkpt>
      <trkpt lat="4.754386" lon="-75.675446"></trkpt>
      <trkpt lat="4.754576" lon="-75.675564"></trkpt>
      <trkpt lat="4.754745" lon="-75.675695"></trkpt>
      <trkpt lat="4.754910" lon="-75.675854"></trkpt>
      <trkpt lat="4.755029" lon="-75.675991"></trkpt>
      <trkpt lat="4.755287" lon="-75.676316"></trkpt>
      <trkpt lat="4.755614" lon="-75.676718"></trkpt>
      <trkpt lat="4.755756" lon="-75.676885"></trkpt>
      <trkpt lat="4.755915" lon="-75.677058"></trkpt>
      <trkpt lat="4.756066" lon="-75.677190"></trkpt>
      <trkpt lat="4.756269" lon="-75.677337"></trkpt>
      <trkpt lat="4.756699" lon="-75.677638"></trkpt>
      <trkpt lat="4.757026" lon="-75.677854"></trkpt>
      <trkpt lat="4.757142" lon="-75.677954"></trkpt>
      <trkpt lat="4.757240" lon="-75.678052"></trkpt>
      <trkpt lat="4.757346" lon="-75.678236"></trkpt>
      <trkpt lat="4.757442" lon="-75.678475"></trkpt>
      <trkpt lat="4.757564" lon="-75.678848"></trkpt>
      <trkpt lat="4.757662" lon="-75.679164"></trkpt>
      <trkpt lat="4.757739" lon="-75.679412"></trkpt>
      <trkpt lat="4.757850" lon="-75.679658"></trkpt>
      <trkpt lat="4.758195" lon="-75.680361"></trkpt>
      <trkpt lat="4.758817" lon="-75.681636"></trkpt>
      <trkpt lat="4.759152" lon="-75.682278"></trkpt>
      <trkpt lat="4.759367" lon="-75.682606"></trkpt>
      <trkpt lat="4.759567" lon="-75.682852"></trkpt>
      <trkpt lat="4.759751" lon="-75.683031"></trkpt>
      <trkpt lat="4.760025" lon="-75.683263"></trkpt>
      <trkpt lat="4.760306" lon="-75.683476"></trkpt>
      <trkpt lat="4.760869" lon="-75.683832"></trkpt>
      <trkpt lat="4.761099" lon="-75.683998"></trkpt>
      <trkpt lat="4.761316" lon="-75.684140"></trkpt>
      <trkpt lat="4.761514" lon="-75.684311"></trkpt>
      <trkpt lat="4.763661" lon="-75.686190"></trkpt>
      <trkpt lat="4.764170" lon="-75.686665"></trkpt>
      <trkpt lat="4.764360" lon="-75.686869"></trkpt>
      <trkpt lat="4.764509" lon="-75.687054"></trkpt>
      <trkpt lat="4.764815" lon="-75.687455"></trkpt>
      <trkpt lat="4.765047" lon="-75.687849"></trkpt>
      <trkpt lat="4.765604" lon="-75.688749"></trkpt>
      <trkpt lat="4.765771" lon="-75.688979"></trkpt>
      <trkpt lat="4.765930" lon="-75.689171"></trkpt>
      <trkpt lat="4.766098" lon="-75.689348"></trkpt>
      <trkpt lat="4.766247" lon="-75.689480"></trkpt>
      <trkpt lat="4.766897" lon="-75.689918"></trkpt>
      <trkpt lat="4.767368" lon="-75.690301"></trkpt>
      <trkpt lat="4.767523" lon="-75.690416"></trkpt>
      <trkpt lat="4.767704" lon="-75.690512"></trkpt>
      <trkpt lat="4.767908" lon="-75.690547"></trkpt>
      <trkpt lat="4.768144" lon="-75.690542"></trkpt>
      <trkpt lat="4.768805" lon="-75.690482"></trkpt>
      <trkpt lat="4.769352" lon="-75.690439"></trkpt>
      <trkpt lat="4.769567" lon="-75.690468"></trkpt>
      <trkpt lat="4.769657" lon="-75.690494"></trkpt>
      <trkpt lat="4.769775" lon="-75.690544"></trkpt>
      <trkpt lat="4.770030" lon="-75.690679"></trkpt>
      <trkpt lat="4.770459" lon="-75.690998"></trkpt>
      <trkpt lat="4.770715" lon="-75.691176"></trkpt>
      <trkpt lat="4.770928" lon="-75.691310"></trkpt>
      <trkpt lat="4.771050" lon="-75.691391"></trkpt>
      <trkpt lat="4.771342" lon="-75.691538"></trkpt>
      <trkpt lat="4.771576" lon="-75.691632"></trkpt>
      <trkpt lat="4.771832" lon="-75.691714"></trkpt>
      <trkpt lat="4.772016" lon="-75.691766"></trkpt>
      <trkpt lat="4.772321" lon="-75.691846"></trkpt>
      <trkpt lat="4.772695" lon="-75.691946"></trkpt>
      <trkpt lat="4.774084" lon="-75.692338"></trkpt>
      <trkpt lat="4.775640" lon="-75.692731"></trkpt>
      <trkpt lat="4.776071" lon="-75.692844"></trkpt>
      <trkpt lat="4.776372" lon="-75.692925"></trkpt>
      <trkpt lat="4.776645" lon="-75.693002"></trkpt>
      <trkpt lat="4.776934" lon="-75.693093"></trkpt>
      <trkpt lat="4.777169" lon="-75.693202"></trkpt>
      <trkpt lat="4.777382" lon="-75.693316"></trkpt>
      <trkpt lat="4.777503" lon="-75.693396"></trkpt>
      <trkpt lat="4.777759" lon="-75.693608"></trkpt>
      <trkpt lat="4.777942" lon="-75.693824"></trkpt>
      <trkpt lat="4.778092" lon="-75.694058"></trkpt>
      <trkpt lat="4.778304" lon="-75.694533"></trkpt>
      <trkpt lat="4.778332" lon="-75.694595"></trkpt>
      <trkpt lat="4.778423" lon="-75.694814"></trkpt>
      <trkpt lat="4.778540" lon="-75.695179"></trkpt>
      <trkpt lat="4.778614" lon="-75.695435"></trkpt>
      <trkpt lat="4.778656" lon="-75.695562"></trkpt>
      <trkpt lat="4.778702" lon="-75.695646"></trkpt>
      <trkpt lat="4.778805" lon="-75.695779"></trkpt>
      <trkpt lat="4.778864" lon="-75.695844"></trkpt>
      <trkpt lat="4.779011" lon="-75.695971"></trkpt>
      <trkpt lat="4.779444" lon="-75.696293"></trkpt>
      <trkpt lat="4.780408" lon="-75.696980"></trkpt>
      <trkpt lat="4.780641" lon="-75.697155"></trkpt>
      <trkpt lat="4.780862" lon="-75.697364"></trkpt>
      <trkpt lat="4.781082" lon="-75.697601"></trkpt>
      <trkpt lat="4.781334" lon="-75.697946"></trkpt>
      <trkpt lat="4.781444" lon="-75.698098"></trkpt>
      <trkpt lat="4.781926" lon="-75.698732"></trkpt>
      <trkpt lat="4.782144" lon="-75.698888"></trkpt>
      <trkpt lat="4.782256" lon="-75.698949"></trkpt>
      <trkpt lat="4.782372" lon="-75.699002"></trkpt>
      <trkpt lat="4.782544" lon="-75.699055"></trkpt>
      <trkpt lat="4.782932" lon="-75.699161"></trkpt>
      <trkpt lat="4.783086" lon="-75.699196"></trkpt>
      <trkpt lat="4.783270" lon="-75.699228"></trkpt>
      <trkpt lat="4.783408" lon="-75.699221"></trkpt>
      <trkpt lat="4.783512" lon="-75.699201"></trkpt>
      <trkpt lat="4.783627" lon="-75.699158"></trkpt>
      <trkpt lat="4.783786" lon="-75.699029"></trkpt>
      <trkpt lat="4.783896" lon="-75.698872"></trkpt>
      <trkpt lat="4.783931" lon="-75.698777"></trkpt>
      <trkpt lat="4.783964" lon="-75.698615"></trkpt>
      <trkpt lat="4.783962" lon="-75.698526"></trkpt>
      <trkpt lat="4.783939" lon="-75.698393"></trkpt>
      <trkpt lat="4.783846" lon="-75.698221"></trkpt>
      <trkpt lat="4.783660" lon="-75.698037"></trkpt>
      <trkpt lat="4.783236" lon="-75.697739"></trkpt>
      <trkpt lat="4.782715" lon="-75.697370"></trkpt>
      <trkpt lat="4.782575" lon="-75.697241"></trkpt>
      <trkpt lat="4.782484" lon="-75.697113"></trkpt>
      <trkpt lat="4.782433" lon="-75.697003"></trkpt>
      <trkpt lat="4.782401" lon="-75.696898"></trkpt>
      <trkpt lat="4.782331" lon="-75.696627"></trkpt>
      <trkpt lat="4.782238" lon="-75.696237"></trkpt>
      <trkpt lat="4.782218" lon="-75.696058"></trkpt>
      <trkpt lat="4.782238" lon="-75.695875"></trkpt>
      <trkpt lat="4.782339" lon="-75.695733"></trkpt>
      <trkpt lat="4.782468" lon="-75.695598"></trkpt>
      <trkpt lat="4.782580" lon="-75.695520"></trkpt>
      <trkpt lat="4.782729" lon="-75.695476"></trkpt>
      <trkpt lat="4.782898" lon="-75.695476"></trkpt>
      <trkpt lat="4.783043" lon="-75.695515"></trkpt>
      <trkpt lat="4.783359" lon="-75.695706"></trkpt>
      <trkpt lat="4.783539" lon="-75.695829"></trkpt>
      <trkpt lat="4.783682" lon="-75.695963"></trkpt>
      <trkpt lat="4.784120" lon="-75.696484"></trkpt>
      <trkpt lat="4.784273" lon="-75.696636"></trkpt>
      <trkpt lat="4.784557" lon="-75.696842"></trkpt>
      <trkpt lat="4.784775" lon="-75.696977"></trkpt>
      <trkpt lat="4.784948" lon="-75.697038"></trkpt>
      <trkpt lat="4.785203" lon="-75.697077"></trkpt>
      <trkpt lat="4.785970" lon="-75.696984"></trkpt>
      <trkpt lat="4.786261" lon="-75.696899"></trkpt>
      <trkpt lat="4.786410" lon="-75.696751"></trkpt>
      <trkpt lat="4.786503" lon="-75.696572"></trkpt>
      <trkpt lat="4.786538" lon="-75.695669"></trkpt>
      <trkpt lat="4.786480" lon="-75.695349"></trkpt>
      <trkpt lat="4.786140" lon="-75.694704"></trkpt>
      <trkpt lat="4.786075" lon="-75.694483"></trkpt>
      <trkpt lat="4.786083" lon="-75.694265"></trkpt>
      <trkpt lat="4.786230" lon="-75.694011"></trkpt>
      <trkpt lat="4.786433" lon="-75.693884"></trkpt>
      <trkpt lat="4.786721" lon="-75.693859"></trkpt>
      <trkpt lat="4.786918" lon="-75.693915"></trkpt>
      <trkpt lat="4.787076" lon="-75.694024"></trkpt>
      <trkpt lat="4.787277" lon="-75.694213"></trkpt>
      <trkpt lat="4.787400" lon="-75.694407"></trkpt>
      <trkpt lat="4.787539" lon="-75.694759"></trkpt>
      <trkpt lat="4.787805" lon="-75.695663"></trkpt>
      <trkpt lat="4.787992" lon="-75.695988"></trkpt>
      <trkpt lat="4.788297" lon="-75.696160"></trkpt>
      <trkpt lat="4.788972" lon="-75.696332"></trkpt>
      <trkpt lat="4.789419" lon="-75.696342"></trkpt>
      <trkpt lat="4.789831" lon="-75.696306"></trkpt>
      <trkpt lat="4.790511" lon="-75.696105"></trkpt>
      <trkpt lat="4.790738" lon="-75.696024"></trkpt>
      <trkpt lat="4.791028" lon="-75.696049"></trkpt>
      <trkpt lat="4.791815" lon="-75.696297"></trkpt>
      <trkpt lat="4.792245" lon="-75.696380"></trkpt>
      <trkpt lat="4.792750" lon="-75.696326"></trkpt>
      <trkpt lat="4.793724" lon="-75.696112"></trkpt>
      <trkpt lat="4.793797" lon="-75.696098"></trkpt>
      <trkpt lat="4.794101" lon="-75.696014"></trkpt>
      <trkpt lat="4.794357" lon="-75.695916"></trkpt>
      <trkpt lat="4.794645" lon="-75.695758"></trkpt>
      <trkpt lat="4.795166" lon="-75.695383"></trkpt>
      <trkpt lat="4.795509" lon="-75.695125"></trkpt>
      <trkpt lat="4.795617" lon="-75.695043"></trkpt>
      <trkpt lat="4.795863" lon="-75.694891"></trkpt>
      <trkpt lat="4.796100" lon="-75.694763"></trkpt>
      <trkpt lat="4.796603" lon="-75.694758"></trkpt>
      <trkpt lat="4.797496" lon="-75.694839"></trkpt>
      <trkpt lat="4.798077" lon="-75.694820"></trkpt>
      <trkpt lat="4.798421" lon="-75.694740"></trkpt>
      <trkpt lat="4.798636" lon="-75.694684"></trkpt>
      <trkpt lat="4.799912" lon="-75.694343"></trkpt>
      <trkpt lat="4.800643" lon="-75.694169"></trkpt>
      <trkpt lat="4.801389" lon="-75.694243"></trkpt>
      <trkpt lat="4.801892" lon="-75.694179"></trkpt>
      <trkpt lat="4.802364" lon="-75.694022"></trkpt>
      <trkpt lat="4.802845" lon="-75.693896"></trkpt>
      <trkpt lat="4.803697" lon="-75.693787"></trkpt>
      <trkpt lat="4.804324" lon="-75.693697"></trkpt>
      <trkpt lat="4.805087" lon="-75.693586"></trkpt>
      <trkpt lat="4.805843" lon="-75.693506"></trkpt>
      <trkpt lat="4.806270" lon="-75.693472"></trkpt>
      <trkpt lat="4.807120" lon="-75.693384"></trkpt>
      <trkpt lat="4.807697" lon="-75.693308"></trkpt>
      <trkpt lat="4.807939" lon="-75.693271"></trkpt>
      <trkpt lat="4.808321" lon="-75.693216"></trkpt>
      <trkpt lat="4.809883" lon="-75.692491"></trkpt>
      <trkpt lat="4.810139" lon="-75.692252"></trkpt>
      <trkpt lat="4.810234" lon="-75.692080"></trkpt>
      <trkpt lat="4.810286" lon="-75.691891"></trkpt>
      <trkpt lat="4.810272" lon="-75.691690"></trkpt>
      <trkpt lat="4.810109" lon="-75.691318"></trkpt>
      <trkpt lat="4.809672" lon="-75.690454"></trkpt>
      <trkpt lat="4.809609" lon="-75.690111"></trkpt>
      <trkpt lat="4.809663" lon="-75.689729"></trkpt>
      <trkpt lat="4.809836" lon="-75.689357"></trkpt>
      <trkpt lat="4.810322" lon="-75.688973"></trkpt>
      <trkpt lat="4.810641" lon="-75.688726"></trkpt>
      <trkpt lat="4.810839" lon="-75.688588"></trkpt>
      <trkpt lat="4.811313" lon="-75.688257"></trkpt>
      <trkpt lat="4.812131" lon="-75.687688"></trkpt>
      <trkpt lat="4.812255" lon="-75.687625"></trkpt>
      <trkpt lat="4.812686" lon="-75.687556"></trkpt>
      <trkpt lat="4.813193" lon="-75.687493"></trkpt>
      <trkpt lat="4.813478" lon="-75.687454"></trkpt>
      <trkpt lat="4.813800" lon="-75.687396"></trkpt>
      <trkpt lat="4.814145" lon="-75.687309"></trkpt>
      <trkpt lat="4.819396" lon="-75.685475"></trkpt>
      <trkpt lat="4.819859" lon="-75.685328"></trkpt>
      <trkpt lat="4.820357" lon="-75.685157"></trkpt>
      <trkpt lat="4.821231" lon="-75.684804"></trkpt>
      <trkpt lat="4.821543" lon="-75.684445"></trkpt>
      <trkpt lat="4.821887" lon="-75.684089"></trkpt>
      <trkpt lat="4.822180" lon="-75.683867"></trkpt>
      <trkpt lat="4.822809" lon="-75.683638"></trkpt>
      <trkpt lat="4.823386" lon="-75.683420"></trkpt>
      <trkpt lat="4.823880" lon="-75.683214"></trkpt>
      <trkpt lat="4.824787" lon="-75.682674"></trkpt>
      <trkpt lat="4.825465" lon="-75.682248"></trkpt>
      <trkpt lat="4.825920" lon="-75.681959"></trkpt>
      <trkpt lat="4.826126" lon="-75.681833"></trkpt>
      <trkpt lat="4.825715" lon="-75.681211"></trkpt>
      <trkpt lat="4.824920" lon="-75.679905"></trkpt>
      <trkpt lat="4.824671" lon="-75.679414"></trkpt>
      <trkpt lat="4.824684" lon="-75.678383"></trkpt>
      <trkpt lat="4.824652" lon="-75.678265"></trkpt>
      <trkpt lat="4.824571" lon="-75.678173"></trkpt>
      <trkpt lat="4.823245" lon="-75.676839"></trkpt>
      <trkpt lat="4.822836" lon="-75.676374"></trkpt>
      <trkpt lat="4.822529" lon="-75.676270"></trkpt>
      <trkpt lat="4.822195" lon="-75.676214"></trkpt>
      <trkpt lat="4.821879" lon="-75.676200"></trkpt>
      <trkpt lat="4.821560" lon="-75.676058"></trkpt>
      <trkpt lat="4.821282" lon="-75.675840"></trkpt>
      <trkpt lat="4.820997" lon="-75.675732"></trkpt>
      <trkpt lat="4.820728" lon="-75.675688"></trkpt>
      <trkpt lat="4.820193" lon="-75.675677"></trkpt>
      <trkpt lat="4.819419" lon="-75.675937"></trkpt>
    </trkseg>
  </trk>
</gpx>
